{
  "version": 0.6,
  "generator": "Overpass API 0.7.56.7 b85c4387",
  "osm3s": {
    "timestamp_osm_base": "2021-02-21T17:41:45Z",
    "timestamp_areas_base": "2021-02-21T16:02:07Z",
    "copyright": "The data included in this document is from www.openstreetmap.org. The data is made available under ODbL."
  },
  "elements": [
    {
      "type": "node",
      "id": 316484856,
      "lat": -22.9598977,
      "lon": -43.0297503,
      "tags": {
        "name": "Martinica",
        "shop": "supermarket"
      }
    },
    {
      "type": "node",
      "id": 324282016,
      "lat": -22.9408596,
      "lon": -43.0559479,
      "tags": {
        "shop": "supermarket"
      }
    },
    {
      "type": "node",
      "id": 335418967,
      "lat": -22.9022098,
      "lon": -43.1105911,
      "tags": {
        "addr:housenumber": "186",
        "addr:postcode": "24220-031",
        "addr:street": "Rua General Pereira da Silva",
        "name": "Carminha Coiffeur",
        "shop": "hairdresser"
      }
    },
    {
      "type": "node",
      "id": 335418970,
      "lat": -22.902181,
      "lon": -43.1105531,
      "tags": {
        "addr:housenumber": "188",
        "addr:postcode": "24220-031",
        "addr:street": "Rua General Pereira da Silva",
        "name": "Lav Fácil",
        "shop": "laundry"
      }
    },
    {
      "type": "node",
      "id": 335418988,
      "lat": -22.902677,
      "lon": -43.1109911,
      "tags": {
        "addr:housenumber": "170",
        "addr:postcode": "24220-031",
        "addr:street": "Rua General Pereira da Silva",
        "name": "Madeirol",
        "shop": "furniture"
      }
    },
    {
      "type": "node",
      "id": 335419097,
      "lat": -22.9029989,
      "lon": -43.1097775,
      "tags": {
        "addr:housenumber": "185",
        "addr:street": "Rua Presidente Backer",
        "name": "Faça Festa",
        "shop": "yes"
      }
    },
    {
      "type": "node",
      "id": 336161798,
      "lat": -22.9027656,
      "lon": -43.1132585,
      "tags": {
        "name": "Nando",
        "shop": "supermarket"
      }
    },
    {
      "type": "node",
      "id": 338513867,
      "lat": -22.9027275,
      "lon": -43.1113419,
      "tags": {
        "addr:city": "Niterói",
        "addr:housenumber": "155",
        "addr:street": "Rua General Pereira da Silva",
        "addr:suburb": "Icaraí",
        "name": "Prêmio Livraria Papelaria",
        "shop": "books"
      }
    },
    {
      "type": "node",
      "id": 338513874,
      "lat": -22.9024468,
      "lon": -43.1115608,
      "tags": {
        "name": "Tim",
        "shop": "electronics"
      }
    },
    {
      "type": "node",
      "id": 430968788,
      "lat": -22.8934988,
      "lon": -43.1240548,
      "tags": {
        "shop": "kiosk"
      }
    },
    {
      "type": "node",
      "id": 430992419,
      "lat": -22.8942433,
      "lon": -43.119329,
      "tags": {
        "name": "Digital Service",
        "shop": "stationery"
      }
    },
    {
      "type": "node",
      "id": 430992422,
      "lat": -22.8942778,
      "lon": -43.1200678,
      "tags": {
        "addr:street": "Rua da Conceição",
        "name": "Multimarca",
        "shop": "clothes"
      }
    },
    {
      "type": "node",
      "id": 430992425,
      "lat": -22.8942724,
      "lon": -43.1201396,
      "tags": {
        "addr:street": "Rua da Conceição",
        "name": "Carimbos",
        "shop": "stationery"
      }
    },
    {
      "type": "node",
      "id": 430992428,
      "lat": -22.8942453,
      "lon": -43.1204985,
      "tags": {
        "addr:street": "Rua da Conceição",
        "name": "Colchões Ortobom",
        "shop": "furniture"
      }
    },
    {
      "type": "node",
      "id": 430992429,
      "lat": -22.8942507,
      "lon": -43.1204267,
      "tags": {
        "addr:street": "Rua da Conceição",
        "name": "Atacadão das Calcinhas",
        "shop": "clothes"
      }
    },
    {
      "type": "node",
      "id": 430992430,
      "lat": -22.894229,
      "lon": -43.1207138,
      "tags": {
        "addr:street": "Rua da Conceição",
        "name": "Fashion Mix",
        "shop": "clothes"
      }
    },
    {
      "type": "node",
      "id": 430992431,
      "lat": -22.8942398,
      "lon": -43.1205703,
      "tags": {
        "addr:street": "Rua da Conceição",
        "name": "Sola e Meia",
        "shop": "shoes"
      }
    },
    {
      "type": "node",
      "id": 430992433,
      "lat": -22.8942236,
      "lon": -43.1207856,
      "tags": {
        "addr:street": "Rua da Conceição",
        "name": "Vanitar",
        "shop": "clothes"
      }
    },
    {
      "type": "node",
      "id": 430992437,
      "lat": -22.8941884,
      "lon": -43.1212778,
      "tags": {
        "addr:housenumber": "85",
        "addr:street": "Rua da Conceição",
        "addr:suburb": "Centro",
        "name": "Moda Útil",
        "shop": "clothes"
      }
    },
    {
      "type": "node",
      "id": 430992438,
      "lat": -22.8942182,
      "lon": -43.1208574,
      "tags": {
        "addr:street": "Rua da Conceição",
        "name": "Work Paper",
        "shop": "stationery"
      }
    },
    {
      "type": "node",
      "id": 430992439,
      "lat": -22.894211,
      "lon": -43.1209365,
      "tags": {
        "addr:street": "Rua da Conceição",
        "name": "Mitt",
        "shop": "clothes"
      }
    },
    {
      "type": "node",
      "id": 430992443,
      "lat": -22.8941751,
      "lon": -43.1214464,
      "tags": {
        "addr:street": "Rua da Conceição",
        "name": "Ponto Frio",
        "shop": "electronics"
      }
    },
    {
      "type": "node",
      "id": 430992445,
      "lat": -22.8941352,
      "lon": -43.1219521,
      "tags": {
        "addr:street": "Rua da Conceição",
        "name": "Insinuante",
        "shop": "electronics"
      }
    },
    {
      "type": "node",
      "id": 430992447,
      "lat": -22.8941485,
      "lon": -43.1217835,
      "tags": {
        "addr:street": "Rua da Conceição",
        "name": "Mercadão de 1,99",
        "shop": "convenience"
      }
    },
    {
      "type": "node",
      "id": 430992450,
      "lat": -22.8941286,
      "lon": -43.1220364,
      "tags": {
        "addr:street": "Rua da Conceição",
        "name": "Luciu's",
        "shop": "clothes"
      }
    },
    {
      "type": "node",
      "id": 430992462,
      "lat": -22.8940305,
      "lon": -43.1231956,
      "tags": {
        "addr:street": "Rua da Conceição",
        "name": "Mr. Fortune",
        "shop": "clothes"
      }
    },
    {
      "type": "node",
      "id": 430992464,
      "lat": -22.8940167,
      "lon": -43.123343,
      "tags": {
        "addr:street": "Rua da Conceição",
        "name": "Roma Tel",
        "shop": "electronics"
      }
    },
    {
      "type": "node",
      "id": 430992465,
      "lat": -22.8940098,
      "lon": -43.1234167,
      "tags": {
        "addr:street": "Rua da Conceição",
        "shop": "florist"
      }
    },
    {
      "type": "node",
      "id": 430992466,
      "lat": -22.8940029,
      "lon": -43.1234904,
      "tags": {
        "addr:street": "Rua da Conceição",
        "name": "Oi",
        "shop": "electronics"
      }
    },
    {
      "type": "node",
      "id": 448775218,
      "lat": -22.9025122,
      "lon": -43.1107292,
      "tags": {
        "addr:postcode": "24220-031",
        "addr:street": "Rua General Pereira da Silva",
        "name": "Só Fofas",
        "shop": "clothes"
      }
    },
    {
      "type": "node",
      "id": 448775219,
      "lat": -22.9024857,
      "lon": -43.1108367,
      "tags": {
        "addr:postcode": "24220-031",
        "addr:street": "Rua General Pereira da Silva",
        "name": "Ate e Arremate",
        "shop": "Armarinho"
      }
    },
    {
      "type": "node",
      "id": 448777830,
      "lat": -22.9030961,
      "lon": -43.1079984,
      "tags": {
        "name": "estação da casa",
        "shop": "furniture"
      }
    },
    {
      "type": "node",
      "id": 448786360,
      "lat": -22.90048,
      "lon": -43.1048381,
      "tags": {
        "name": "Tinturaria Brasileira",
        "shop": "laundry"
      }
    },
    {
      "type": "node",
      "id": 448786364,
      "lat": -22.9003823,
      "lon": -43.1046177,
      "tags": {
        "name": "Rei do Som",
        "shop": "electronics"
      }
    },
    {
      "type": "node",
      "id": 448786367,
      "lat": -22.9020148,
      "lon": -43.1032249,
      "tags": {
        "addr:city": "Niterói",
        "addr:housenumber": "398",
        "addr:postcode": "24220-090",
        "addr:street": "Rua Domingues de Sá",
        "addr:suburb": "Jardim Icaraí",
        "name": "Cahu",
        "phone": "+55 21 2711-4425",
        "shop": "video"
      }
    },
    {
      "type": "node",
      "id": 448786369,
      "lat": -22.9019631,
      "lon": -43.1032612,
      "tags": {
        "addr:city": "Niterói",
        "addr:housenumber": "137",
        "addr:street": "Rua Domingues de Sá",
        "addr:suburb": "Icaraí",
        "name": "Novo dia",
        "shop": "bakery"
      }
    },
    {
      "type": "node",
      "id": 452654148,
      "lat": -22.9022361,
      "lon": -43.1088989,
      "tags": {
        "name": "Nordene - espaço de estética e beleza",
        "shop": "hairdresser"
      }
    },
    {
      "type": "node",
      "id": 452654156,
      "lat": -22.9020222,
      "lon": -43.1086587,
      "tags": {
        "name": "Colchões Ortobom",
        "shop": "furniture"
      }
    },
    {
      "type": "node",
      "id": 452654158,
      "lat": -22.9019509,
      "lon": -43.1085813,
      "tags": {
        "name": "Romero's Distribuidora de Bebidas",
        "shop": "alcohol"
      }
    },
    {
      "type": "node",
      "id": 452867518,
      "lat": -22.906147,
      "lon": -43.1132647,
      "tags": {
        "addr:postcode": "24220-045",
        "addr:street": "Rua Presidente Backer",
        "name": "Italínea",
        "shop": "furniture"
      }
    },
    {
      "type": "node",
      "id": 452867522,
      "lat": -22.9059308,
      "lon": -43.1129712,
      "tags": {
        "addr:postcode": "24220-045",
        "addr:street": "Rua Presidente Backer",
        "name": "Chaveiro",
        "shop": "keymaker"
      }
    },
    {
      "type": "node",
      "id": 452867525,
      "lat": -22.905816,
      "lon": -43.1128829,
      "tags": {
        "addr:postcode": "24220-045",
        "addr:street": "Rua Presidente Backer",
        "name": "Bom pra Cachorro",
        "shop": "pet"
      }
    },
    {
      "type": "node",
      "id": 452867526,
      "lat": -22.9057693,
      "lon": -43.1128275,
      "tags": {
        "addr:postcode": "24220-045",
        "addr:street": "Rua Presidente Backer",
        "name": "Predi Icaraí Imóveis",
        "shop": "estate_agent"
      }
    },
    {
      "type": "node",
      "id": 1232616993,
      "lat": -22.9066524,
      "lon": -43.0618079,
      "tags": {
        "addr:housenumber": "20",
        "addr:postcode": "24320-280",
        "addr:street": "Rua Braulio Ralha",
        "name": "RobCat",
        "phone": "+552126162988",
        "shop": "car_repair"
      }
    },
    {
      "type": "node",
      "id": 1416441872,
      "lat": -22.9048536,
      "lon": -43.1301947,
      "tags": {
        "name": "Gran Gourmet",
        "shop": "bakery"
      }
    },
    {
      "type": "node",
      "id": 1463421949,
      "lat": -22.8967591,
      "lon": -43.1270025,
      "tags": {
        "name": "Travessia",
        "shop": "doityourself"
      }
    },
    {
      "type": "node",
      "id": 1463421956,
      "lat": -22.8986223,
      "lon": -43.1291107,
      "tags": {
        "name": "Carícia de Amor",
        "shop": "bakery"
      }
    },
    {
      "type": "node",
      "id": 1579072042,
      "lat": -22.9520914,
      "lon": -43.0584473,
      "tags": {
        "name": "Mister Trigo",
        "shop": "bakery"
      }
    },
    {
      "type": "node",
      "id": 1672071085,
      "lat": -22.8873551,
      "lon": -43.0335602,
      "tags": {
        "name": "Pérola",
        "shop": "supermarket"
      }
    },
    {
      "type": "node",
      "id": 1792088357,
      "lat": -22.9059899,
      "lon": -43.1074962,
      "tags": {
        "addr:city": "Niterói",
        "addr:housenumber": "166",
        "addr:postcode": "24220-091",
        "addr:street": "Rua Domingues de Sá",
        "addr:suburb": "Icaraí",
        "name": "Casa Tevere",
        "shop": "supermarket"
      }
    },
    {
      "type": "node",
      "id": 1821838411,
      "lat": -22.8983112,
      "lon": -43.1289613,
      "tags": {
        "shop": "kiosk"
      }
    },
    {
      "type": "node",
      "id": 1823401379,
      "lat": -22.8969493,
      "lon": -43.1254634,
      "tags": {
        "name": "Editora da UFF",
        "shop": "books"
      }
    },
    {
      "type": "node",
      "id": 1922902333,
      "lat": -22.9404601,
      "lon": -43.0453424,
      "tags": {
        "shop": "motorcycle"
      }
    },
    {
      "type": "node",
      "id": 1923601679,
      "lat": -22.9546411,
      "lon": -43.0282406,
      "tags": {
        "name": "TSN",
        "shop": "sports",
        "sport": "surf"
      }
    },
    {
      "type": "node",
      "id": 1923796595,
      "lat": -22.8813355,
      "lon": -43.0940435,
      "tags": {
        "name": "Multi Market",
        "shop": "supermarket"
      }
    },
    {
      "type": "node",
      "id": 1923796614,
      "lat": -22.8891146,
      "lon": -43.0955961,
      "tags": {
        "name": "Mini Mercado Aliança",
        "phone": "+55 21 3254-6882",
        "shop": "convenience"
      }
    },
    {
      "type": "node",
      "id": 1930091046,
      "lat": -22.885334,
      "lon": -43.124904,
      "tags": {
        "shop": "seafood"
      }
    },
    {
      "type": "node",
      "id": 2003591342,
      "lat": -22.929373,
      "lon": -43.0650704,
      "tags": {
        "name": "Hyundai",
        "shop": "car"
      }
    },
    {
      "type": "node",
      "id": 2003591346,
      "lat": -22.9297725,
      "lon": -43.0653821,
      "tags": {
        "name": "Nissan",
        "shop": "car"
      }
    },
    {
      "type": "node",
      "id": 2091599841,
      "lat": -22.9426415,
      "lon": -43.029106,
      "tags": {
        "name": "Espaço + Bela",
        "shop": "hairdresser",
        "source": "survey"
      }
    },
    {
      "type": "node",
      "id": 2091599906,
      "lat": -22.9428487,
      "lon": -43.0296737,
      "tags": {
        "name": "Supermarket",
        "note": "Yeah, the name is really \"Supermarket\".",
        "shop": "supermarket",
        "source": "survey"
      }
    },
    {
      "type": "node",
      "id": 2091661664,
      "lat": -22.9425138,
      "lon": -43.0293878,
      "tags": {
        "name": "Josauto Peças",
        "shop": "car_repair",
        "source": "survey"
      }
    },
    {
      "type": "node",
      "id": 2091661666,
      "lat": -22.9418076,
      "lon": -43.0290419,
      "tags": {
        "name": "Ibiza",
        "shop": "mall",
        "source": "survey"
      }
    },
    {
      "type": "node",
      "id": 2098619319,
      "lat": -22.9015423,
      "lon": -43.1232051,
      "tags": {
        "addr:housenumber": "170",
        "addr:street": "Rua Tiradentes",
        "name": "Elias Guerra",
        "phone": "+55-21-3021-3985",
        "phone:2": "+55-21-8180-5093",
        "shop": "bicycle"
      }
    },
    {
      "type": "node",
      "id": 2098660421,
      "lat": -22.9403033,
      "lon": -43.0228101,
      "tags": {
        "addr:housenumber": "7",
        "addr:postcode": "24324270",
        "addr:street": "Rua Dezessete",
        "name": "Facebike",
        "phone": "+55-21-95147285",
        "shop": "bicycle"
      }
    },
    {
      "type": "node",
      "id": 2111114909,
      "lat": -22.912345,
      "lon": -43.0781518,
      "tags": {
        "shop": "bicycle"
      }
    },
    {
      "type": "node",
      "id": 2111266737,
      "lat": -22.9107379,
      "lon": -42.985608,
      "tags": {
        "name": "Saulo Biker",
        "note": "Avenida Ewerton da Costa Xavier esquina com Estrada Jean Vallenteau Moulliac, próximo a Rodovia Amaral Peixoto",
        "phone:2": "+55-21-3701-2846",
        "shop": "bicycle"
      }
    },
    {
      "type": "node",
      "id": 2292513619,
      "lat": -22.9416499,
      "lon": -43.0541207,
      "tags": {
        "name": "Freeport",
        "shop": "supermarket",
        "source": "survey"
      }
    },
    {
      "type": "node",
      "id": 2292513974,
      "lat": -22.9464056,
      "lon": -43.0327257,
      "tags": {
        "name": "Versales",
        "shop": "bakery",
        "source": "survey"
      }
    },
    {
      "type": "node",
      "id": 2292886504,
      "lat": -22.9437716,
      "lon": -43.0304647,
      "tags": {
        "addr:housenumber": "1813",
        "addr:street": "Avenida Ewerton da Costa Xavier",
        "name": "Real",
        "shop": "supermarket",
        "source": "survey"
      }
    },
    {
      "type": "node",
      "id": 2292886742,
      "lat": -22.9096387,
      "lon": -43.1028494,
      "tags": {
        "name": "Borracheiro",
        "shop": "car_repair",
        "source": "survey"
      }
    },
    {
      "type": "node",
      "id": 2292886743,
      "lat": -22.909606,
      "lon": -43.1100825,
      "tags": {
        "name": "Pão & Etc",
        "shop": "bakery",
        "source": "survey"
      }
    },
    {
      "type": "node",
      "id": 2292886744,
      "lat": -22.9013128,
      "lon": -43.1221324,
      "tags": {
        "name": "Sparcar",
        "shop": "car",
        "source": "survey"
      }
    },
    {
      "type": "node",
      "id": 2292886745,
      "lat": -22.8974026,
      "lon": -43.124335,
      "tags": {
        "name": "C&A",
        "shop": "clothes",
        "source": "survey"
      }
    },
    {
      "type": "node",
      "id": 2311493116,
      "lat": -22.8819243,
      "lon": -43.0666924,
      "tags": {
        "name": "Localiza Seminovos",
        "shop": "car",
        "source": "survey"
      }
    },
    {
      "type": "node",
      "id": 2311493128,
      "lat": -22.8810602,
      "lon": -43.0872361,
      "tags": {
        "name": "Supermarket",
        "shop": "supermarket",
        "source": "survey"
      }
    },
    {
      "type": "node",
      "id": 2314518648,
      "lat": -22.8979397,
      "lon": -43.0963647,
      "tags": {
        "shop": "bakery"
      }
    },
    {
      "type": "node",
      "id": 2378588406,
      "lat": -22.9631402,
      "lon": -43.0311646,
      "tags": {
        "old_name": "Supermercado Flash",
        "shop": "supermarket"
      }
    },
    {
      "type": "node",
      "id": 2378588659,
      "lat": -22.95192,
      "lon": -43.0247596,
      "tags": {
        "shop": "bakery"
      }
    },
    {
      "type": "node",
      "id": 2378590425,
      "lat": -22.9636045,
      "lon": -43.0319586,
      "tags": {
        "name": "Vitaly Padaria Bistrô",
        "shop": "bakery"
      }
    },
    {
      "type": "node",
      "id": 2379107769,
      "lat": -22.9271685,
      "lon": -43.0633837,
      "tags": {
        "name": "Concessionária Toyota",
        "shop": "car"
      }
    },
    {
      "type": "node",
      "id": 2379107771,
      "lat": -22.9311961,
      "lon": -43.0666614,
      "tags": {
        "name": "Loja de Motos e acessórios",
        "shop": "motorcycle"
      }
    },
    {
      "type": "node",
      "id": 2379107772,
      "lat": -22.9299738,
      "lon": -43.0655826,
      "tags": {
        "name": "Renault",
        "shop": "car"
      }
    },
    {
      "type": "node",
      "id": 2379107773,
      "lat": -22.9313947,
      "lon": -43.0668674,
      "tags": {
        "name": "VOLKSWAGEN",
        "shop": "car"
      }
    },
    {
      "type": "node",
      "id": 2379107777,
      "lat": -22.9302742,
      "lon": -43.0658739,
      "tags": {
        "name": "Suzuki",
        "shop": "car"
      }
    },
    {
      "type": "node",
      "id": 2379107779,
      "lat": -22.9320918,
      "lon": -43.0663669,
      "tags": {
        "name": "Peugeot",
        "shop": "car"
      }
    },
    {
      "type": "node",
      "id": 2379107780,
      "lat": -22.9465285,
      "lon": -43.0325372,
      "tags": {
        "name": "Versales",
        "shop": "alcohol"
      }
    },
    {
      "type": "node",
      "id": 2379107781,
      "lat": -22.9360307,
      "lon": -43.0629814,
      "tags": {
        "name": "Borracheiro",
        "shop": "car_repair"
      }
    },
    {
      "type": "node",
      "id": 2379107783,
      "lat": -22.9310765,
      "lon": -43.0665525,
      "tags": {
        "name": "Carros Usados",
        "shop": "car"
      }
    },
    {
      "type": "node",
      "id": 2379107785,
      "lat": -22.9307549,
      "lon": -43.0663256,
      "tags": {
        "name": "Mitsubishi",
        "shop": "car"
      }
    },
    {
      "type": "node",
      "id": 2379107786,
      "lat": -22.9280899,
      "lon": -43.0629465,
      "tags": {
        "name": "Concessionária Ford",
        "shop": "car"
      }
    },
    {
      "type": "node",
      "id": 2379107791,
      "lat": -22.9366379,
      "lon": -43.0629449,
      "tags": {
        "name": "Hortfruit",
        "shop": "greengrocer"
      }
    },
    {
      "type": "node",
      "id": 2379107795,
      "lat": -22.9309574,
      "lon": -43.066449,
      "tags": {
        "name": "Carros Usados",
        "shop": "car"
      }
    },
    {
      "type": "node",
      "id": 2379107805,
      "lat": -22.9287816,
      "lon": -43.0636895,
      "tags": {
        "name": "Loja de Usados",
        "shop": "car"
      }
    },
    {
      "type": "node",
      "id": 2379107807,
      "lat": -22.9276216,
      "lon": -43.0635913,
      "tags": {
        "name": "Concessionária Citroen",
        "shop": "car"
      }
    },
    {
      "type": "node",
      "id": 2379122506,
      "lat": -22.9336772,
      "lon": -43.021051,
      "tags": {
        "shop": "car_repair"
      }
    },
    {
      "type": "node",
      "id": 2379122512,
      "lat": -22.9351904,
      "lon": -43.0232316,
      "tags": {
        "shop": "car"
      }
    },
    {
      "type": "node",
      "id": 2379122518,
      "lat": -22.9342013,
      "lon": -43.0218964,
      "tags": {
        "shop": "bakery"
      }
    },
    {
      "type": "node",
      "id": 2379122531,
      "lat": -22.9338525,
      "lon": -43.0209222,
      "tags": {
        "shop": "alcohol"
      }
    },
    {
      "type": "node",
      "id": 2379122533,
      "lat": -22.9339686,
      "lon": -43.0210858,
      "tags": {
        "shop": "hairdresser"
      }
    },
    {
      "type": "node",
      "id": 2379122540,
      "lat": -22.9340847,
      "lon": -43.0212387,
      "tags": {
        "shop": "car_repair"
      }
    },
    {
      "type": "node",
      "id": 2379122543,
      "lat": -22.9341124,
      "lon": -43.021722,
      "tags": {
        "shop": "motorcycle"
      }
    },
    {
      "type": "node",
      "id": 2379122546,
      "lat": -22.9338842,
      "lon": -43.0214388,
      "tags": {
        "shop": "florist"
      }
    },
    {
      "type": "node",
      "id": 2379122551,
      "lat": -22.9339953,
      "lon": -43.0211223,
      "tags": {
        "shop": "bicycle"
      }
    },
    {
      "type": "node",
      "id": 2379122556,
      "lat": -22.9341593,
      "lon": -43.0217811,
      "tags": {
        "shop": "car_repair"
      }
    },
    {
      "type": "node",
      "id": 2379130071,
      "lat": -22.9335112,
      "lon": -43.0203868,
      "tags": {
        "shop": "car"
      }
    },
    {
      "type": "node",
      "id": 2379130073,
      "lat": -22.9331693,
      "lon": -43.0199437,
      "tags": {
        "shop": "car"
      }
    },
    {
      "type": "node",
      "id": 2379218520,
      "lat": -22.912342,
      "lon": -43.0481699,
      "tags": {
        "shop": "supermarket"
      }
    },
    {
      "type": "node",
      "id": 2420265041,
      "lat": -22.9029231,
      "lon": -43.1093466,
      "tags": {
        "addr:city": "Niterói",
        "addr:housenumber": "150",
        "addr:postcode": "24220-261",
        "addr:street": "Rua Mem de Sá",
        "name": "Padaria Santa Marta",
        "shop": "bakery"
      }
    },
    {
      "type": "node",
      "id": 2420292886,
      "lat": -22.9027447,
      "lon": -43.1094864,
      "tags": {
        "addr:city": "Niterói",
        "addr:housenumber": "195",
        "addr:street": "Rua Presidente Backer",
        "name": "Gigante da Colina - Loja do Vasco da Gama",
        "opening_hours": "09:00-19:00",
        "phone": "+55 21 2610-7400",
        "shop": "sports"
      }
    },
    {
      "type": "node",
      "id": 2429157436,
      "lat": -22.8934049,
      "lon": -43.1211106,
      "tags": {
        "name": "Calçapé",
        "shop": "shoes",
        "source": "survey"
      }
    },
    {
      "type": "node",
      "id": 2429157441,
      "lat": -22.8934086,
      "lon": -43.1210658,
      "tags": {
        "name": "Ótica Popular",
        "shop": "optician",
        "source": "survey"
      }
    },
    {
      "type": "node",
      "id": 2429157445,
      "lat": -22.893428,
      "lon": -43.120289,
      "tags": {
        "name": "Cacau Show",
        "shop": "deli",
        "source": "survey"
      }
    },
    {
      "type": "node",
      "id": 2429268082,
      "lat": -22.8937928,
      "lon": -43.1189805,
      "tags": {
        "name": "Delazeri",
        "phone": "+55-21-81875374",
        "shop": "convenience",
        "source": "survey"
      }
    },
    {
      "type": "node",
      "id": 2429268083,
      "lat": -22.8937986,
      "lon": -43.1191131,
      "tags": {
        "name": "Art Nit",
        "phone": "+55-21-26135500",
        "shop": "confectionery",
        "source": "survey"
      }
    },
    {
      "type": "node",
      "id": 2429268085,
      "lat": -22.8937902,
      "lon": -43.1192397,
      "tags": {
        "name": "QuiloBytes",
        "shop": "computer",
        "source": "survey"
      }
    },
    {
      "type": "node",
      "id": 2429268088,
      "lat": -22.8937784,
      "lon": -43.1193408,
      "tags": {
        "name": "Mr. Fortune",
        "shop": "clothes",
        "source": "survey"
      }
    },
    {
      "type": "node",
      "id": 2429268120,
      "lat": -22.8937379,
      "lon": -43.119832,
      "tags": {
        "name": "Claro",
        "shop": "mobile_phone",
        "source": "survey"
      }
    },
    {
      "type": "node",
      "id": 2429268122,
      "lat": -22.89374,
      "lon": -43.119885,
      "tags": {
        "name": "Conexão Moderna Informática",
        "phone": "+55-21-26130561",
        "shop": "computer",
        "source": "survey"
      }
    },
    {
      "type": "node",
      "id": 2429268126,
      "lat": -22.8937333,
      "lon": -43.1199772,
      "tags": {
        "name": "Nippon Importadora",
        "shop": "yes",
        "source": "survey"
      }
    },
    {
      "type": "node",
      "id": 2429268129,
      "lat": -22.8937303,
      "lon": -43.1201577,
      "tags": {
        "name": "Rommanel",
        "shop": "jewelry",
        "source": "survey"
      }
    },
    {
      "type": "node",
      "id": 2429268214,
      "lat": -22.8937268,
      "lon": -43.1203443,
      "tags": {
        "name": "Golden do Bairro",
        "shop": "optician",
        "source": "survey"
      }
    },
    {
      "type": "node",
      "id": 2429268217,
      "lat": -22.893718,
      "lon": -43.1205227,
      "tags": {
        "name": "Liderança",
        "shop": "optician",
        "source": "survey"
      }
    },
    {
      "type": "node",
      "id": 2429268339,
      "lat": -22.8937154,
      "lon": -43.1207338,
      "tags": {
        "name": "Lider",
        "shop": "hairdresser",
        "source": "survey"
      }
    },
    {
      "type": "node",
      "id": 2429268456,
      "lat": -22.8937154,
      "lon": -43.1207952,
      "tags": {
        "amenity": "bureau_de_change",
        "name": "Titur",
        "shop": "travel_agency",
        "source": "survey"
      }
    },
    {
      "type": "node",
      "id": 2429268523,
      "lat": -22.8937154,
      "lon": -43.1208635,
      "tags": {
        "name": "Rayssa",
        "shop": "jewelry",
        "source": "survey"
      }
    },
    {
      "type": "node",
      "id": 2429268625,
      "lat": -22.8937126,
      "lon": -43.1210006,
      "tags": {
        "name": "TIM",
        "shop": "mobile_phone",
        "source": "survey"
      }
    },
    {
      "type": "node",
      "id": 2429268676,
      "lat": -22.8937153,
      "lon": -43.1210592,
      "tags": {
        "name": "Ortobom",
        "shop": "furniture",
        "source": "survey"
      }
    },
    {
      "type": "node",
      "id": 2495749610,
      "lat": -22.8910377,
      "lon": -42.9888113,
      "tags": {
        "addr:street": "Estrada Velha de Maricá",
        "shop": "bicycle"
      }
    },
    {
      "type": "node",
      "id": 2524492403,
      "lat": -22.9062065,
      "lon": -43.0662339,
      "tags": {
        "addr:city": "Niterói",
        "addr:housenumber": "51 Loja 101",
        "addr:street": "Estrada Washington Luiz",
        "name": "Bretas Bike",
        "phone": "+55-21-26168374",
        "shop": "bicycle",
        "source": "survey"
      }
    },
    {
      "type": "node",
      "id": 2524523542,
      "lat": -22.8906356,
      "lon": -43.0981062,
      "tags": {
        "addr:city": "Niterói",
        "addr:housenumber": "423 Loja 1",
        "addr:street": "Rua Noronha Torrezão",
        "name": "Cicle São José",
        "phone": "+55-21-26102997",
        "shop": "bicycle",
        "source": "survey"
      }
    },
    {
      "type": "node",
      "id": 2632337004,
      "lat": -22.9447183,
      "lon": -43.03507,
      "tags": {
        "name": "Maravista",
        "shop": "supermarket"
      }
    },
    {
      "type": "node",
      "id": 2644228691,
      "lat": -22.93757,
      "lon": -43.013579,
      "tags": {
        "name": "Rainha do Engenho",
        "shop": "bakery"
      }
    },
    {
      "type": "node",
      "id": 2680897686,
      "lat": -22.9076243,
      "lon": -43.1060671,
      "tags": {
        "shop": "seafood"
      }
    },
    {
      "type": "node",
      "id": 2688424823,
      "lat": -22.8967591,
      "lon": -43.1124277,
      "tags": {
        "addr:city": "Niterói",
        "addr:housenumber": "312",
        "addr:street": "Avenida Marquês do Paraná",
        "addr:suburb": "Centro",
        "name": "Hortifruti",
        "opening_hours": "Mo-Fr 08:00-21:00; Sa 08:00-20:00; Su 08:00-14:00",
        "phone": "+55 21 2109-9499",
        "shop": "supermarket"
      }
    },
    {
      "type": "node",
      "id": 2752505117,
      "lat": -22.880664,
      "lon": -43.0992001,
      "tags": {
        "brand": "Renault",
        "name": "Dinisa",
        "shop": "car"
      }
    },
    {
      "type": "node",
      "id": 2752505182,
      "lat": -22.8832506,
      "lon": -43.0715524,
      "tags": {
        "brand": "JAC Motors",
        "name": "JAC Motors",
        "shop": "car"
      }
    },
    {
      "type": "node",
      "id": 2752505307,
      "lat": -22.8807741,
      "lon": -43.0962666,
      "tags": {
        "name": "Princesa",
        "shop": "supermarket"
      }
    },
    {
      "type": "node",
      "id": 2794930026,
      "lat": -22.9029025,
      "lon": -42.9852616,
      "tags": {
        "addr:city": "Várzea das Moças, São Gonçalo",
        "addr:housenumber": "N.15, Lojas 3,4 e 5",
        "addr:postcode": "24753-500",
        "addr:street": "Avenida Plínio Gomes de Matos Filho",
        "contact:facebook": "https://www.facebook.com/bikeworksbr",
        "email": "contato@bikeworks.com.br",
        "name": "Bike Works",
        "opening_hours": "Mo-Sa 08:00-19:00",
        "phone": "+55 21 3701-5025; +55 21 3701-2846",
        "shop": "bicycle",
        "website": "http://www.bikeworks.com.br"
      }
    },
    {
      "type": "node",
      "id": 3158404183,
      "lat": -22.9176449,
      "lon": -43.0861239,
      "tags": {
        "name": "Sol Piscinas",
        "shop": "yes"
      }
    },
    {
      "type": "node",
      "id": 3254675428,
      "lat": -22.9029518,
      "lon": -43.1107073,
      "tags": {
        "addr:housenumber": "117",
        "addr:street": "Rua Gavião Peixoto",
        "name": "Info Icaraí",
        "shop": "computer"
      }
    },
    {
      "type": "node",
      "id": 3254677101,
      "lat": -22.9027509,
      "lon": -43.1109286,
      "tags": {
        "addr:housenumber": "107",
        "addr:postcode": "24230-091",
        "addr:street": "Rua Gavião Peixoto",
        "name": "Mundo Verde",
        "organic": "only",
        "shop": "supermarket"
      }
    },
    {
      "type": "node",
      "id": 3254677102,
      "lat": -22.9065963,
      "lon": -43.1096289,
      "tags": {
        "addr:housenumber": "132",
        "addr:street": "Rua Gavião Peixoto",
        "name": "Colchões Ortobom",
        "shop": "bed"
      }
    },
    {
      "type": "node",
      "id": 3254681083,
      "lat": -22.9033613,
      "lon": -43.110314,
      "tags": {
        "addr:housenumber": "143",
        "addr:street": "Rua Gavião Peixoto",
        "name": "Multicoisas",
        "shop": "variety_store",
        "source": "survey"
      }
    },
    {
      "type": "node",
      "id": 3269465543,
      "lat": -22.9030865,
      "lon": -43.1088935,
      "tags": {
        "addr:city": "Niterói",
        "addr:housenumber": "167",
        "addr:street": "Rua Mem de Sá",
        "addr:suburb": "Icaraí",
        "name": "Audium",
        "shop": "hearing_aids"
      }
    },
    {
      "type": "node",
      "id": 3512710761,
      "lat": -22.9157432,
      "lon": -43.0945255,
      "tags": {
        "name": "Supermercado Diamante",
        "shop": "supermarket"
      }
    },
    {
      "type": "node",
      "id": 3534533596,
      "lat": -22.9067584,
      "lon": -43.0559781,
      "tags": {
        "shop": "mall"
      }
    },
    {
      "type": "node",
      "id": 3534533597,
      "lat": -22.9065626,
      "lon": -43.0549089,
      "tags": {
        "shop": "mall"
      }
    },
    {
      "type": "node",
      "id": 3534533598,
      "lat": -22.9063412,
      "lon": -43.0557901,
      "tags": {
        "shop": "supermarket"
      }
    },
    {
      "type": "node",
      "id": 3534533599,
      "lat": -22.8986867,
      "lon": -43.0404403,
      "tags": {
        "shop": "supermarket"
      }
    },
    {
      "type": "node",
      "id": 3874142795,
      "lat": -22.8816007,
      "lon": -43.0876426,
      "tags": {
        "name": "Americanas",
        "shop": "department_store"
      }
    },
    {
      "type": "node",
      "id": 4185524438,
      "lat": -22.920495,
      "lon": -43.0929018,
      "tags": {
        "name": "Padaria N. S. de Lourdes",
        "shop": "bakery"
      }
    },
    {
      "type": "node",
      "id": 4187262855,
      "lat": -22.920105,
      "lon": -43.0907808,
      "tags": {
        "name": "Diamante Supermercado",
        "shop": "supermarket"
      }
    },
    {
      "type": "node",
      "id": 4187658389,
      "lat": -22.9196712,
      "lon": -43.0886854,
      "tags": {
        "addr:city": "Niterói",
        "addr:housenumber": "175",
        "addr:street": "Avenida Rui Barbosa",
        "addr:suburb": "São Francisco",
        "name": "Panificação São Francisco",
        "shop": "bakery"
      }
    },
    {
      "type": "node",
      "id": 4187684365,
      "lat": -22.9204493,
      "lon": -43.0926392,
      "tags": {
        "name": "RB Pneus",
        "shop": "car_repair"
      }
    },
    {
      "type": "node",
      "id": 4187684698,
      "lat": -22.9204422,
      "lon": -43.0927194,
      "tags": {
        "name": "Auto Peças Rui Barbosa Ltda",
        "shop": "car_repair"
      }
    },
    {
      "type": "node",
      "id": 4187685077,
      "lat": -22.9204677,
      "lon": -43.0927995,
      "tags": {
        "name": "Lojas Americanas",
        "shop": "yes"
      }
    },
    {
      "type": "node",
      "id": 4284643608,
      "lat": -22.9034632,
      "lon": -43.0950904,
      "tags": {
        "name": "Estúdio A",
        "shop": "beauty"
      }
    },
    {
      "type": "node",
      "id": 4392908490,
      "lat": -22.8919291,
      "lon": -43.1227116,
      "tags": {
        "addr:street": "Rua São Pedro",
        "name": "Ricardo Eletro 181",
        "name:pt": "Ricardo Eletro 181",
        "opening_hours": "Mo-Sa 09:00-19:00",
        "operator": "Gerente Eduardo",
        "shop": "department_store"
      }
    },
    {
      "type": "node",
      "id": 4404167889,
      "lat": -22.9054507,
      "lon": -43.1087071,
      "tags": {
        "addr:housenumber": "143",
        "addr:postcode": "24230190",
        "addr:street": "Rua Otávio Carneiro",
        "name": "4 Cantos Câmbio e Turusmo",
        "name:pt": "4 Cantos Câmbio e Turusmo",
        "opening_hours": "Mo-Fr 09:00-19:00; Sa 09:00-14:00",
        "phone": "(21) 2722-6869",
        "shop": "travel_agency",
        "website": "http://www.4cantosturismo.com.br"
      }
    },
    {
      "type": "node",
      "id": 4472536251,
      "lat": -22.9025862,
      "lon": -43.1076841,
      "tags": {
        "addr:city": "Niterói",
        "addr:door": "Loja 1",
        "addr:housenumber": "196",
        "addr:street": "Avenida Governador Roberto Silveira",
        "addr:suburb": "Icaraí",
        "name": "Garage Bike",
        "phone": "+55 21 3674-6777",
        "shop": "bicycle",
        "website": "http://facebook.com/ciclegaragebike"
      }
    },
    {
      "type": "node",
      "id": 4548153010,
      "lat": -22.9379651,
      "lon": -43.0134789,
      "tags": {
        "addr:housenumber": "01",
        "addr:street": "Rua Sessenta e Três",
        "internet_access": "wlan",
        "name": "Oficina mecânica Duducar",
        "name:pt": "Oficina mecânica Duducar",
        "opening_hours": "Mo-Fr 09:00-19:00; Sa 09:00-16:00",
        "phone": "21992847499",
        "shop": "car_repair"
      }
    },
    {
      "type": "node",
      "id": 4548204291,
      "lat": -22.9364615,
      "lon": -43.0139817,
      "tags": {
        "addr:housenumber": "LT 03",
        "addr:street": "Rua Setenta e Sete",
        "email": "fenixservicosexecutivos@gmail.com",
        "name": "Pintura WTP",
        "name:pt": "Pintura WTP",
        "opening_hours": "24/7",
        "phone": "21992847499",
        "shop": "car_parts"
      }
    },
    {
      "type": "node",
      "id": 4602026019,
      "lat": -22.8817938,
      "lon": -43.0938148,
      "tags": {
        "addr:street": "Rua Leite Ribeiro",
        "opening_hours": "09:00-18:00",
        "shop": "car_repair"
      }
    },
    {
      "type": "node",
      "id": 4689029714,
      "lat": -22.8820556,
      "lon": -43.085967,
      "tags": {
        "addr:street": "Rua Desembargador Lima Castro",
        "name": "Multi Market",
        "shop": "supermarket"
      }
    },
    {
      "type": "node",
      "id": 4689029716,
      "lat": -22.8816973,
      "lon": -43.084733,
      "tags": {
        "addr:street": "Alameda São Boaventura",
        "name": "Prezunic",
        "shop": "supermarket"
      }
    },
    {
      "type": "node",
      "id": 4785222043,
      "lat": -22.876822,
      "lon": -43.1081826,
      "tags": {
        "addr:city": "Niterói",
        "addr:housenumber": "304",
        "addr:postcode": "24110-002",
        "addr:street": "Rua Benjamin Constant",
        "addr:suburb": "Largo do Barradas",
        "name": "Padaria Dois Amigos",
        "opening_hours": "06:00-20:00",
        "phone": "+55 21 3092-2768",
        "shop": "bakery"
      }
    },
    {
      "type": "node",
      "id": 5041838017,
      "lat": -22.89885,
      "lon": -43.1054039,
      "tags": {
        "name": "Loja de conveniências Shell",
        "shop": "convenience"
      }
    },
    {
      "type": "node",
      "id": 5041853167,
      "lat": -22.9005632,
      "lon": -43.1009979,
      "tags": {
        "shop": "bakery"
      }
    },
    {
      "type": "node",
      "id": 5140470016,
      "lat": -22.8653622,
      "lon": -43.1000988,
      "tags": {
        "addr:city": "Niterói",
        "addr:housenumber": "664",
        "addr:postcode": "24110-310",
        "addr:street": "Avenida Presidente Craveiro Lopes",
        "addr:suburb": "Barreto",
        "contact:website": "http://padariacolombo.site/",
        "name": "Padaria Colombo",
        "opening_hours": "Mo-Su 06:00-22:00",
        "shop": "bakery"
      }
    },
    {
      "type": "node",
      "id": 5241648341,
      "lat": -22.9025908,
      "lon": -43.1111642,
      "tags": {
        "addr:housenumber": "159",
        "addr:postcode": "24220-030",
        "addr:street": "Rua General Pereira da Silva",
        "name": "Ferragens São Francisco",
        "phone": "+55 21 2721-5009",
        "shop": "doityourself"
      }
    },
    {
      "type": "node",
      "id": 5365728147,
      "lat": -22.8808028,
      "lon": -43.0930124,
      "tags": {
        "name": "Pássaros & Cia",
        "shop": "pet"
      }
    },
    {
      "type": "node",
      "id": 5581529865,
      "lat": -22.9015389,
      "lon": -43.1254942,
      "tags": {
        "addr:street": "Rua Tiradentes",
        "name": "Pérola",
        "payment:cash": "yes",
        "payment:coins": "yes",
        "payment:credit_cards": "yes",
        "payment:debit_cards": "yes",
        "shop": "supermarket"
      }
    },
    {
      "type": "node",
      "id": 5581536202,
      "lat": -22.903261,
      "lon": -43.1219858,
      "tags": {
        "name": "Frutalha Hortigranjeiros",
        "shop": "supermarket"
      }
    },
    {
      "type": "node",
      "id": 5581536204,
      "lat": -22.9030139,
      "lon": -43.1221763,
      "tags": {
        "name": "Mundo Verde",
        "shop": "health_food"
      }
    },
    {
      "type": "node",
      "id": 5581541132,
      "lat": -22.8978475,
      "lon": -43.1218651,
      "tags": {
        "name": "Multimarcas Topp",
        "shop": "clothes"
      }
    },
    {
      "type": "node",
      "id": 5709376131,
      "lat": -22.9055825,
      "lon": -43.1117994,
      "tags": {
        "addr:housenumber": "165",
        "addr:street": "Rua Coronel Moreira César",
        "name": "Salão Mani",
        "shop": "hairdresser"
      }
    },
    {
      "type": "node",
      "id": 5709376132,
      "lat": -22.9056126,
      "lon": -43.1118768,
      "tags": {
        "addr:housenumber": "165",
        "addr:street": "Rua Coronel Moreira César",
        "name": "Dulce Jóias",
        "shop": "jewelry"
      }
    },
    {
      "type": "node",
      "id": 5709400118,
      "lat": -22.9068226,
      "lon": -43.1105559,
      "tags": {
        "addr:housenumber": "241",
        "addr:street": "Rua Coronel Moreira César",
        "beauty": "hair;nails;cosmetics",
        "level": "3",
        "name": "Prya - Centro de Beleza e Estética",
        "phone": "+55 21 2711-5500",
        "shop": "beauty"
      }
    },
    {
      "type": "node",
      "id": 6169299259,
      "lat": -22.9025944,
      "lon": -43.1093882,
      "tags": {
        "addr:housenumber": "151",
        "addr:postcode": "24220-260",
        "addr:street": "Mem de Sá",
        "name": "Barbearia do Zé",
        "shop": "hairdresser"
      }
    },
    {
      "type": "node",
      "id": 6177276116,
      "lat": -22.900831,
      "lon": -43.0663767,
      "tags": {
        "fixme": "verificar nome",
        "shop": "department_store"
      }
    },
    {
      "type": "node",
      "id": 6191053484,
      "lat": -22.8807854,
      "lon": -43.0959361,
      "tags": {
        "addr:city": "Niterói",
        "addr:housenumber": "553, loja 01A",
        "addr:street": "Alameda São Boaventura",
        "addr:suburb": "Fonseca",
        "name": "Barbearia",
        "shop": "hairdresser"
      }
    },
    {
      "type": "node",
      "id": 6242597866,
      "lat": -22.9638544,
      "lon": -43.0324041,
      "tags": {
        "phone": "+55 21 2609-7777",
        "shop": "hardware"
      }
    },
    {
      "type": "node",
      "id": 6264703262,
      "lat": -22.8976817,
      "lon": -43.1025645,
      "tags": {
        "name": "Hortifruti",
        "shop": "greengrocer"
      }
    },
    {
      "type": "node",
      "id": 6264703265,
      "lat": -22.8995563,
      "lon": -43.1108289,
      "tags": {
        "addr:city": "Niterói",
        "addr:housenumber": "4",
        "addr:street": "Avenida Governador Roberto Silveira",
        "addr:suburb": "Icaraí",
        "name": "Cicle Garage Bike",
        "opening_hours": "Mo-Fr 09:00-20:00; Sa 09:00-14:00",
        "phone": "+55 21 36746777",
        "shop": "bicycle",
        "website": "https://www.facebook.com/ciclegaragebike/"
      }
    },
    {
      "type": "node",
      "id": 6266667376,
      "lat": -22.8991676,
      "lon": -43.1112676,
      "tags": {
        "name": "Amazonas Bike",
        "shop": "bicycle"
      }
    },
    {
      "type": "node",
      "id": 6266671288,
      "lat": -22.8994658,
      "lon": -43.1088958,
      "tags": {
        "shop": "newsagent"
      }
    },
    {
      "type": "node",
      "id": 6266671290,
      "lat": -22.8994208,
      "lon": -43.1086499,
      "tags": {
        "addr:city": "Niterói",
        "addr:housenumber": "127",
        "addr:street": "Rua Doutor Paulo César",
        "addr:suburb": "Icaraí",
        "name": "Sorela Veículos",
        "phone": "+55 21 27172000",
        "shop": "car"
      }
    },
    {
      "type": "node",
      "id": 6835985285,
      "lat": -22.891323,
      "lon": -42.9887405,
      "tags": {
        "name": "Açougue do Francisco",
        "shop": "butcher"
      }
    },
    {
      "type": "node",
      "id": 6841151285,
      "lat": -22.8914627,
      "lon": -42.988661,
      "tags": {
        "name": "Açougue do Francisco",
        "shop": "butcher"
      }
    },
    {
      "type": "node",
      "id": 6841157188,
      "lat": -22.9342843,
      "lon": -43.0094046,
      "tags": {
        "name": "KLM Mercado",
        "shop": "supermarket"
      }
    },
    {
      "type": "node",
      "id": 6852795680,
      "lat": -22.8973002,
      "lon": -43.1228373,
      "tags": {
        "addr:city": "Niterói",
        "addr:housenumber": "686",
        "addr:postcode": "24030085",
        "addr:street": "Rua Almirante Teffe",
        "addr:suburb": "Centro",
        "name": "Livraria Apollo",
        "shop": "books"
      }
    },
    {
      "type": "node",
      "id": 6852851307,
      "lat": -22.8972582,
      "lon": -43.1226603,
      "tags": {
        "addr:city": "Niterói",
        "addr:housenumber": "681",
        "addr:postcode": "24030085",
        "addr:street": "Rua Almirante Teffe",
        "addr:suburb": "Centro",
        "name": "Livraria Republicana e Sebo",
        "shop": "books"
      }
    },
    {
      "type": "node",
      "id": 6916678213,
      "lat": -22.9051934,
      "lon": -43.0887798,
      "tags": {
        "addr:city": "Niterói",
        "addr:housenumber": "663",
        "addr:street": "Rua Doutor Mário Viana",
        "addr:suburb": "Santa Rosa",
        "name": "Grand Marché",
        "payment:cash": "yes",
        "payment:coins": "yes",
        "payment:credit_cards": "yes",
        "payment:debit_cards": "yes",
        "shop": "supermarket"
      }
    },
    {
      "type": "node",
      "id": 6916678214,
      "lat": -22.9053252,
      "lon": -43.0886171,
      "tags": {
        "addr:city": "Niterói",
        "addr:housenumber": "671",
        "addr:street": "Rua Doutor Mário Viana",
        "addr:suburb": "Santa Rosa",
        "name": "Lady Day",
        "payment:cash": "yes",
        "payment:coins": "yes",
        "payment:credit_cards": "yes",
        "payment:debit_cards": "yes",
        "shop": "bakery"
      }
    },
    {
      "type": "node",
      "id": 7792585561,
      "lat": -22.9035921,
      "lon": -43.1100965,
      "tags": {
        "shop": "newsagent"
      }
    },
    {
      "type": "node",
      "id": 7792585562,
      "lat": -22.9052479,
      "lon": -43.112175,
      "tags": {
        "shop": "newsagent"
      }
    },
    {
      "type": "node",
      "id": 8063967599,
      "lat": -22.903664,
      "lon": -43.1105197,
      "tags": {
        "name": "Petway",
        "shop": "pet"
      }
    },
    {
      "type": "node",
      "id": 8063967600,
      "lat": -22.906374,
      "lon": -43.1071299,
      "tags": {
        "addr:housenumber": "355",
        "addr:street": "Rua Gavião Peixoto",
        "name": "Niterói Ink Tattoo",
        "name:pt": "Niterói Ink Tattoo",
        "phone": "2199995-3541",
        "shop": "tattoo"
      }
    },
    {
      "type": "way",
      "id": 27621555,
      "nodes": [
        303337497,
        1674657683,
        6907535740,
        303337500,
        1924398514,
        1924398513,
        7888493537,
        5363827082,
        1924493457,
        303337497
      ],
      "tags": {
        "building": "yes",
        "name": "Bay Market",
        "shop": "mall",
        "wikidata": "Q37930574"
      }
    },
    {
      "type": "way",
      "id": 29143392,
      "nodes": [
        320591749,
        2887016277,
        2887016275,
        2887016273,
        2887016271,
        2887016272,
        2887016274,
        2887016276,
        2887016278,
        2887016280,
        2887016282,
        2887016285,
        2887016287,
        2887016288,
        2887016286,
        2887016284,
        2887016281,
        2887016279,
        320591750,
        320591751,
        320591752,
        1361071596,
        320591753,
        320591754,
        2887016283,
        1342747834,
        2887016270,
        2887016269,
        2887016268,
        2887016267,
        320591757,
        320591749
      ],
      "tags": {
        "addr:housenumber": "188",
        "addr:street": "Rua da Conceição",
        "building": "yes",
        "name": "Niterói Shopping",
        "shop": "mall",
        "website": "http://www.niteroishopping.com.br/"
      }
    },
    {
      "type": "way",
      "id": 29256024,
      "nodes": [
        321743341,
        2886969618,
        2886969626,
        321743342,
        2886969661,
        2886969663,
        321743343,
        321743344,
        2886969606,
        2886969605,
        2886969603,
        2886969604,
        321743341
      ],
      "tags": {
        "amenity": "parking",
        "building": "yes",
        "name": "Extra",
        "operator": "Extra",
        "shop": "supermarket"
      }
    },
    {
      "type": "way",
      "id": 29423483,
      "nodes": [
        324282003,
        324282004,
        324282005,
        324282006,
        324282007,
        324282008,
        324282009,
        324282010,
        324282011,
        324282012,
        324282013,
        324282014,
        324282015,
        324282016,
        324282017,
        324282019,
        324282020,
        324282003
      ],
      "tags": {
        "addr:city": "niterói",
        "addr:housenumber": "6501",
        "addr:street": "Estrada Francisco da Cruz Nunes",
        "amenity": "public_building",
        "building": "yes",
        "building:levels": "3",
        "internet_access": "wlan",
        "name": "Itaipu Multicenter",
        "opening_hours": "10:00-22:00",
        "shop": "mall"
      }
    },
    {
      "type": "way",
      "id": 30431636,
      "nodes": [
        335839503,
        335839504,
        335839505,
        1930089859,
        335839506,
        335839503
      ],
      "tags": {
        "building": "yes",
        "name": "Mercado de Peixes de São Pedro",
        "shop": "supermarket"
      }
    },
    {
      "type": "way",
      "id": 30455903,
      "nodes": [
        336161703,
        336161705,
        2461838881,
        336161706,
        2461838878,
        336161707,
        1966834233,
        1966834234,
        336161703
      ],
      "tags": {
        "addr:city": "Niterói",
        "addr:housenumber": "35",
        "addr:street": "Rua Coronel Moreira César",
        "addr:suburb": "Icaraí",
        "building": "yes",
        "name": "Hortifruti",
        "opening_hours": "Mo-Fr 07:30-21:00; Sa 07:30-20:00; Su 07:30-14:00",
        "phone": "+55 21 2109-9399",
        "shop": "supermarket"
      }
    },
    {
      "type": "way",
      "id": 31056292,
      "nodes": [
        345229095,
        345229097,
        345229098,
        6926059534,
        345229099,
        2427542839,
        345229102,
        2427542838,
        345229104,
        345229095
      ],
      "tags": {
        "addr:city": "Niterói",
        "addr:housenumber": "km-318",
        "addr:postcode": "24110-230",
        "addr:street": "Rodovia Governador Mário Covas",
        "addr:suburb": "Barreto",
        "brand": "Sam's Club",
        "brand:wikidata": "Q1972120",
        "brand:wikipedia": "en:Sam's Club",
        "building": "yes",
        "building:levels": "1",
        "name": "Sam's Club",
        "phone": "+55 21 2125-6250",
        "shop": "wholesale",
        "website": "https://www.samsclub.com.br/"
      }
    },
    {
      "type": "way",
      "id": 33638054,
      "nodes": [
        384830058,
        384830059,
        384830060,
        384830061,
        384830058
      ],
      "tags": {
        "building": "yes",
        "name": "RioDecor",
        "shop": "furniture"
      }
    },
    {
      "type": "way",
      "id": 103425575,
      "nodes": [
        1194231190,
        1194231334,
        1194231288,
        1194231276,
        1194231285,
        1194231320,
        1194231403,
        1194231325,
        1194231224,
        1194231272,
        1194231364,
        1194231339,
        1194231190
      ],
      "tags": {
        "addr:city": "Niterói",
        "addr:housenumber": "65",
        "addr:postcode": "24110-075",
        "addr:street": "Rua Carlos Gomes",
        "addr:suburb": "Largo do Barradas",
        "building": "yes",
        "name": "Leroy Merlin",
        "opening_hours": "09:00-22:00",
        "phone": "+55 21 0800 020 5376",
        "shop": "doityourself",
        "source": "Bing"
      }
    },
    {
      "type": "way",
      "id": 167862994,
      "nodes": [
        1792084811,
        1958721987,
        1792084821,
        2645710854,
        2645710850,
        1792084819,
        1958630265,
        1792084801,
        1958630262,
        2645710838,
        2645710837,
        1792084811
      ],
      "tags": {
        "addr:city": "Niterói",
        "addr:housenumber": "100",
        "addr:postcode": "24030-060",
        "addr:street": "Avenida Marquês do Paraná",
        "building": "yes",
        "name": "Guanabara",
        "shop": "supermarket"
      }
    },
    {
      "type": "way",
      "id": 182120830,
      "nodes": [
        1924752962,
        5070369661,
        1968883782,
        1968883779,
        1968883775,
        1968883772,
        5070369660,
        1968883777,
        1463270323,
        5070369667,
        5070369666,
        1968883805,
        1463270319,
        8017430959,
        5070369659,
        1924752962
      ],
      "tags": {
        "name": "Amoedo",
        "shop": "department_store"
      }
    },
    {
      "type": "way",
      "id": 182180398,
      "nodes": [
        1925250695,
        1925250696,
        1925250731,
        6904400529,
        6904400530,
        1344012197,
        6904400544,
        6904400536,
        6904400537,
        6904400531,
        6904400532,
        6904400545,
        6904400534,
        6904400535,
        6904400533,
        6904400528,
        1925250695
      ],
      "tags": {
        "building": "yes",
        "building:levels": "6",
        "name": "Via Center",
        "shop": "mall"
      }
    },
    {
      "type": "way",
      "id": 182487226,
      "nodes": [
        1928487725,
        1928487734,
        1928487739,
        1928487735,
        1928487731,
        1928487730,
        1928487725
      ],
      "tags": {
        "building": "yes",
        "name": "Armadillo",
        "shop": "clothes"
      }
    },
    {
      "type": "way",
      "id": 182637725,
      "nodes": [
        1930059774,
        1930059791,
        1930059808,
        1930059783,
        1930059774
      ],
      "tags": {
        "building": "yes",
        "name": "Armando Gonçalves",
        "shop": "optician"
      }
    },
    {
      "type": "way",
      "id": 182638822,
      "nodes": [
        1930062887,
        1930062916,
        1930062924,
        1930062904,
        1930062887
      ],
      "tags": {
        "addr:city": "Niterói",
        "addr:housenumber": "211",
        "addr:street": "Rua Coronel Moreira César",
        "addr:suburb": "Icaraí",
        "building": "yes",
        "name": "Shopping 211",
        "shop": "mall"
      }
    },
    {
      "type": "way",
      "id": 182638839,
      "nodes": [
        1930062934,
        1930062937,
        1930062935,
        1930062927,
        1930062933,
        1930062934
      ],
      "tags": {
        "addr:city": "Niterói",
        "addr:housenumber": "241",
        "addr:street": "Rua Coronel Moreira César",
        "addr:suburb": "Icaraí",
        "building": "yes",
        "name": "iFashion",
        "shop": "mall"
      }
    },
    {
      "type": "way",
      "id": 182638842,
      "nodes": [
        1930062907,
        1930062918,
        1930062921,
        1930062927,
        1930062935,
        1930062936,
        1930062932,
        1930062929,
        1930062912,
        1930062915,
        1930062917,
        1930062907
      ],
      "tags": {
        "building": "yes",
        "name": "Shopping Icaraí",
        "shop": "mall"
      }
    },
    {
      "type": "way",
      "id": 182887053,
      "nodes": [
        1932445859,
        1932445856,
        1932445854,
        1932445855,
        1932445858,
        1932445868,
        1932445871,
        1932445874,
        1932445876,
        1932445875,
        1932445870,
        1932445861,
        1932445859
      ],
      "tags": {
        "building": "yes",
        "operator": "Carrefour",
        "shop": "car_repair"
      }
    },
    {
      "type": "way",
      "id": 183876444,
      "nodes": [
        1942935192,
        1942935194,
        1942935200,
        1942935197,
        2463059882,
        2463059883,
        2463059888,
        2463059879,
        1942935192
      ],
      "tags": {
        "building": "yes",
        "name": "Prezunic",
        "shop": "supermarket"
      }
    },
    {
      "type": "way",
      "id": 184937310,
      "nodes": [
        1955027883,
        1955027875,
        1955027882,
        1955027885,
        1955027883
      ],
      "tags": {
        "building": "yes",
        "name": "Amazonas Bike",
        "shop": "bicycle",
        "website": "https://www.amazonasbike.com.br/"
      }
    },
    {
      "type": "way",
      "id": 184945987,
      "nodes": [
        1955158652,
        2434614408,
        1955158703,
        1955158707,
        2434614402,
        2434614403,
        2434614404,
        2434614405,
        2434614407,
        2434614406,
        1955158690,
        1955158652
      ],
      "tags": {
        "building": "yes",
        "name": "Super Mercado SuperMarket",
        "shop": "supermarket"
      }
    },
    {
      "type": "way",
      "id": 184945995,
      "nodes": [
        1955158748,
        1955158746,
        3009575752,
        1955158758,
        1955158775,
        1955158748
      ],
      "tags": {
        "building": "yes",
        "name": "lajeney material de construção",
        "shop": "hardware"
      }
    },
    {
      "type": "way",
      "id": 184945997,
      "nodes": [
        1955158601,
        1955158599,
        1955158634,
        1955158636,
        1955158601
      ],
      "tags": {
        "addr:city": "Niterói",
        "addr:street": "Estrada Washington Luiz",
        "addr:suburb": "largo da batalha",
        "building": "yes",
        "name": "Rede Ecônomia",
        "shop": "supermarket"
      }
    },
    {
      "type": "way",
      "id": 184946000,
      "nodes": [
        1955158812,
        1955158869,
        1955158867,
        1955158842,
        1955158836,
        1955158866,
        1955158839,
        1955158834,
        1955158824,
        1955158831,
        1955158828,
        1955158808,
        1955158812
      ],
      "tags": {
        "amenity": "fuel",
        "brand": "BR",
        "name": "Posto BR",
        "shop": "convenience"
      }
    },
    {
      "type": "way",
      "id": 184946001,
      "nodes": [
        1955158771,
        1955158783,
        1955158805,
        1955158802,
        1955158771
      ],
      "tags": {
        "building": "yes",
        "shop": "car_repair"
      }
    },
    {
      "type": "way",
      "id": 185297952,
      "nodes": [
        1958629976,
        1958629974,
        1958629975,
        1958629977,
        1958629976
      ],
      "tags": {
        "building": "commercial",
        "shop": "car_repair"
      }
    },
    {
      "type": "way",
      "id": 185298498,
      "nodes": [
        1958637242,
        1958637226,
        6907535735,
        1885167316,
        1958637242
      ],
      "tags": {
        "building": "yes",
        "name": "Centro Comercial José Carreteiro",
        "shop": "mall",
        "source": "survey"
      }
    },
    {
      "type": "way",
      "id": 185307420,
      "nodes": [
        1958722054,
        1958722048,
        1958722052,
        1958722057,
        1958722054
      ],
      "tags": {
        "building": "yes",
        "shop": "car_repair"
      }
    },
    {
      "type": "way",
      "id": 238211372,
      "nodes": [
        2460596338,
        2460596339,
        2460596340,
        2460596341,
        2460596342,
        2460596343,
        2460596338
      ],
      "tags": {
        "addr:city": "Niterói",
        "addr:housenumber": "124",
        "addr:street": "Travessa Dom Bosco",
        "building": "yes",
        "name": "Padaria Vital Brazil",
        "opening_hours": "07:00 - 22:00",
        "shop": "bakery"
      }
    },
    {
      "type": "way",
      "id": 238211379,
      "nodes": [
        2460596370,
        2460596371,
        2460596372,
        2460596373,
        2460596370
      ],
      "tags": {
        "addr:city": "Niterói",
        "addr:housenumber": "354",
        "addr:postcode": "24220-301",
        "addr:street": "Rua Ministro Otávio Kelly",
        "building": "yes",
        "name": "Estúdio do Pão",
        "phone": "+55 212705 1891",
        "shop": "bakery"
      }
    },
    {
      "type": "way",
      "id": 238213376,
      "nodes": [
        2460613878,
        2460613880,
        2460613896,
        2460613881,
        2460613882,
        2460613883,
        2460613885,
        2460613878
      ],
      "tags": {
        "shop": "yes"
      }
    },
    {
      "type": "way",
      "id": 238213406,
      "nodes": [
        2460614030,
        2460614031,
        2460614032,
        2460614033,
        2460614034,
        2460614035,
        2460614036,
        2463204309,
        2460614030
      ],
      "tags": {
        "addr:city": "Niterói",
        "addr:housenumber": "291",
        "addr:postcode": "24230-251",
        "addr:street": "Avenida Sete de Setembro",
        "addr:suburb": "Icaraí",
        "brand": "Pão de Açúcar",
        "brand:wikidata": "Q3411543",
        "brand:wikipedia": "pt:Pão de Açúcar (supermercado brasileiro)",
        "building": "yes",
        "name": "Pão de Açúcar",
        "opening_hours": "Mo-Sa 07:00-22:00",
        "shop": "supermarket"
      }
    },
    {
      "type": "way",
      "id": 238218741,
      "nodes": [
        2460664089,
        2460664090,
        2460664091,
        2460664092,
        2460664098,
        2460664089
      ],
      "tags": {
        "building": "yes",
        "shop": "farm"
      }
    },
    {
      "type": "way",
      "id": 238220056,
      "nodes": [
        2460677436,
        2460677439,
        2460677442,
        2460677445,
        2460677440,
        2460677441,
        4286644497,
        4286644498,
        2460677436
      ],
      "tags": {
        "building": "yes",
        "shop": "hardware"
      }
    },
    {
      "type": "way",
      "id": 238220057,
      "nodes": [
        2460677442,
        2460677443,
        2460677444,
        2460677445,
        2460677442
      ],
      "tags": {
        "building": "yes",
        "shop": "pet"
      }
    },
    {
      "type": "way",
      "id": 238220059,
      "nodes": [
        2460677450,
        2460677451,
        2460677452,
        2460677453,
        2460677450
      ],
      "tags": {
        "building": "yes",
        "shop": "bakery"
      }
    },
    {
      "type": "way",
      "id": 238220060,
      "nodes": [
        2460677454,
        2460677455,
        2460677456,
        2460677457,
        2460677458,
        2460677454
      ],
      "tags": {
        "building": "yes",
        "name": "Confeitaria União",
        "shop": "bakery"
      }
    },
    {
      "type": "way",
      "id": 238252400,
      "nodes": [
        2460940833,
        2460940834,
        2460940835,
        2460940836,
        2460940833
      ],
      "tags": {
        "building": "yes",
        "shop": "bakery"
      }
    },
    {
      "type": "way",
      "id": 238336306,
      "nodes": [
        2461838808,
        2461838810,
        2461838850,
        2461838813,
        2461838815,
        2461838808
      ],
      "tags": {
        "addr:city": "Niterói",
        "addr:housenumber": "70",
        "addr:street": "Rua Miguel de Frias",
        "addr:suburb": "Icaraí",
        "building": "yes",
        "name": "Padaria Colonial",
        "shop": "bakery"
      }
    },
    {
      "type": "way",
      "id": 238336315,
      "nodes": [
        2461838862,
        336161707,
        2461838878,
        2461838879,
        2461838862
      ],
      "tags": {
        "building": "yes",
        "shop": "clothes"
      }
    },
    {
      "type": "way",
      "id": 238343453,
      "nodes": [
        2461880155,
        2461880187,
        2461880192,
        2461880188,
        2461880189,
        2461880155
      ],
      "tags": {
        "building": "yes",
        "shop": "supermarket"
      }
    },
    {
      "type": "way",
      "id": 238343456,
      "nodes": [
        2461880187,
        2461880190,
        2461880191,
        2461880192,
        2461880187
      ],
      "tags": {
        "building": "yes",
        "shop": "farm"
      }
    },
    {
      "type": "way",
      "id": 238343458,
      "nodes": [
        2461880190,
        2461880193,
        2461880194,
        2461880191,
        2461880190
      ],
      "tags": {
        "building": "yes",
        "shop": "yes"
      }
    },
    {
      "type": "way",
      "id": 238343460,
      "nodes": [
        2461880198,
        2461880199,
        2461880200,
        2461880201,
        2461880198
      ],
      "tags": {
        "building": "yes",
        "name": "First Class",
        "shop": "yes"
      }
    },
    {
      "type": "way",
      "id": 238346082,
      "nodes": [
        2461893486,
        2461893488,
        2461893494,
        2461893490,
        2461893492,
        2461893486
      ],
      "tags": {
        "addr:city": "Niterói",
        "addr:housenumber": "149",
        "addr:street": "Rua Coronel Moreira César",
        "addr:suburb": "Bairro",
        "building": "yes",
        "name": "Beira-Mar",
        "shop": "bakery"
      }
    },
    {
      "type": "way",
      "id": 238351731,
      "nodes": [
        2461936283,
        2461936284,
        2461936287,
        2461936288,
        2461936283
      ],
      "tags": {
        "building": "yes",
        "name": "Animale",
        "shop": "clothes"
      }
    },
    {
      "type": "way",
      "id": 238351732,
      "nodes": [
        2461936284,
        2461936290,
        2461936292,
        2461936287,
        2461936284
      ],
      "tags": {
        "building": "yes",
        "name": "Agilitá",
        "shop": "clothes"
      }
    },
    {
      "type": "way",
      "id": 238351733,
      "nodes": [
        2461936294,
        2461936296,
        2461936297,
        2461936299,
        2461936294
      ],
      "tags": {
        "building": "yes",
        "name": "RQL",
        "shop": "shoes"
      }
    },
    {
      "type": "way",
      "id": 238351734,
      "nodes": [
        2461936290,
        2461936301,
        2461936303,
        2461936305,
        2461936290
      ],
      "tags": {
        "building": "yes",
        "name": "Wollner",
        "shop": "clothes"
      }
    },
    {
      "type": "way",
      "id": 238354087,
      "nodes": [
        2461946882,
        2461946883,
        2461946884,
        2461946889,
        2461946887,
        2461946885,
        2461946882
      ],
      "tags": {
        "building": "yes",
        "name": "Center Icaraí",
        "shop": "mall"
      }
    },
    {
      "type": "way",
      "id": 238354088,
      "nodes": [
        2461946886,
        2461946887,
        2461946889,
        2461946890,
        2461946886
      ],
      "tags": {
        "building": "yes",
        "name": "Ágatha",
        "shop": "clothes"
      }
    },
    {
      "type": "way",
      "id": 238354089,
      "nodes": [
        2461946895,
        2461946897,
        2461946907,
        2461946894,
        8051760131,
        2461946895
      ],
      "tags": {
        "addr:housenumber": "52",
        "addr:street": "Rua Belisário Augusto",
        "building": "yes",
        "clothes": "men",
        "name": "Richards",
        "shop": "clothes"
      }
    },
    {
      "type": "way",
      "id": 238354092,
      "nodes": [
        1928487754,
        2461946913,
        2463059706,
        2463059710,
        2463059701,
        2461946914,
        1928487738,
        1928487750,
        1928487748,
        1928487754
      ],
      "tags": {
        "addr:city": "Niterói",
        "addr:housenumber": "265",
        "addr:postcode": "24230-052",
        "addr:street": "Rua Coronel Moreira César",
        "addr:suburb": "Icaraí",
        "building": "yes",
        "name": "Princesa",
        "shop": "supermarket"
      }
    },
    {
      "type": "way",
      "id": 238354094,
      "nodes": [
        2461946925,
        2461946926,
        2461946927,
        2461946928,
        2461946929,
        2461946930,
        2461946925
      ],
      "tags": {
        "building": "yes",
        "name": "Leader Magazine",
        "shop": "department_store"
      }
    },
    {
      "type": "way",
      "id": 238356441,
      "nodes": [
        2461975839,
        2461975840,
        2461975841,
        2461975842,
        2461975839
      ],
      "tags": {
        "addr:housenumber": "34",
        "addr:street": "Rua Comendador Queiroz",
        "building": "yes",
        "name": "Barcellos Bike",
        "phone": "+55-21-27108069",
        "shop": "bicycle",
        "website": "http://www.barcellosbike.com.br"
      }
    },
    {
      "type": "way",
      "id": 238356443,
      "nodes": [
        2461975847,
        2461975848,
        2461975849,
        2461975850,
        2461975847
      ],
      "tags": {
        "addr:housename": "Loja 2",
        "addr:housenumber": "160",
        "addr:street": "Rua Nóbrega",
        "building": "yes",
        "name": "Cicle São Salvador",
        "phone": "+55-21-27051909",
        "shop": "bicycle"
      }
    },
    {
      "type": "way",
      "id": 238356444,
      "nodes": [
        2461975851,
        2461975852,
        2461975853,
        2461975854,
        2461975851
      ],
      "tags": {
        "addr:city": "Niterói",
        "addr:housenumber": "22",
        "addr:street": "Rua Sete de Setembro",
        "building": "yes",
        "name": "Cicle Sete de Setembro",
        "shop": "bicycle"
      }
    },
    {
      "type": "way",
      "id": 238472877,
      "nodes": [
        2463059683,
        2463059711,
        2463059712,
        2463059689,
        2463059683
      ],
      "tags": {
        "building": "yes",
        "name": "Werner Coiffeur",
        "shop": "beauty"
      }
    },
    {
      "type": "way",
      "id": 238472889,
      "nodes": [
        2463059769,
        2463059770,
        2463059773,
        2463059771,
        2463059772,
        2463059767,
        2463059768,
        2463059769
      ],
      "tags": {
        "building": "yes",
        "shop": "stationery"
      }
    },
    {
      "type": "way",
      "id": 238476720,
      "nodes": [
        2463099317,
        2463099331,
        2463099328,
        2463099329,
        2463099317
      ],
      "tags": {
        "building": "yes",
        "name": "Academia Symbol",
        "shop": "academia"
      }
    },
    {
      "type": "way",
      "id": 238476722,
      "nodes": [
        2463099337,
        2463099338,
        2463099339,
        2463099340,
        2463099337
      ],
      "tags": {
        "building": "yes",
        "shop": "beauty"
      }
    },
    {
      "type": "way",
      "id": 238476726,
      "nodes": [
        2463099351,
        2463099352,
        2463099353,
        2463099354,
        2463099351
      ],
      "tags": {
        "addr:city": "Niterói",
        "addr:housenumber": "271",
        "addr:postcode": "24230-161",
        "addr:street": "Avenida Governador Roberto Silveira",
        "addr:suburb": "Icaraí",
        "building": "yes",
        "name": "Economax",
        "shop": "supermarket"
      }
    },
    {
      "type": "way",
      "id": 238476735,
      "nodes": [
        2463099391,
        2463099392,
        2463205108,
        2463099393,
        2463099394,
        2463099391
      ],
      "tags": {
        "building": "yes",
        "name": "Supermercado super prix",
        "shop": "supermarket"
      }
    },
    {
      "type": "way",
      "id": 238488761,
      "nodes": [
        2463204151,
        2463204179,
        2463204182,
        2463204184,
        2463204188,
        2463204151
      ],
      "tags": {
        "building": "yes",
        "shop": "yes"
      }
    },
    {
      "type": "way",
      "id": 238488762,
      "nodes": [
        2463204182,
        2463204192,
        2463204196,
        2463204184,
        2463204182
      ],
      "tags": {
        "building": "yes",
        "shop": "hardware"
      }
    },
    {
      "type": "way",
      "id": 238488771,
      "nodes": [
        2463204295,
        2463204313,
        2463204317,
        2463204321,
        2463204295
      ],
      "tags": {
        "building": "yes",
        "shop": "car_repair"
      }
    },
    {
      "type": "way",
      "id": 238488781,
      "nodes": [
        2463204375,
        2463204407,
        2463204411,
        2463204415,
        2463204375
      ],
      "tags": {
        "building": "yes",
        "shop": "yes"
      }
    },
    {
      "type": "way",
      "id": 238488782,
      "nodes": [
        2463204400,
        2463204419,
        2463204423,
        2463204403,
        2463204400
      ],
      "tags": {
        "building": "yes",
        "name": "Zoom",
        "shop": "optician"
      }
    },
    {
      "type": "way",
      "id": 238488784,
      "nodes": [
        7812104465,
        2463204435,
        2463204556,
        2463204439,
        7812104466,
        7812104465
      ],
      "tags": {
        "building": "yes",
        "shop": "yes"
      }
    },
    {
      "type": "way",
      "id": 238488789,
      "nodes": [
        2463204537,
        2463204540,
        1930059757,
        1930059749,
        2463204537
      ],
      "tags": {
        "building": "yes",
        "shop": "yes"
      }
    },
    {
      "type": "way",
      "id": 238488792,
      "nodes": [
        2463204561,
        2463204565,
        2463204569,
        2463204573,
        2463204561
      ],
      "tags": {
        "building": "yes",
        "shop": "clothes"
      }
    },
    {
      "type": "way",
      "id": 238488824,
      "nodes": [
        2463204876,
        2463204881,
        2463204886,
        2463204891,
        2463204876
      ],
      "tags": {
        "building": "yes",
        "shop": "farm"
      }
    },
    {
      "type": "way",
      "id": 238488844,
      "nodes": [
        2463205010,
        2463205015,
        2463205020,
        2463205097,
        2463205024,
        2463205010
      ],
      "tags": {
        "addr:street": "Rua Sete de Setembro",
        "building": "yes",
        "name": "Way Design",
        "shop": "furniture"
      }
    },
    {
      "type": "way",
      "id": 238488851,
      "nodes": [
        2463205048,
        2463205117,
        2463205122,
        2463205127,
        2463205048
      ],
      "tags": {
        "building": "yes",
        "shop": "car_repair"
      }
    },
    {
      "type": "way",
      "id": 238488855,
      "nodes": [
        2463205167,
        2463205172,
        2463205177,
        2463205156,
        2463205167
      ],
      "tags": {
        "building": "yes",
        "shop": "pet"
      }
    },
    {
      "type": "way",
      "id": 238488856,
      "nodes": [
        2463205172,
        2463205182,
        2463205277,
        2463205187,
        2463205177,
        2463205172
      ],
      "tags": {
        "building": "yes",
        "shop": "yes"
      }
    },
    {
      "type": "way",
      "id": 238488858,
      "nodes": [
        2463205193,
        2463205197,
        2463205200,
        2463205204,
        2463205193
      ],
      "tags": {
        "building": "yes",
        "shop": "hardware"
      }
    },
    {
      "type": "way",
      "id": 238488872,
      "nodes": [
        2463205310,
        2463205316,
        2463205321,
        2463205326,
        2463205310
      ],
      "tags": {
        "building": "yes",
        "shop": "motorcycle"
      }
    },
    {
      "type": "way",
      "id": 238488873,
      "nodes": [
        2463205310,
        2463205332,
        2463205338,
        2463205326,
        2463205310
      ],
      "tags": {
        "building": "yes",
        "shop": "pet"
      }
    },
    {
      "type": "way",
      "id": 238488875,
      "nodes": [
        2463205359,
        2463205364,
        2463205369,
        2463205390,
        2463205377,
        2463205373,
        2463205348,
        2463205353,
        2463205359
      ],
      "tags": {
        "building": "yes",
        "shop": "hardware"
      }
    },
    {
      "type": "way",
      "id": 238488882,
      "nodes": [
        2461975851,
        2463205479,
        2463205484,
        2463205488,
        2461975851
      ],
      "tags": {
        "building": "yes",
        "shop": "tattoo"
      }
    },
    {
      "type": "way",
      "id": 238488887,
      "nodes": [
        2463205590,
        2463205606,
        2463205612,
        2463205617,
        2463205622,
        2463205590
      ],
      "tags": {
        "building": "yes",
        "name": "Tectal",
        "shop": "hardware"
      }
    },
    {
      "type": "way",
      "id": 238491512,
      "nodes": [
        2463235232,
        2463235234,
        2463235236,
        2463235238,
        2463235232
      ],
      "tags": {
        "building": "yes",
        "name": "Phocus",
        "shop": "car"
      }
    },
    {
      "type": "way",
      "id": 238491525,
      "nodes": [
        2463235276,
        2463235277,
        2463235278,
        2463235279,
        2463235276
      ],
      "tags": {
        "building": "yes",
        "shop": "bakery"
      }
    },
    {
      "type": "way",
      "id": 252745887,
      "nodes": [
        2587787254,
        2587787255,
        2587787256,
        2587787257,
        2587787254
      ],
      "tags": {
        "amenity": "community_centre",
        "name": "Casa de Festas Happy Day",
        "shop": "yes"
      }
    },
    {
      "type": "way",
      "id": 260205002,
      "nodes": [
        2656903184,
        2656903186,
        2656903187,
        2656903189,
        2656903184
      ],
      "tags": {
        "name": "Bancar",
        "shop": "yes"
      }
    },
    {
      "type": "way",
      "id": 260987869,
      "nodes": [
        2665856792,
        2665856793,
        2665856794,
        2665856795,
        2665856796,
        2665856797,
        2665856798,
        2665856799,
        2665856800,
        2665856802,
        2665856803,
        2665856804,
        2665856806,
        2665856807,
        2665856808,
        2665856810,
        2665856792
      ],
      "tags": {
        "addr:city": "Caramujo",
        "addr:housenumber": "543",
        "addr:postcode": "24315-370",
        "addr:street": "Estrada Washington Luís",
        "building": "yes",
        "name": "Sítio Carvalho Plantas",
        "phone": "+55 21 26164720 26164140",
        "shop": "garden_centre",
        "website": "http://www.sitiocarvalho.com.br/index.html"
      }
    },
    {
      "type": "way",
      "id": 261260367,
      "nodes": [
        2668955741,
        2668955742,
        2668955744,
        5041858420,
        2668955745,
        2668955741
      ],
      "tags": {
        "building": "yes",
        "name": "Pomar Supermercados",
        "shop": "supermarket"
      }
    },
    {
      "type": "way",
      "id": 261260368,
      "nodes": [
        2668955746,
        2668955747,
        2668955748,
        2668955750,
        2668955751,
        2668955752,
        2668955753,
        2668955746
      ],
      "tags": {
        "name": "Colchões Ortobom",
        "shop": "yes"
      }
    },
    {
      "type": "way",
      "id": 261260369,
      "nodes": [
        2668955755,
        2668955756,
        2668955757,
        2668955758,
        2668955760,
        2668955761,
        2668955755
      ],
      "tags": {
        "building": "yes",
        "name": "Rede Multi Market",
        "shop": "supermarket"
      }
    },
    {
      "type": "way",
      "id": 264827394,
      "nodes": [
        2704749291,
        2704749292,
        2704749293,
        2704749294,
        2704749295,
        2704749296,
        2704749297,
        2704749298,
        2704749299,
        2704749300,
        2704749301,
        2704749291
      ],
      "tags": {
        "addr:city": "Niterói",
        "addr:street": "Rua Gavião Peixoto",
        "building": "yes",
        "name": "Center IV",
        "shop": "mall"
      }
    },
    {
      "type": "way",
      "id": 264827453,
      "nodes": [
        1928470235,
        2704749623,
        2704749624,
        2704749625,
        1928470235
      ],
      "tags": {
        "building": "yes",
        "name": "Center V",
        "shop": "mall"
      }
    },
    {
      "type": "way",
      "id": 264828383,
      "nodes": [
        2704763480,
        2704763482,
        2704763484,
        1928471944,
        1928471945,
        2704763480
      ],
      "tags": {
        "addr:city": "shop=medical_supply",
        "addr:housenumber": "147",
        "addr:street": "Rua Gavião Peixoto",
        "building": "yes",
        "building:levels": "2",
        "name": "Medicar",
        "shop": "medical_supply"
      }
    },
    {
      "type": "way",
      "id": 278856283,
      "nodes": [
        2831540420,
        2831540421,
        2831540422,
        2831540423,
        2831540420
      ],
      "tags": {
        "building": "yes",
        "name": "Shopping",
        "shop": "mall"
      }
    },
    {
      "type": "way",
      "id": 283199666,
      "nodes": [
        2871023301,
        2871023302,
        2871023303,
        2871023304,
        2871023301
      ],
      "tags": {
        "building": "yes",
        "name": "Leda",
        "shop": "bakery"
      }
    },
    {
      "type": "way",
      "id": 283199792,
      "nodes": [
        2871024214,
        2871024215,
        2871024216,
        2871024217,
        2871024214
      ],
      "tags": {
        "building": "yes",
        "name": "SEPAN",
        "shop": "car_repair"
      }
    },
    {
      "type": "way",
      "id": 283201011,
      "nodes": [
        2871027467,
        2871027468,
        2871027469,
        2871027470,
        2871027467
      ],
      "tags": {
        "shop": "car"
      }
    },
    {
      "type": "way",
      "id": 283201953,
      "nodes": [
        2871036234,
        2871036235,
        2871036236,
        2871036237,
        2871036234
      ],
      "tags": {
        "building": "yes",
        "shop": "hardware"
      }
    },
    {
      "type": "way",
      "id": 283202266,
      "nodes": [
        2871035869,
        2871035870,
        2871035871,
        2871035872,
        2871035869
      ],
      "tags": {
        "building": "yes",
        "shop": "hardware"
      }
    },
    {
      "type": "way",
      "id": 319050312,
      "nodes": [
        3254677969,
        3254677970,
        3254677971,
        3254677972,
        3254677969
      ],
      "tags": {
        "addr:city": "Niterói",
        "addr:housenumber": "123",
        "addr:street": "Rua Gavião Peixoto",
        "addr:suburb": "Icaraí",
        "building": "yes",
        "name": "Super Prix",
        "payment:cash": "yes",
        "payment:credit_cards": "yes",
        "phone": "+55 21 2710-1662",
        "shop": "supermarket",
        "source": "survey"
      }
    },
    {
      "type": "way",
      "id": 347005192,
      "nodes": [
        3534524393,
        3534524394,
        3534524395,
        3534524396,
        3534524393
      ],
      "tags": {
        "building": "yes",
        "name": "Shopping",
        "shop": "mall"
      }
    },
    {
      "type": "way",
      "id": 356923103,
      "nodes": [
        3623216594,
        3623216595,
        3623216596,
        3623216598,
        3623216597,
        3623216594
      ],
      "tags": {
        "addr:street": "Estrada Francisco da Cruz Nunes",
        "building": "yes",
        "name": "hayasa",
        "second_hand": "yes",
        "shop": "car"
      }
    },
    {
      "type": "way",
      "id": 429341033,
      "nodes": [
        4284626347,
        4284626348,
        4284626349,
        4284626350,
        4284626347
      ],
      "tags": {
        "building": "yes",
        "name": "Gomes Material de Construção",
        "shop": "hardware"
      }
    },
    {
      "type": "way",
      "id": 437976397,
      "nodes": [
        4357526046,
        4357526045,
        4357526047,
        4357526048,
        4357526049,
        4357526046
      ],
      "tags": {
        "brand": "Hyundai",
        "name": "Caoa",
        "shop": "car"
      }
    },
    {
      "type": "way",
      "id": 466068119,
      "nodes": [
        4609553992,
        4609553993,
        4609553994,
        4609553995,
        4609553996,
        4609553997,
        4609553998,
        4609553992
      ],
      "tags": {
        "building": "yes",
        "name": "Via Veneto",
        "shop": "mall"
      }
    },
    {
      "type": "way",
      "id": 481517310,
      "nodes": [
        4744406726,
        4744406727,
        4744406728,
        4744406729,
        4744406726
      ],
      "tags": {
        "building": "yes",
        "shop": "hairdresser"
      }
    },
    {
      "type": "way",
      "id": 481517327,
      "nodes": [
        4744405929,
        4744405930,
        4744405931,
        4744405932,
        4744405929
      ],
      "tags": {
        "building": "yes",
        "name": "Peixaria do Cezinha",
        "shop": "seafood"
      }
    },
    {
      "type": "way",
      "id": 481518757,
      "nodes": [
        4744417093,
        4744417094,
        4744417095,
        4744417096,
        4744417093
      ],
      "tags": {
        "building": "yes",
        "shop": "mall"
      }
    },
    {
      "type": "way",
      "id": 515401365,
      "nodes": [
        5033560867,
        5033560858,
        5033560866,
        5033560859,
        5033560860,
        5033560861,
        6917354817,
        5033560862,
        5033560863,
        5033560864,
        5033560867
      ],
      "tags": {
        "addr:city": "Niterói",
        "addr:street": "Rua Doutor March",
        "addr:suburb": "Barreto",
        "building": "yes",
        "name": "Grand Marché",
        "shop": "supermarket"
      }
    },
    {
      "type": "way",
      "id": 515401369,
      "nodes": [
        5033560883,
        5033560884,
        5033560885,
        5033560886,
        5033560883
      ],
      "tags": {
        "addr:city": "Niterói",
        "addr:street": "Rua Doutor March",
        "addr:suburb": "Barreto",
        "building": "yes",
        "name": "New Technology",
        "shop": "computer"
      }
    },
    {
      "type": "way",
      "id": 515401376,
      "nodes": [
        5033560916,
        5033560917,
        5033560918,
        5033560919,
        5033560916
      ],
      "tags": {
        "addr:city": "Niterói",
        "addr:street": "Rua General Castrioto",
        "addr:suburb": "Barreto",
        "building": "yes",
        "name": "Ceará Jr Centro Automotivo",
        "shop": "car_parts"
      }
    },
    {
      "type": "way",
      "id": 516483997,
      "nodes": [
        5041845671,
        5041845672,
        5041845673,
        5041845674,
        5041845675,
        5041845676,
        5041845671
      ],
      "tags": {
        "addr:city": "Niterói",
        "addr:street": "Rua Doutor Mário Viana",
        "addr:suburb": "Santa Rosa",
        "air_conditioning": "yes",
        "building": "yes",
        "name": "American Pet",
        "opening_hours": "08:00-24:00",
        "shop": "pet",
        "start_date": "07/09/2019",
        "wheelchair": "yes"
      }
    },
    {
      "type": "way",
      "id": 518949381,
      "nodes": [
        6917330807,
        5061242582,
        5061242583,
        5061242584,
        5061242585,
        5129700770,
        5061242586,
        5061242587,
        5061242589,
        6917330807
      ],
      "tags": {
        "addr:city": "Niterói",
        "addr:housenumber": "602-616",
        "addr:postcode": "24110-680",
        "addr:street": "Rua Doutor March",
        "addr:suburb": "Tenente Jardim",
        "building": "yes",
        "name": "RLD Mix",
        "shop": "supermarket"
      }
    },
    {
      "type": "way",
      "id": 518949386,
      "nodes": [
        5061242593,
        6917330809,
        5061242600,
        5061242601,
        5061242602,
        5061242593
      ],
      "tags": {
        "addr:city": "Niterói",
        "addr:housenumber": "648",
        "addr:postcode": "24410-000",
        "addr:street": "Rua Doutor March",
        "addr:suburb": "Tenente Jardim",
        "building": "yes",
        "name": "Padaria Marli",
        "shop": "bakery"
      }
    },
    {
      "type": "way",
      "id": 518949390,
      "nodes": [
        5061242605,
        5061242606,
        5061242608,
        5061242609,
        5061242610,
        5061242605
      ],
      "tags": {
        "addr:city": "Niterói",
        "addr:housenumber": "620",
        "addr:postcode": "24110-650",
        "addr:street": "Rua Doutor March",
        "addr:suburb": "Tenente Jardim",
        "building": "yes",
        "contact:website": "http://adtenentejardim.blogspot.com.br/",
        "name": "Assembléia de Deus em Tenente Jardim",
        "shop": "pastry"
      }
    },
    {
      "type": "way",
      "id": 522336702,
      "nodes": [
        5087656292,
        5087656293,
        5087656294,
        5087656295,
        5087656292
      ],
      "tags": {
        "addr:city": "Niterói",
        "addr:housenumber": "420",
        "addr:postcode": "24110-250",
        "addr:street": "Avenida Presidente Craveiro Lopes",
        "addr:suburb": "Barreto",
        "building": "yes",
        "name": "RB Mix",
        "opening_hours": "Mo-Su 06:00-00:00",
        "shop": "supermarket"
      }
    },
    {
      "type": "way",
      "id": 547160161,
      "nodes": [
        5286846085,
        5286846086,
        5286846087,
        5286846088,
        5286846089,
        5286846085
      ],
      "tags": {
        "building": "yes",
        "name": "Padaria e Mercearia Dini",
        "shop": "bakery"
      }
    },
    {
      "type": "way",
      "id": 669000733,
      "nodes": [
        6264703248,
        6264703249,
        6264703250,
        6264703251,
        6264703252,
        6264703253,
        6264703248
      ],
      "tags": {
        "addr:city": "Niterói",
        "addr:housenumber": "43",
        "addr:street": "Rua Noronha Torrezão",
        "addr:suburb": "Santa Rosa",
        "building": "yes",
        "name": "Hortifruti",
        "opening_hours": "Mo-Fr 07:30-21:00; Sa 07:30-20:00; Su 07:30-15:00",
        "payment:cash": "yes",
        "payment:credit_cards": "yes",
        "payment:debit_cards": "yes",
        "phone": "+55 21 36113650",
        "shop": "greengrocer",
        "website": "http://www.hortifruti.com.br/"
      }
    },
    {
      "type": "way",
      "id": 728879777,
      "nodes": [
        1369031609,
        7082474957,
        6828821178,
        6828821179,
        6828821180,
        6828821181,
        2463204164,
        2463204160,
        2463204360,
        1930059649,
        1930059663,
        1930059676,
        1930059696,
        7082474956,
        1369031609
      ],
      "tags": {
        "building": "yes",
        "name": "Mundial",
        "shop": "supermarket"
      }
    },
    {
      "type": "way",
      "id": 729207159,
      "nodes": [
        6831830053,
        6831830054,
        6831830055,
        6831830056,
        6831830053
      ],
      "tags": {
        "brand:wikidata": "Q3064093",
        "brand:wikipedia": "en:Lojas Americanas",
        "building": "yes",
        "name": "Americanas Express",
        "operator": "Lojas Americanas",
        "shop": "department_store"
      }
    },
    {
      "type": "way",
      "id": 729207989,
      "nodes": [
        6831826935,
        6831826936,
        6831826925,
        6831826937,
        6831826938,
        6831826939,
        6831826935
      ],
      "tags": {
        "building": "yes",
        "shop": "yes"
      }
    },
    {
      "type": "way",
      "id": 738702531,
      "nodes": [
        6917326075,
        6917326076,
        6917326077,
        6917326078,
        6917326075
      ],
      "tags": {
        "building": "yes",
        "name": "Padaria Benedito da Luz",
        "shop": "bakery"
      }
    },
    {
      "type": "way",
      "id": 738702539,
      "nodes": [
        6917330803,
        6917340450,
        6917330804,
        6917330805,
        6917330806,
        6917330803
      ],
      "tags": {
        "building": "yes",
        "shop": "supermarket"
      }
    },
    {
      "type": "way",
      "id": 738702543,
      "nodes": [
        6917330820,
        6917330821,
        6917330817,
        6917330816,
        6917330822,
        6917330820
      ],
      "tags": {
        "building": "yes",
        "shop": "bakery"
      }
    },
    {
      "type": "way",
      "id": 738704206,
      "nodes": [
        6917322965,
        6917322966,
        6917322967,
        5120876528,
        6917322965
      ],
      "tags": {
        "building": "yes",
        "name": "Fornecedora Santos",
        "shop": "hardware"
      }
    },
    {
      "type": "way",
      "id": 738704212,
      "nodes": [
        6917342488,
        6917342489,
        6917342490,
        6917342491,
        6917342492,
        6917342488
      ],
      "tags": {
        "building": "yes",
        "shop": "butcher"
      }
    },
    {
      "type": "way",
      "id": 738704615,
      "nodes": [
        6917340440,
        6917340441,
        6917340442,
        6917340443,
        6917340440
      ],
      "tags": {
        "building": "yes",
        "shop": "pet"
      }
    },
    {
      "type": "way",
      "id": 738705068,
      "nodes": [
        6917279417,
        6917279418,
        6917279419,
        6917279420,
        6917279421,
        6917279417
      ],
      "tags": {
        "building": "yes",
        "shop": "bakery"
      }
    },
    {
      "type": "way",
      "id": 738705071,
      "nodes": [
        6917279431,
        6917279432,
        6917279433,
        6917279434,
        6917279431
      ],
      "tags": {
        "building": "yes",
        "shop": "hardware"
      }
    },
    {
      "type": "way",
      "id": 738705074,
      "nodes": [
        6917279437,
        6917279440,
        6917279442,
        6917279441,
        6917279438,
        6917279437
      ],
      "tags": {
        "building": "yes",
        "shop": "hardware"
      }
    },
    {
      "type": "way",
      "id": 738708001,
      "nodes": [
        6917334524,
        6917334525,
        6917334526,
        6917334527,
        6917334528,
        6917334524
      ],
      "tags": {
        "building": "yes",
        "shop": "butcher"
      }
    },
    {
      "type": "way",
      "id": 767417016,
      "nodes": [
        7165254654,
        7165254655,
        7165254656,
        7165246075,
        7165254657,
        7165254654
      ],
      "tags": {
        "building": "yes",
        "name": "Princesa",
        "shop": "supermarket"
      }
    },
    {
      "type": "way",
      "id": 767419897,
      "nodes": [
        8040910815,
        8040910816,
        8040910817,
        7165281812,
        8040910818,
        8040910815
      ],
      "tags": {
        "building": "yes",
        "name": "Padaria Santa Marta",
        "shop": "bakery"
      }
    },
    {
      "type": "way",
      "id": 767419931,
      "nodes": [
        7165259333,
        7165259334,
        7165259335,
        7165259336,
        7165259333
      ],
      "tags": {
        "building": "yes",
        "name": "Casa & Vídeo",
        "shop": "general_store"
      }
    },
    {
      "type": "way",
      "id": 767422868,
      "nodes": [
        7165264978,
        7165278016,
        7165278017,
        7165278018,
        7165264978
      ],
      "tags": {
        "building": "yes",
        "shop": "bakery"
      }
    },
    {
      "type": "way",
      "id": 767424084,
      "nodes": [
        7165307561,
        7165307562,
        7165307563,
        7165307564,
        7165307561
      ],
      "tags": {
        "building": "yes",
        "shop": "supermarket"
      }
    },
    {
      "type": "way",
      "id": 767424151,
      "nodes": [
        7165280828,
        8079253470,
        7165280829,
        7165280830,
        7165280831,
        7165280828
      ],
      "tags": {
        "addr:housenumber": "86",
        "addr:street": "Avenida Roberto Silveira",
        "building": "yes",
        "clothes": "wedding",
        "name": "Nova Lucius Noivas",
        "shop": "clothes"
      }
    },
    {
      "type": "way",
      "id": 808629494,
      "nodes": [
        7561323756,
        7561323758,
        7561323755,
        7561323757,
        7561323756
      ],
      "tags": {
        "addr:city": "Niterói",
        "addr:housename": "Pão e Etc.",
        "addr:housenumber": "137",
        "addr:postcode": "24.220-330",
        "addr:street": "Rua João Pessoa ",
        "name": "Pão e Etc.",
        "shop": "bakery",
        "website": "http://www.paoeetc.com.br/"
      }
    },
    {
      "type": "way",
      "id": 808631980,
      "nodes": [
        7561380370,
        7561348762,
        7561348760,
        7561380369,
        7561380370
      ],
      "tags": {
        "addr:city": "Niterói",
        "addr:housename": "Lavabenne",
        "addr:housenumber": "143",
        "addr:postcode": "24.220-330",
        "addr:street": "Rua João Pessoa",
        "name": "Lavabenne",
        "shop": "laundry",
        "website": "https://www.facebook.com/lavabennelavanderia"
      }
    },
    {
      "type": "way",
      "id": 813435641,
      "nodes": [
        7598386821,
        7671063028,
        7671063030,
        7671063029,
        7671063027,
        7598386822,
        7598386823,
        7598386824,
        7598386821
      ],
      "tags": {
        "addr:housenumber": "107",
        "addr:street": "Travessa Dr. João Leitão",
        "building": "yes",
        "name": "Lorenzo técnico de informática",
        "shop": "computer"
      }
    },
    {
      "type": "way",
      "id": 864309759,
      "nodes": [
        8051760129,
        8051760130,
        2461946907,
        2461946894,
        8051760132,
        8051760129
      ],
      "tags": {
        "addr:housenumber": "50",
        "addr:street": "Rua Belisário Augusto",
        "building": "yes",
        "name": "PRABHU - Universo dos Brinquedos",
        "shop": "toys"
      }
    },
    {
      "type": "way",
      "id": 864541077,
      "nodes": [
        8058200618,
        8058200619,
        8058200620,
        8058200621,
        8105612004,
        8105612003,
        8058200618
      ],
      "tags": {
        "building": "yes",
        "shop": "convenience"
      }
    },
    {
      "type": "way",
      "id": 867314388,
      "nodes": [
        8084722376,
        8084722377,
        8084722385,
        8084722378,
        8084722379,
        8084722380,
        8084722381,
        8084722376
      ],
      "tags": {
        "building": "yes",
        "shop": "hardware"
      }
    },
    {
      "type": "way",
      "id": 867314390,
      "nodes": [
        8084722381,
        8084722388,
        8084722389,
        8084722390,
        8084722379,
        8084722380,
        8084722381
      ],
      "tags": {
        "building": "yes",
        "shop": "lottery"
      }
    },
    {
      "type": "way",
      "id": 869935808,
      "nodes": [
        8061672729,
        8040164845,
        8040164846,
        8105339050,
        8105339051,
        8040150778,
        8040150750,
        8040150753,
        8061672730,
        8061672729
      ],
      "tags": {
        "building": "yes",
        "shop": "hardware"
      }
    },
    {
      "type": "relation",
      "id": 3504012,
      "members": [
        {
          "type": "way",
          "ref": 186422333,
          "role": "outer"
        },
        {
          "type": "way",
          "ref": 186422334,
          "role": "outer"
        },
        {
          "type": "way",
          "ref": 186422336,
          "role": "outer"
        }
      ],
      "tags": {
        "addr:city": "São Gonçalo",
        "addr:housenumber": "592",
        "addr:postcode": "24141-330",
        "addr:street": "Estrada da Florália",
        "building": "yes",
        "name": "Florália Orquidários Reunidos Ltda",
        "phone": "+55 21 26277733 Fax 55 21 26277802",
        "shop": "garden_centre",
        "type": "multipolygon",
        "website": "https://floralia.com.br/"
      }
    },
    {
      "type": "relation",
      "id": 6171313,
      "members": [
        {
          "type": "way",
          "ref": 413674945,
          "role": "outer"
        }
      ],
      "tags": {
        "name": "Carrefour",
        "shop": "supermarket",
        "type": "multipolygon"
      }
    },
    {
      "type": "node",
      "id": 7598386821,
      "lat": -22.934489,
      "lon": -43.0976151
    },
    {
      "type": "node",
      "id": 7598386822,
      "lat": -22.9344379,
      "lon": -43.0975403
    },
    {
      "type": "node",
      "id": 7598386823,
      "lat": -22.9344847,
      "lon": -43.0975026
    },
    {
      "type": "node",
      "id": 7598386824,
      "lat": -22.9345358,
      "lon": -43.0975774
    },
    {
      "type": "node",
      "id": 7671063027,
      "lat": -22.9344235,
      "lon": -43.0975554
    },
    {
      "type": "node",
      "id": 7671063028,
      "lat": -22.9344763,
      "lon": -43.0976268
    },
    {
      "type": "node",
      "id": 7671063029,
      "lat": -22.934438,
      "lon": -43.0975752
    },
    {
      "type": "node",
      "id": 7671063030,
      "lat": -22.9344526,
      "lon": -43.0976024
    },
    {
      "type": "node",
      "id": 8040150750,
      "lat": -22.9355552,
      "lon": -43.0989662
    },
    {
      "type": "node",
      "id": 8040150753,
      "lat": -22.9354888,
      "lon": -43.0990235
    },
    {
      "type": "node",
      "id": 8040150778,
      "lat": -22.9355901,
      "lon": -43.0990097
    },
    {
      "type": "node",
      "id": 8040164845,
      "lat": -22.9356552,
      "lon": -43.0990655
    },
    {
      "type": "node",
      "id": 8040164846,
      "lat": -22.9356175,
      "lon": -43.0990258
    },
    {
      "type": "node",
      "id": 8061672729,
      "lat": -22.9355774,
      "lon": -43.0991361
    },
    {
      "type": "node",
      "id": 8061672730,
      "lat": -22.9355157,
      "lon": -43.0990641
    },
    {
      "type": "node",
      "id": 8084722389,
      "lat": -22.9343352,
      "lon": -43.0979095
    },
    {
      "type": "node",
      "id": 8084722390,
      "lat": -22.9343118,
      "lon": -43.0978867
    },
    {
      "type": "node",
      "id": 8105339050,
      "lat": -22.9356397,
      "lon": -43.099001
    },
    {
      "type": "node",
      "id": 8105339051,
      "lat": -22.9356168,
      "lon": -43.0989772
    },
    {
      "type": "node",
      "id": 8058200618,
      "lat": -22.9341403,
      "lon": -43.0978069
    },
    {
      "type": "node",
      "id": 8058200619,
      "lat": -22.9340618,
      "lon": -43.0977695
    },
    {
      "type": "node",
      "id": 8058200620,
      "lat": -22.9340361,
      "lon": -43.0978195
    },
    {
      "type": "node",
      "id": 8058200621,
      "lat": -22.9341231,
      "lon": -43.0978571
    },
    {
      "type": "node",
      "id": 8084722376,
      "lat": -22.9341623,
      "lon": -43.0979497
    },
    {
      "type": "node",
      "id": 8084722377,
      "lat": -22.9342043,
      "lon": -43.0978626
    },
    {
      "type": "node",
      "id": 8084722378,
      "lat": -22.9342809,
      "lon": -43.0979055
    },
    {
      "type": "node",
      "id": 8084722379,
      "lat": -22.9342772,
      "lon": -43.097931
    },
    {
      "type": "node",
      "id": 8084722380,
      "lat": -22.9342488,
      "lon": -43.0979698
    },
    {
      "type": "node",
      "id": 8084722381,
      "lat": -22.9342253,
      "lon": -43.0979953
    },
    {
      "type": "node",
      "id": 8084722385,
      "lat": -22.9342161,
      "lon": -43.0978692
    },
    {
      "type": "node",
      "id": 8084722388,
      "lat": -22.9342512,
      "lon": -43.0980168
    },
    {
      "type": "node",
      "id": 8105612003,
      "lat": -22.934172,
      "lon": -43.0978221
    },
    {
      "type": "node",
      "id": 8105612004,
      "lat": -22.9341624,
      "lon": -43.097849
    },
    {
      "type": "node",
      "id": 7165264978,
      "lat": -22.9037595,
      "lon": -43.1234298
    },
    {
      "type": "node",
      "id": 7165278016,
      "lat": -22.9039214,
      "lon": -43.1234298
    },
    {
      "type": "node",
      "id": 7165278017,
      "lat": -22.9039314,
      "lon": -43.1233084
    },
    {
      "type": "node",
      "id": 7165278018,
      "lat": -22.9037735,
      "lon": -43.1232888
    },
    {
      "type": "node",
      "id": 7165307561,
      "lat": -22.9015459,
      "lon": -43.1253642
    },
    {
      "type": "node",
      "id": 7165307562,
      "lat": -22.9016154,
      "lon": -43.1255876
    },
    {
      "type": "node",
      "id": 1344012197,
      "lat": -22.8959826,
      "lon": -43.1235299
    },
    {
      "type": "node",
      "id": 1925250695,
      "lat": -22.8953036,
      "lon": -43.1234647
    },
    {
      "type": "node",
      "id": 1925250696,
      "lat": -22.8953254,
      "lon": -43.1233355
    },
    {
      "type": "node",
      "id": 1925250731,
      "lat": -22.8956849,
      "lon": -43.1234008
    },
    {
      "type": "node",
      "id": 1958722048,
      "lat": -22.8983816,
      "lon": -43.1234007
    },
    {
      "type": "node",
      "id": 1958722052,
      "lat": -22.8984333,
      "lon": -43.123367
    },
    {
      "type": "node",
      "id": 1958722054,
      "lat": -22.8984589,
      "lon": -43.1235326
    },
    {
      "type": "node",
      "id": 1958722057,
      "lat": -22.8985092,
      "lon": -43.1234966
    },
    {
      "type": "node",
      "id": 6904400528,
      "lat": -22.8956458,
      "lon": -43.123545
    },
    {
      "type": "node",
      "id": 6904400529,
      "lat": -22.8956763,
      "lon": -43.1234584
    },
    {
      "type": "node",
      "id": 6904400530,
      "lat": -22.8959859,
      "lon": -43.1235063
    },
    {
      "type": "node",
      "id": 6904400531,
      "lat": -22.895909,
      "lon": -43.1240849
    },
    {
      "type": "node",
      "id": 6904400532,
      "lat": -22.8958746,
      "lon": -43.1241026
    },
    {
      "type": "node",
      "id": 6904400533,
      "lat": -22.8956188,
      "lon": -43.1236619
    },
    {
      "type": "node",
      "id": 6904400534,
      "lat": -22.895455,
      "lon": -43.1239633
    },
    {
      "type": "node",
      "id": 6904400535,
      "lat": -22.8955504,
      "lon": -43.123644
    },
    {
      "type": "node",
      "id": 6904400536,
      "lat": -22.8959123,
      "lon": -43.123925
    },
    {
      "type": "node",
      "id": 6904400537,
      "lat": -22.8959327,
      "lon": -43.1239285
    },
    {
      "type": "node",
      "id": 6904400544,
      "lat": -22.8959719,
      "lon": -43.1235901
    },
    {
      "type": "node",
      "id": 6904400545,
      "lat": -22.8956849,
      "lon": -43.1240396
    },
    {
      "type": "node",
      "id": 7165307563,
      "lat": -22.9014189,
      "lon": -43.1256022
    },
    {
      "type": "node",
      "id": 7165307564,
      "lat": -22.9014033,
      "lon": -43.1253889
    },
    {
      "type": "node",
      "id": 2461946897,
      "lat": -22.9081066,
      "lon": -43.109581
    },
    {
      "type": "node",
      "id": 2461946907,
      "lat": -22.9081481,
      "lon": -43.1096312
    },
    {
      "type": "node",
      "id": 8051760130,
      "lat": -22.908195,
      "lon": -43.1096852
    },
    {
      "type": "node",
      "id": 1928487730,
      "lat": -22.9082055,
      "lon": -43.1088285
    },
    {
      "type": "node",
      "id": 1928487731,
      "lat": -22.9082489,
      "lon": -43.1088938
    },
    {
      "type": "node",
      "id": 1928487734,
      "lat": -22.908262,
      "lon": -43.1091841
    },
    {
      "type": "node",
      "id": 1928487735,
      "lat": -22.9082916,
      "lon": -43.1089353
    },
    {
      "type": "node",
      "id": 1928487738,
      "lat": -22.9083941,
      "lon": -43.1085546
    },
    {
      "type": "node",
      "id": 1928487739,
      "lat": -22.9083943,
      "lon": -43.1090349
    },
    {
      "type": "node",
      "id": 1928487748,
      "lat": -22.9084685,
      "lon": -43.108755
    },
    {
      "type": "node",
      "id": 1928487750,
      "lat": -22.9085257,
      "lon": -43.1086889
    },
    {
      "type": "node",
      "id": 1928487754,
      "lat": -22.9085641,
      "lon": -43.1088526
    },
    {
      "type": "node",
      "id": 1942935192,
      "lat": -22.9105271,
      "lon": -43.1070182
    },
    {
      "type": "node",
      "id": 1942935194,
      "lat": -22.9107544,
      "lon": -43.1067757
    },
    {
      "type": "node",
      "id": 1942935197,
      "lat": -22.9108202,
      "lon": -43.1073586
    },
    {
      "type": "node",
      "id": 1942935200,
      "lat": -22.9110542,
      "lon": -43.1071237
    },
    {
      "type": "node",
      "id": 2461946913,
      "lat": -22.9086821,
      "lon": -43.108711
    },
    {
      "type": "node",
      "id": 2461946914,
      "lat": -22.9084557,
      "lon": -43.1084834
    },
    {
      "type": "node",
      "id": 2461975839,
      "lat": -22.9113024,
      "lon": -43.1085578
    },
    {
      "type": "node",
      "id": 2461975840,
      "lat": -22.9113923,
      "lon": -43.1084703
    },
    {
      "type": "node",
      "id": 2461975841,
      "lat": -22.9114472,
      "lon": -43.1085367
    },
    {
      "type": "node",
      "id": 2461975842,
      "lat": -22.9113573,
      "lon": -43.1086243
    },
    {
      "type": "node",
      "id": 2461975851,
      "lat": -22.9082938,
      "lon": -43.1047121
    },
    {
      "type": "node",
      "id": 2461975852,
      "lat": -22.9082565,
      "lon": -43.1046639
    },
    {
      "type": "node",
      "id": 2461975853,
      "lat": -22.9083304,
      "lon": -43.1045965
    },
    {
      "type": "node",
      "id": 2461975854,
      "lat": -22.9083677,
      "lon": -43.1046447
    },
    {
      "type": "node",
      "id": 2463059683,
      "lat": -22.9089224,
      "lon": -43.1084369
    },
    {
      "type": "node",
      "id": 2463059689,
      "lat": -22.9087514,
      "lon": -43.108247
    },
    {
      "type": "node",
      "id": 2463059701,
      "lat": -22.9085401,
      "lon": -43.1085695
    },
    {
      "type": "node",
      "id": 2463059706,
      "lat": -22.9086458,
      "lon": -43.1086754
    },
    {
      "type": "node",
      "id": 2463059710,
      "lat": -22.908612,
      "lon": -43.1086419
    },
    {
      "type": "node",
      "id": 2463059711,
      "lat": -22.9089567,
      "lon": -43.108401
    },
    {
      "type": "node",
      "id": 2463059712,
      "lat": -22.9087857,
      "lon": -43.1082107
    },
    {
      "type": "node",
      "id": 2463059767,
      "lat": -22.9095223,
      "lon": -43.1081398
    },
    {
      "type": "node",
      "id": 2463059768,
      "lat": -22.9095887,
      "lon": -43.10807
    },
    {
      "type": "node",
      "id": 2463059769,
      "lat": -22.9095354,
      "lon": -43.1080102
    },
    {
      "type": "node",
      "id": 2463059770,
      "lat": -22.9095862,
      "lon": -43.1079567
    },
    {
      "type": "node",
      "id": 2463059771,
      "lat": -22.9096731,
      "lon": -43.1080541
    },
    {
      "type": "node",
      "id": 2463059772,
      "lat": -22.9095559,
      "lon": -43.1081774
    },
    {
      "type": "node",
      "id": 2463059773,
      "lat": -22.9095929,
      "lon": -43.1079642
    },
    {
      "type": "node",
      "id": 2463059879,
      "lat": -22.9105693,
      "lon": -43.1070678
    },
    {
      "type": "node",
      "id": 2463059882,
      "lat": -22.9107834,
      "lon": -43.1073179
    },
    {
      "type": "node",
      "id": 2463059883,
      "lat": -22.9107229,
      "lon": -43.1072489
    },
    {
      "type": "node",
      "id": 2463059888,
      "lat": -22.9106776,
      "lon": -43.107196
    },
    {
      "type": "node",
      "id": 2463205479,
      "lat": -22.9083399,
      "lon": -43.1047728
    },
    {
      "type": "node",
      "id": 2463205484,
      "lat": -22.9084328,
      "lon": -43.1046713
    },
    {
      "type": "node",
      "id": 2463205488,
      "lat": -22.9083885,
      "lon": -43.1046246
    },
    {
      "type": "node",
      "id": 2463205590,
      "lat": -22.9082911,
      "lon": -43.1049496
    },
    {
      "type": "node",
      "id": 2463205606,
      "lat": -22.9083081,
      "lon": -43.1049327
    },
    {
      "type": "node",
      "id": 2463205612,
      "lat": -22.9083802,
      "lon": -43.1050182
    },
    {
      "type": "node",
      "id": 2463205617,
      "lat": -22.9082578,
      "lon": -43.1051398
    },
    {
      "type": "node",
      "id": 2463205622,
      "lat": -22.9081857,
      "lon": -43.1050542
    },
    {
      "type": "node",
      "id": 2463235232,
      "lat": -22.9083689,
      "lon": -43.1052599
    },
    {
      "type": "node",
      "id": 2463235234,
      "lat": -22.9084638,
      "lon": -43.1051605
    },
    {
      "type": "node",
      "id": 2463235236,
      "lat": -22.9086499,
      "lon": -43.1053699
    },
    {
      "type": "node",
      "id": 2463235238,
      "lat": -22.9085551,
      "lon": -43.1054693
    },
    {
      "type": "node",
      "id": 7165246075,
      "lat": -22.9036676,
      "lon": -43.1223171
    },
    {
      "type": "node",
      "id": 7165254654,
      "lat": -22.9035598,
      "lon": -43.122412
    },
    {
      "type": "node",
      "id": 7165254655,
      "lat": -22.903776,
      "lon": -43.1224415
    },
    {
      "type": "node",
      "id": 7165254656,
      "lat": -22.9037938,
      "lon": -43.1223327
    },
    {
      "type": "node",
      "id": 7165254657,
      "lat": -22.9035719,
      "lon": -43.1223053
    },
    {
      "type": "node",
      "id": 336161703,
      "lat": -22.9035392,
      "lon": -43.1140165
    },
    {
      "type": "node",
      "id": 336161705,
      "lat": -22.903381,
      "lon": -43.1138365
    },
    {
      "type": "node",
      "id": 336161706,
      "lat": -22.9031762,
      "lon": -43.1140457
    },
    {
      "type": "node",
      "id": 336161707,
      "lat": -22.9033511,
      "lon": -43.1142502
    },
    {
      "type": "node",
      "id": 1928471944,
      "lat": -22.9034387,
      "lon": -43.110197
    },
    {
      "type": "node",
      "id": 1928471945,
      "lat": -22.9034464,
      "lon": -43.1102347
    },
    {
      "type": "node",
      "id": 1930062887,
      "lat": -22.9061733,
      "lon": -43.1110784
    },
    {
      "type": "node",
      "id": 1930062904,
      "lat": -22.9062712,
      "lon": -43.1111864
    },
    {
      "type": "node",
      "id": 1930062907,
      "lat": -22.9062901,
      "lon": -43.1104005
    },
    {
      "type": "node",
      "id": 1930062912,
      "lat": -22.9063208,
      "lon": -43.1106123
    },
    {
      "type": "node",
      "id": 1930062915,
      "lat": -22.9063677,
      "lon": -43.1105642
    },
    {
      "type": "node",
      "id": 1930062916,
      "lat": -22.9063722,
      "lon": -43.1108657
    },
    {
      "type": "node",
      "id": 1930062917,
      "lat": -22.906403,
      "lon": -43.1105259
    },
    {
      "type": "node",
      "id": 1930062918,
      "lat": -22.9064051,
      "lon": -43.1102784
    },
    {
      "type": "node",
      "id": 1930062921,
      "lat": -22.9064617,
      "lon": -43.1102184
    },
    {
      "type": "node",
      "id": 1930062924,
      "lat": -22.9064701,
      "lon": -43.1109737
    },
    {
      "type": "node",
      "id": 1930062927,
      "lat": -22.9065763,
      "lon": -43.1103457
    },
    {
      "type": "node",
      "id": 1930062929,
      "lat": -22.9066076,
      "lon": -43.1109308
    },
    {
      "type": "node",
      "id": 1930062932,
      "lat": -22.9066913,
      "lon": -43.1108421
    },
    {
      "type": "node",
      "id": 1930062933,
      "lat": -22.9067564,
      "lon": -43.1101519
    },
    {
      "type": "node",
      "id": 1930062934,
      "lat": -22.9067777,
      "lon": -43.110134
    },
    {
      "type": "node",
      "id": 1930062935,
      "lat": -22.9068289,
      "lon": -43.1106262
    },
    {
      "type": "node",
      "id": 1930062936,
      "lat": -22.906861,
      "lon": -43.1106619
    },
    {
      "type": "node",
      "id": 1930062937,
      "lat": -22.9070284,
      "lon": -43.1104207
    },
    {
      "type": "node",
      "id": 1966834233,
      "lat": -22.9035395,
      "lon": -43.1140557
    },
    {
      "type": "node",
      "id": 1966834234,
      "lat": -22.9035479,
      "lon": -43.1140364
    },
    {
      "type": "node",
      "id": 2461838808,
      "lat": -22.9028169,
      "lon": -43.1149901
    },
    {
      "type": "node",
      "id": 2461838810,
      "lat": -22.9030508,
      "lon": -43.1147544
    },
    {
      "type": "node",
      "id": 2461838813,
      "lat": -22.9032894,
      "lon": -43.1150333
    },
    {
      "type": "node",
      "id": 2461838815,
      "lat": -22.9030555,
      "lon": -43.1152691
    },
    {
      "type": "node",
      "id": 2461838850,
      "lat": -22.9032701,
      "lon": -43.1150198
    },
    {
      "type": "node",
      "id": 2461838862,
      "lat": -22.9032313,
      "lon": -43.1143707
    },
    {
      "type": "node",
      "id": 2461838878,
      "lat": -22.9032122,
      "lon": -43.1140875
    },
    {
      "type": "node",
      "id": 2461838879,
      "lat": -22.9030924,
      "lon": -43.114208
    },
    {
      "type": "node",
      "id": 2461838881,
      "lat": -22.9033516,
      "lon": -43.1138665
    },
    {
      "type": "node",
      "id": 2461880155,
      "lat": -22.9047744,
      "lon": -43.1129966
    },
    {
      "type": "node",
      "id": 2461880187,
      "lat": -22.9048681,
      "lon": -43.1129018
    },
    {
      "type": "node",
      "id": 2461880188,
      "lat": -22.9051696,
      "lon": -43.1132528
    },
    {
      "type": "node",
      "id": 2461880189,
      "lat": -22.9050759,
      "lon": -43.1133476
    },
    {
      "type": "node",
      "id": 2461880190,
      "lat": -22.9049127,
      "lon": -43.1128549
    },
    {
      "type": "node",
      "id": 2461880191,
      "lat": -22.9049701,
      "lon": -43.1129282
    },
    {
      "type": "node",
      "id": 2461880192,
      "lat": -22.904926,
      "lon": -43.1129668
    },
    {
      "type": "node",
      "id": 2461880193,
      "lat": -22.9049714,
      "lon": -43.1128008
    },
    {
      "type": "node",
      "id": 2461880194,
      "lat": -22.9050288,
      "lon": -43.112874
    },
    {
      "type": "node",
      "id": 2461880198,
      "lat": -22.9049716,
      "lon": -43.1127423
    },
    {
      "type": "node",
      "id": 2461880199,
      "lat": -22.9050187,
      "lon": -43.1126922
    },
    {
      "type": "node",
      "id": 2461880200,
      "lat": -22.9050762,
      "lon": -43.1127582
    },
    {
      "type": "node",
      "id": 2461880201,
      "lat": -22.9050291,
      "lon": -43.1128061
    },
    {
      "type": "node",
      "id": 2461893486,
      "lat": -22.9053684,
      "lon": -43.1121688
    },
    {
      "type": "node",
      "id": 2461893488,
      "lat": -22.905504,
      "lon": -43.1120191
    },
    {
      "type": "node",
      "id": 2461893490,
      "lat": -22.9053032,
      "lon": -43.1118048
    },
    {
      "type": "node",
      "id": 2461893492,
      "lat": -22.9051676,
      "lon": -43.1119545
    },
    {
      "type": "node",
      "id": 2461893494,
      "lat": -22.9054822,
      "lon": -43.1119958
    },
    {
      "type": "node",
      "id": 2461936283,
      "lat": -22.9072069,
      "lon": -43.1104401
    },
    {
      "type": "node",
      "id": 2461936284,
      "lat": -22.9073162,
      "lon": -43.1103255
    },
    {
      "type": "node",
      "id": 2461936287,
      "lat": -22.9074113,
      "lon": -43.1104369
    },
    {
      "type": "node",
      "id": 2461936288,
      "lat": -22.9073021,
      "lon": -43.1105472
    },
    {
      "type": "node",
      "id": 2461936290,
      "lat": -22.9074077,
      "lon": -43.1102334
    },
    {
      "type": "node",
      "id": 2461936292,
      "lat": -22.9075028,
      "lon": -43.1103448
    },
    {
      "type": "node",
      "id": 2461936294,
      "lat": -22.9071292,
      "lon": -43.1103328
    },
    {
      "type": "node",
      "id": 2461936296,
      "lat": -22.9071989,
      "lon": -43.1102562
    },
    {
      "type": "node",
      "id": 2461936297,
      "lat": -22.9069812,
      "lon": -43.1100227
    },
    {
      "type": "node",
      "id": 2461936299,
      "lat": -22.9069115,
      "lon": -43.1100993
    },
    {
      "type": "node",
      "id": 2461936301,
      "lat": -22.9075314,
      "lon": -43.110103
    },
    {
      "type": "node",
      "id": 2461936303,
      "lat": -22.9076479,
      "lon": -43.1102409
    },
    {
      "type": "node",
      "id": 2461936305,
      "lat": -22.9075209,
      "lon": -43.110375
    },
    {
      "type": "node",
      "id": 2461946882,
      "lat": -22.9077767,
      "lon": -43.1096505
    },
    {
      "type": "node",
      "id": 2461946884,
      "lat": -22.9072641,
      "lon": -43.1097337
    },
    {
      "type": "node",
      "id": 2461946885,
      "lat": -22.9074787,
      "lon": -43.1099698
    },
    {
      "type": "node",
      "id": 2461946886,
      "lat": -22.9073683,
      "lon": -43.1100273
    },
    {
      "type": "node",
      "id": 2461946887,
      "lat": -22.9074502,
      "lon": -43.1099385
    },
    {
      "type": "node",
      "id": 2461946889,
      "lat": -22.9072679,
      "lon": -43.1097379
    },
    {
      "type": "node",
      "id": 2461946890,
      "lat": -22.9071826,
      "lon": -43.1098268
    },
    {
      "type": "node",
      "id": 2461946894,
      "lat": -22.9080343,
      "lon": -43.1097528
    },
    {
      "type": "node",
      "id": 2461946895,
      "lat": -22.9079883,
      "lon": -43.1097018
    },
    {
      "type": "node",
      "id": 2461946925,
      "lat": -22.9067094,
      "lon": -43.1098234
    },
    {
      "type": "node",
      "id": 2461946930,
      "lat": -22.9065647,
      "lon": -43.1096625
    },
    {
      "type": "node",
      "id": 2704749291,
      "lat": -22.9042696,
      "lon": -43.1096558
    },
    {
      "type": "node",
      "id": 2704749292,
      "lat": -22.9045018,
      "lon": -43.1098972
    },
    {
      "type": "node",
      "id": 2704749293,
      "lat": -22.9044969,
      "lon": -43.1099589
    },
    {
      "type": "node",
      "id": 2704749294,
      "lat": -22.9045784,
      "lon": -43.1100421
    },
    {
      "type": "node",
      "id": 2704749295,
      "lat": -22.904613,
      "lon": -43.1100662
    },
    {
      "type": "node",
      "id": 2704749296,
      "lat": -22.9046797,
      "lon": -43.1099965
    },
    {
      "type": "node",
      "id": 2704749297,
      "lat": -22.9046525,
      "lon": -43.1099723
    },
    {
      "type": "node",
      "id": 2704749298,
      "lat": -22.9046328,
      "lon": -43.1099482
    },
    {
      "type": "node",
      "id": 2704749299,
      "lat": -22.9047168,
      "lon": -43.1098463
    },
    {
      "type": "node",
      "id": 2704763480,
      "lat": -22.9033956,
      "lon": -43.1102956
    },
    {
      "type": "node",
      "id": 2704763482,
      "lat": -22.9032745,
      "lon": -43.1101681
    },
    {
      "type": "node",
      "id": 2704763484,
      "lat": -22.9033313,
      "lon": -43.1100944
    },
    {
      "type": "node",
      "id": 3254677969,
      "lat": -22.903113,
      "lon": -43.1106017
    },
    {
      "type": "node",
      "id": 3254677970,
      "lat": -22.9028936,
      "lon": -43.1103357
    },
    {
      "type": "node",
      "id": 3254677971,
      "lat": -22.9027998,
      "lon": -43.110436
    },
    {
      "type": "node",
      "id": 3254677972,
      "lat": -22.9030218,
      "lon": -43.1107007
    },
    {
      "type": "node",
      "id": 8051760129,
      "lat": -22.9080877,
      "lon": -43.1098063
    },
    {
      "type": "node",
      "id": 8051760131,
      "lat": -22.9080104,
      "lon": -43.1097274
    },
    {
      "type": "node",
      "id": 8051760132,
      "lat": -22.9080639,
      "lon": -43.1097845
    },
    {
      "type": "node",
      "id": 320591750,
      "lat": -22.8951543,
      "lon": -43.1190694
    },
    {
      "type": "node",
      "id": 320591751,
      "lat": -22.8952416,
      "lon": -43.1183789
    },
    {
      "type": "node",
      "id": 320591752,
      "lat": -22.8953944,
      "lon": -43.1181218
    },
    {
      "type": "node",
      "id": 320591754,
      "lat": -22.8950571,
      "lon": -43.1183351
    },
    {
      "type": "node",
      "id": 1361071596,
      "lat": -22.8950382,
      "lon": -43.1178855
    },
    {
      "type": "node",
      "id": 2887016286,
      "lat": -22.8949917,
      "lon": -43.1189669
    },
    {
      "type": "node",
      "id": 2887016287,
      "lat": -22.8949995,
      "lon": -43.1188513
    },
    {
      "type": "node",
      "id": 2887016288,
      "lat": -22.8950056,
      "lon": -43.1189099
    },
    {
      "type": "node",
      "id": 1928470235,
      "lat": -22.9045141,
      "lon": -43.1093583
    },
    {
      "type": "node",
      "id": 1928487725,
      "lat": -22.9080629,
      "lon": -43.1089603
    },
    {
      "type": "node",
      "id": 2460596370,
      "lat": -22.9047432,
      "lon": -43.1037722
    },
    {
      "type": "node",
      "id": 2460596371,
      "lat": -22.9045519,
      "lon": -43.1035658
    },
    {
      "type": "node",
      "id": 2460596372,
      "lat": -22.9044817,
      "lon": -43.1036425
    },
    {
      "type": "node",
      "id": 2460596373,
      "lat": -22.904673,
      "lon": -43.1038489
    },
    {
      "type": "node",
      "id": 2461946883,
      "lat": -22.9075621,
      "lon": -43.1094144
    },
    {
      "type": "node",
      "id": 2461946926,
      "lat": -22.9071292,
      "lon": -43.1094404
    },
    {
      "type": "node",
      "id": 2461946927,
      "lat": -22.9069281,
      "lon": -43.1092259
    },
    {
      "type": "node",
      "id": 2461946928,
      "lat": -22.906667,
      "lon": -43.1093829
    },
    {
      "type": "node",
      "id": 2461946929,
      "lat": -22.9067341,
      "lon": -43.1095055
    },
    {
      "type": "node",
      "id": 2461975847,
      "lat": -22.9031389,
      "lon": -43.1037743
    },
    {
      "type": "node",
      "id": 2461975848,
      "lat": -22.9032007,
      "lon": -43.1037092
    },
    {
      "type": "node",
      "id": 2461975849,
      "lat": -22.9033078,
      "lon": -43.1038291
    },
    {
      "type": "node",
      "id": 2461975850,
      "lat": -22.903246,
      "lon": -43.1038942
    },
    {
      "type": "node",
      "id": 2463099337,
      "lat": -22.9028842,
      "lon": -43.106859
    },
    {
      "type": "node",
      "id": 2463099338,
      "lat": -22.9027674,
      "lon": -43.1067297
    },
    {
      "type": "node",
      "id": 2463099339,
      "lat": -22.902716,
      "lon": -43.1067844
    },
    {
      "type": "node",
      "id": 2463099340,
      "lat": -22.9028328,
      "lon": -43.1069136
    },
    {
      "type": "node",
      "id": 2463099351,
      "lat": -22.9040818,
      "lon": -43.1053896
    },
    {
      "type": "node",
      "id": 2463099352,
      "lat": -22.904209,
      "lon": -43.1052547
    },
    {
      "type": "node",
      "id": 2463099353,
      "lat": -22.9043697,
      "lon": -43.1054332
    },
    {
      "type": "node",
      "id": 2463099354,
      "lat": -22.9042425,
      "lon": -43.1055682
    },
    {
      "type": "node",
      "id": 2463099391,
      "lat": -22.9074433,
      "lon": -43.103738
    },
    {
      "type": "node",
      "id": 2463099392,
      "lat": -22.9073164,
      "lon": -43.1035885
    },
    {
      "type": "node",
      "id": 2463099393,
      "lat": -22.9076105,
      "lon": -43.1032944
    },
    {
      "type": "node",
      "id": 2463099394,
      "lat": -22.9077374,
      "lon": -43.1034439
    },
    {
      "type": "node",
      "id": 2463205010,
      "lat": -22.9069102,
      "lon": -43.1031447
    },
    {
      "type": "node",
      "id": 2463205020,
      "lat": -22.9071939,
      "lon": -43.1031537
    },
    {
      "type": "node",
      "id": 2463205024,
      "lat": -22.9070399,
      "lon": -43.1033027
    },
    {
      "type": "node",
      "id": 2463205048,
      "lat": -22.9069736,
      "lon": -43.1035529
    },
    {
      "type": "node",
      "id": 2463205097,
      "lat": -22.9070915,
      "lon": -43.1032517
    },
    {
      "type": "node",
      "id": 2463205108,
      "lat": -22.9074409,
      "lon": -43.1034614
    },
    {
      "type": "node",
      "id": 2463205117,
      "lat": -22.9070349,
      "lon": -43.1036179
    },
    {
      "type": "node",
      "id": 2463205122,
      "lat": -22.9068927,
      "lon": -43.1037723
    },
    {
      "type": "node",
      "id": 2463205127,
      "lat": -22.9068317,
      "lon": -43.1037017
    },
    {
      "type": "node",
      "id": 2463205156,
      "lat": -22.907015,
      "lon": -43.1040517
    },
    {
      "type": "node",
      "id": 2463205167,
      "lat": -22.9072326,
      "lon": -43.103836
    },
    {
      "type": "node",
      "id": 2463205172,
      "lat": -22.9073153,
      "lon": -43.1039223
    },
    {
      "type": "node",
      "id": 2463205177,
      "lat": -22.9071005,
      "lon": -43.1041514
    },
    {
      "type": "node",
      "id": 2463205182,
      "lat": -22.9073638,
      "lon": -43.1039759
    },
    {
      "type": "node",
      "id": 2463205187,
      "lat": -22.907149,
      "lon": -43.104205
    },
    {
      "type": "node",
      "id": 2463205193,
      "lat": -22.9075592,
      "lon": -43.1038959
    },
    {
      "type": "node",
      "id": 2463205197,
      "lat": -22.907649,
      "lon": -43.1040022
    },
    {
      "type": "node",
      "id": 2463205200,
      "lat": -22.907734,
      "lon": -43.1039176
    },
    {
      "type": "node",
      "id": 2463205204,
      "lat": -22.9076402,
      "lon": -43.1038112
    },
    {
      "type": "node",
      "id": 2463205277,
      "lat": -22.907224,
      "lon": -43.1041249
    },
    {
      "type": "node",
      "id": 2463205310,
      "lat": -22.9077229,
      "lon": -43.1043079
    },
    {
      "type": "node",
      "id": 2463205316,
      "lat": -22.9076369,
      "lon": -43.1042085
    },
    {
      "type": "node",
      "id": 2463205321,
      "lat": -22.9075284,
      "lon": -43.1043222
    },
    {
      "type": "node",
      "id": 2463205326,
      "lat": -22.9076134,
      "lon": -43.1044257
    },
    {
      "type": "node",
      "id": 2463205332,
      "lat": -22.9078025,
      "lon": -43.1043952
    },
    {
      "type": "node",
      "id": 2463205338,
      "lat": -22.907693,
      "lon": -43.1045129
    },
    {
      "type": "node",
      "id": 2463205348,
      "lat": -22.907779,
      "lon": -43.1041585
    },
    {
      "type": "node",
      "id": 2463205353,
      "lat": -22.9078818,
      "lon": -43.1040481
    },
    {
      "type": "node",
      "id": 2463205359,
      "lat": -22.9078276,
      "lon": -43.1039885
    },
    {
      "type": "node",
      "id": 2463205364,
      "lat": -22.9079136,
      "lon": -43.1038959
    },
    {
      "type": "node",
      "id": 2463205369,
      "lat": -22.9080688,
      "lon": -43.1040644
    },
    {
      "type": "node",
      "id": 2463205373,
      "lat": -22.9078762,
      "lon": -43.1042653
    },
    {
      "type": "node",
      "id": 2463205377,
      "lat": -22.9078877,
      "lon": -43.1042533
    },
    {
      "type": "node",
      "id": 2463205390,
      "lat": -22.9080552,
      "lon": -43.1040848
    },
    {
      "type": "node",
      "id": 2463235276,
      "lat": -22.9073629,
      "lon": -43.1060431
    },
    {
      "type": "node",
      "id": 2463235277,
      "lat": -22.9072576,
      "lon": -43.1059326
    },
    {
      "type": "node",
      "id": 2463235278,
      "lat": -22.907144,
      "lon": -43.1060602
    },
    {
      "type": "node",
      "id": 2463235279,
      "lat": -22.9072494,
      "lon": -43.1061707
    },
    {
      "type": "node",
      "id": 2704749300,
      "lat": -22.9044153,
      "lon": -43.1094976
    },
    {
      "type": "node",
      "id": 2704749301,
      "lat": -22.9043808,
      "lon": -43.1095244
    },
    {
      "type": "node",
      "id": 2704749623,
      "lat": -22.9047013,
      "lon": -43.1095512
    },
    {
      "type": "node",
      "id": 2704749624,
      "lat": -22.9050448,
      "lon": -43.1091784
    },
    {
      "type": "node",
      "id": 2704749625,
      "lat": -22.9048628,
      "lon": -43.1089822
    },
    {
      "type": "node",
      "id": 7165281812,
      "lat": -22.9031427,
      "lon": -43.1093832
    },
    {
      "type": "node",
      "id": 7561323755,
      "lat": -22.901761,
      "lon": -43.1031633
    },
    {
      "type": "node",
      "id": 7561323756,
      "lat": -22.9019231,
      "lon": -43.1032664
    },
    {
      "type": "node",
      "id": 7561323757,
      "lat": -22.9018776,
      "lon": -43.103307
    },
    {
      "type": "node",
      "id": 7561323758,
      "lat": -22.9017985,
      "lon": -43.1031182
    },
    {
      "type": "node",
      "id": 7561348760,
      "lat": -22.9021385,
      "lon": -43.1031
    },
    {
      "type": "node",
      "id": 7561348762,
      "lat": -22.9021029,
      "lon": -43.1030452
    },
    {
      "type": "node",
      "id": 7561380369,
      "lat": -22.9020791,
      "lon": -43.1031441
    },
    {
      "type": "node",
      "id": 7561380370,
      "lat": -22.9020456,
      "lon": -43.1030882
    },
    {
      "type": "node",
      "id": 8040910815,
      "lat": -22.902851,
      "lon": -43.1093463
    },
    {
      "type": "node",
      "id": 8040910816,
      "lat": -22.9029015,
      "lon": -43.1092912
    },
    {
      "type": "node",
      "id": 8040910817,
      "lat": -22.9029795,
      "lon": -43.1092061
    },
    {
      "type": "node",
      "id": 8040910818,
      "lat": -22.9030297,
      "lon": -43.1095412
    },
    {
      "type": "node",
      "id": 1369031609,
      "lat": -22.9028883,
      "lon": -43.0972397
    },
    {
      "type": "node",
      "id": 1930059649,
      "lat": -22.9034228,
      "lon": -43.0986533
    },
    {
      "type": "node",
      "id": 1930059663,
      "lat": -22.9036225,
      "lon": -43.0983243
    },
    {
      "type": "node",
      "id": 1930059676,
      "lat": -22.9037937,
      "lon": -43.0979817
    },
    {
      "type": "node",
      "id": 1930059696,
      "lat": -22.9039652,
      "lon": -43.0976706
    },
    {
      "type": "node",
      "id": 1930059749,
      "lat": -22.9043376,
      "lon": -43.1004215
    },
    {
      "type": "node",
      "id": 1930059757,
      "lat": -22.9044441,
      "lon": -43.1003126
    },
    {
      "type": "node",
      "id": 1930059774,
      "lat": -22.9046489,
      "lon": -43.1007512
    },
    {
      "type": "node",
      "id": 1930059783,
      "lat": -22.9047366,
      "lon": -43.1008524
    },
    {
      "type": "node",
      "id": 1930059791,
      "lat": -22.9047923,
      "lon": -43.1006047
    },
    {
      "type": "node",
      "id": 1930059808,
      "lat": -22.90488,
      "lon": -43.1007059
    },
    {
      "type": "node",
      "id": 2460596338,
      "lat": -22.9065712,
      "lon": -43.0989425
    },
    {
      "type": "node",
      "id": 2460596339,
      "lat": -22.9064704,
      "lon": -43.0987535
    },
    {
      "type": "node",
      "id": 2460596340,
      "lat": -22.9063544,
      "lon": -43.0988165
    },
    {
      "type": "node",
      "id": 2460596341,
      "lat": -22.9064827,
      "lon": -43.099042
    },
    {
      "type": "node",
      "id": 2460596342,
      "lat": -22.9065132,
      "lon": -43.0990254
    },
    {
      "type": "node",
      "id": 2460596343,
      "lat": -22.906504,
      "lon": -43.0989989
    },
    {
      "type": "node",
      "id": 2460613878,
      "lat": -22.9063952,
      "lon": -43.0996001
    },
    {
      "type": "node",
      "id": 2460613880,
      "lat": -22.9065157,
      "lon": -43.0995142
    },
    {
      "type": "node",
      "id": 2460613881,
      "lat": -22.9066097,
      "lon": -43.0996696
    },
    {
      "type": "node",
      "id": 2460613882,
      "lat": -22.9065293,
      "lon": -43.0997269
    },
    {
      "type": "node",
      "id": 2460613883,
      "lat": -22.9064778,
      "lon": -43.0996418
    },
    {
      "type": "node",
      "id": 2460613885,
      "lat": -22.9064377,
      "lon": -43.0996703
    },
    {
      "type": "node",
      "id": 2460613896,
      "lat": -22.9065386,
      "lon": -43.0995521
    },
    {
      "type": "node",
      "id": 2460614030,
      "lat": -22.9033871,
      "lon": -43.099682
    },
    {
      "type": "node",
      "id": 2460614031,
      "lat": -22.9031648,
      "lon": -43.0994976
    },
    {
      "type": "node",
      "id": 2460614032,
      "lat": -22.9027262,
      "lon": -43.1002654
    },
    {
      "type": "node",
      "id": 2460614033,
      "lat": -22.9027849,
      "lon": -43.1003157
    },
    {
      "type": "node",
      "id": 2460614034,
      "lat": -22.9025656,
      "lon": -43.1005739
    },
    {
      "type": "node",
      "id": 2460614035,
      "lat": -22.9026335,
      "lon": -43.1006577
    },
    {
      "type": "node",
      "id": 2460614036,
      "lat": -22.9028744,
      "lon": -43.100366
    },
    {
      "type": "node",
      "id": 2460940833,
      "lat": -22.9076961,
      "lon": -43.1000475
    },
    {
      "type": "node",
      "id": 2460940834,
      "lat": -22.9077827,
      "lon": -43.0999378
    },
    {
      "type": "node",
      "id": 2460940835,
      "lat": -22.9078519,
      "lon": -43.1000412
    },
    {
      "type": "node",
      "id": 2460940836,
      "lat": -22.9077653,
      "lon": -43.1001571
    },
    {
      "type": "node",
      "id": 2463204151,
      "lat": -22.9028729,
      "lon": -43.0987546
    },
    {
      "type": "node",
      "id": 2463204160,
      "lat": -22.9031981,
      "lon": -43.0986093
    },
    {
      "type": "node",
      "id": 2463204164,
      "lat": -22.9029479,
      "lon": -43.0983048
    },
    {
      "type": "node",
      "id": 2463204179,
      "lat": -22.9028253,
      "lon": -43.098818
    },
    {
      "type": "node",
      "id": 2463204182,
      "lat": -22.9028854,
      "lon": -43.098888
    },
    {
      "type": "node",
      "id": 2463204184,
      "lat": -22.9029884,
      "lon": -43.0987698
    },
    {
      "type": "node",
      "id": 2463204188,
      "lat": -22.902917,
      "lon": -43.0987119
    },
    {
      "type": "node",
      "id": 2463204192,
      "lat": -22.9029411,
      "lon": -43.0989452
    },
    {
      "type": "node",
      "id": 2463204196,
      "lat": -22.9030441,
      "lon": -43.098827
    },
    {
      "type": "node",
      "id": 2463204295,
      "lat": -22.9035492,
      "lon": -43.0998235
    },
    {
      "type": "node",
      "id": 2463204309,
      "lat": -22.9032252,
      "lon": -43.0999006
    },
    {
      "type": "node",
      "id": 2463204313,
      "lat": -22.9037532,
      "lon": -43.1000025
    },
    {
      "type": "node",
      "id": 2463204317,
      "lat": -22.9036673,
      "lon": -43.1001005
    },
    {
      "type": "node",
      "id": 2463204321,
      "lat": -22.9034654,
      "lon": -43.0999466
    },
    {
      "type": "node",
      "id": 2463204360,
      "lat": -22.9033752,
      "lon": -43.0987387
    },
    {
      "type": "node",
      "id": 2463204375,
      "lat": -22.9040238,
      "lon": -43.1001098
    },
    {
      "type": "node",
      "id": 2463204400,
      "lat": -22.9039594,
      "lon": -43.1002497
    },
    {
      "type": "node",
      "id": 2463204403,
      "lat": -22.9038176,
      "lon": -43.1004269
    },
    {
      "type": "node",
      "id": 2463204407,
      "lat": -22.9040582,
      "lon": -43.1001564
    },
    {
      "type": "node",
      "id": 2463204411,
      "lat": -22.9041914,
      "lon": -43.1000585
    },
    {
      "type": "node",
      "id": 2463204415,
      "lat": -22.904157,
      "lon": -43.1000072
    },
    {
      "type": "node",
      "id": 2463204419,
      "lat": -22.9040496,
      "lon": -43.1003336
    },
    {
      "type": "node",
      "id": 2463204423,
      "lat": -22.9039078,
      "lon": -43.1005202
    },
    {
      "type": "node",
      "id": 2463204435,
      "lat": -22.9040625,
      "lon": -43.1006554
    },
    {
      "type": "node",
      "id": 2463204439,
      "lat": -22.9041742,
      "lon": -43.1004409
    },
    {
      "type": "node",
      "id": 2463204537,
      "lat": -22.9044405,
      "lon": -43.1005342
    },
    {
      "type": "node",
      "id": 2463204540,
      "lat": -22.904535,
      "lon": -43.1004269
    },
    {
      "type": "node",
      "id": 2463204556,
      "lat": -22.9041511,
      "lon": -43.1004853
    },
    {
      "type": "node",
      "id": 2463204561,
      "lat": -22.9050935,
      "lon": -43.1014156
    },
    {
      "type": "node",
      "id": 2463204565,
      "lat": -22.9049348,
      "lon": -43.1012478
    },
    {
      "type": "node",
      "id": 2463204569,
      "lat": -22.904759,
      "lon": -43.1014437
    },
    {
      "type": "node",
      "id": 2463204573,
      "lat": -22.9049177,
      "lon": -43.1016115
    },
    {
      "type": "node",
      "id": 2463204876,
      "lat": -22.9062141,
      "lon": -43.1027009
    },
    {
      "type": "node",
      "id": 2463204881,
      "lat": -22.9062856,
      "lon": -43.1027758
    },
    {
      "type": "node",
      "id": 2463204886,
      "lat": -22.9061358,
      "lon": -43.1029337
    },
    {
      "type": "node",
      "id": 2463204891,
      "lat": -22.9060737,
      "lon": -43.102859
    },
    {
      "type": "node",
      "id": 2463205015,
      "lat": -22.9070642,
      "lon": -43.1029957
    },
    {
      "type": "node",
      "id": 5041845672,
      "lat": -22.9029416,
      "lon": -43.0964934
    },
    {
      "type": "node",
      "id": 5041845673,
      "lat": -22.902828,
      "lon": -43.0968447
    },
    {
      "type": "node",
      "id": 5041845674,
      "lat": -22.9023314,
      "lon": -43.0965088
    },
    {
      "type": "node",
      "id": 6828821178,
      "lat": -22.902909,
      "lon": -43.097698
    },
    {
      "type": "node",
      "id": 6828821179,
      "lat": -22.9028225,
      "lon": -43.0980279
    },
    {
      "type": "node",
      "id": 6828821180,
      "lat": -22.9029411,
      "lon": -43.0981057
    },
    {
      "type": "node",
      "id": 6828821181,
      "lat": -22.9028645,
      "lon": -43.0982183
    },
    {
      "type": "node",
      "id": 7082474956,
      "lat": -22.9039912,
      "lon": -43.097607
    },
    {
      "type": "node",
      "id": 7082474957,
      "lat": -22.9027689,
      "lon": -43.0976348
    },
    {
      "type": "node",
      "id": 7812104465,
      "lat": -22.9039486,
      "lon": -43.1005692
    },
    {
      "type": "node",
      "id": 7812104466,
      "lat": -22.9040823,
      "lon": -43.1003899
    },
    {
      "type": "node",
      "id": 2463099317,
      "lat": -22.901185,
      "lon": -43.1081621
    },
    {
      "type": "node",
      "id": 2463099328,
      "lat": -22.9014484,
      "lon": -43.1080511
    },
    {
      "type": "node",
      "id": 2463099329,
      "lat": -22.9012621,
      "lon": -43.1082481
    },
    {
      "type": "node",
      "id": 2463099331,
      "lat": -22.9013712,
      "lon": -43.1079652
    },
    {
      "type": "node",
      "id": 2668955741,
      "lat": -22.8985793,
      "lon": -43.1032155
    },
    {
      "type": "node",
      "id": 2668955746,
      "lat": -22.8982765,
      "lon": -43.1033447
    },
    {
      "type": "node",
      "id": 2668955747,
      "lat": -22.8983334,
      "lon": -43.1034641
    },
    {
      "type": "node",
      "id": 2668955748,
      "lat": -22.8983619,
      "lon": -43.1034852
    },
    {
      "type": "node",
      "id": 2668955750,
      "lat": -22.8983891,
      "lon": -43.1034866
    },
    {
      "type": "node",
      "id": 2668955751,
      "lat": -22.898415,
      "lon": -43.1034697
    },
    {
      "type": "node",
      "id": 2668955752,
      "lat": -22.8984926,
      "lon": -43.1033728
    },
    {
      "type": "node",
      "id": 2668955753,
      "lat": -22.8984266,
      "lon": -43.1032562
    },
    {
      "type": "node",
      "id": 2668955755,
      "lat": -22.8979828,
      "lon": -43.1039824
    },
    {
      "type": "node",
      "id": 2668955756,
      "lat": -22.8982726,
      "lon": -43.1039346
    },
    {
      "type": "node",
      "id": 2668955757,
      "lat": -22.8982908,
      "lon": -43.1039177
    },
    {
      "type": "node",
      "id": 2668955758,
      "lat": -22.8982946,
      "lon": -43.1038911
    },
    {
      "type": "node",
      "id": 2668955760,
      "lat": -22.8982662,
      "lon": -43.1037197
    },
    {
      "type": "node",
      "id": 2668955761,
      "lat": -22.8979595,
      "lon": -43.1037956
    },
    {
      "type": "node",
      "id": 2871023301,
      "lat": -22.8982317,
      "lon": -43.1049811
    },
    {
      "type": "node",
      "id": 2871023302,
      "lat": -22.8982539,
      "lon": -43.105075
    },
    {
      "type": "node",
      "id": 2871023303,
      "lat": -22.8984516,
      "lon": -43.1049999
    },
    {
      "type": "node",
      "id": 2871023304,
      "lat": -22.8984294,
      "lon": -43.1048899
    },
    {
      "type": "node",
      "id": 2871024214,
      "lat": -22.8982243,
      "lon": -43.1056919
    },
    {
      "type": "node",
      "id": 2871024215,
      "lat": -22.8982762,
      "lon": -43.1059333
    },
    {
      "type": "node",
      "id": 2871024216,
      "lat": -22.8986295,
      "lon": -43.1057911
    },
    {
      "type": "node",
      "id": 2871024217,
      "lat": -22.898585,
      "lon": -43.1056141
    },
    {
      "type": "node",
      "id": 2871027467,
      "lat": -22.8985208,
      "lon": -43.1054264
    },
    {
      "type": "node",
      "id": 2871027468,
      "lat": -22.8981674,
      "lon": -43.10548
    },
    {
      "type": "node",
      "id": 2871027469,
      "lat": -22.8982218,
      "lon": -43.1056758
    },
    {
      "type": "node",
      "id": 2871027470,
      "lat": -22.8985653,
      "lon": -43.1056034
    },
    {
      "type": "node",
      "id": 2871035869,
      "lat": -22.898148,
      "lon": -43.1054046
    },
    {
      "type": "node",
      "id": 2871035870,
      "lat": -22.898518,
      "lon": -43.1053416
    },
    {
      "type": "node",
      "id": 2871035871,
      "lat": -22.8984965,
      "lon": -43.1051664
    },
    {
      "type": "node",
      "id": 2871035872,
      "lat": -22.8981265,
      "lon": -43.1052202
    },
    {
      "type": "node",
      "id": 2871036234,
      "lat": -22.8971383,
      "lon": -43.1048108
    },
    {
      "type": "node",
      "id": 2871036235,
      "lat": -22.8975139,
      "lon": -43.1047491
    },
    {
      "type": "node",
      "id": 2871036236,
      "lat": -22.8974916,
      "lon": -43.104556
    },
    {
      "type": "node",
      "id": 2871036237,
      "lat": -22.8971185,
      "lon": -43.1046123
    },
    {
      "type": "node",
      "id": 6831826925,
      "lat": -22.8988973,
      "lon": -43.1054689
    },
    {
      "type": "node",
      "id": 6831826935,
      "lat": -22.8987454,
      "lon": -43.1054058
    },
    {
      "type": "node",
      "id": 6831826936,
      "lat": -22.8988178,
      "lon": -43.105512
    },
    {
      "type": "node",
      "id": 6831826937,
      "lat": -22.8989804,
      "lon": -43.1053752
    },
    {
      "type": "node",
      "id": 6831826938,
      "lat": -22.8989096,
      "lon": -43.1052743
    },
    {
      "type": "node",
      "id": 6831826939,
      "lat": -22.898825,
      "lon": -43.105342
    },
    {
      "type": "node",
      "id": 7165259333,
      "lat": -22.898645,
      "lon": -43.1035098
    },
    {
      "type": "node",
      "id": 7165259334,
      "lat": -22.8987722,
      "lon": -43.1033486
    },
    {
      "type": "node",
      "id": 7165259335,
      "lat": -22.8990234,
      "lon": -43.1036329
    },
    {
      "type": "node",
      "id": 7165259336,
      "lat": -22.8988632,
      "lon": -43.1038125
    },
    {
      "type": "node",
      "id": 7165280828,
      "lat": -22.9008686,
      "lon": -43.1093841
    },
    {
      "type": "node",
      "id": 7165280829,
      "lat": -22.9009651,
      "lon": -43.1092866
    },
    {
      "type": "node",
      "id": 7165280830,
      "lat": -22.9011149,
      "lon": -43.1094736
    },
    {
      "type": "node",
      "id": 7165280831,
      "lat": -22.9010306,
      "lon": -43.1095569
    },
    {
      "type": "node",
      "id": 8079253470,
      "lat": -22.9009411,
      "lon": -43.1093109
    },
    {
      "type": "node",
      "id": 2668955742,
      "lat": -22.8988989,
      "lon": -43.1028391
    },
    {
      "type": "node",
      "id": 2668955744,
      "lat": -22.8987294,
      "lon": -43.1025596
    },
    {
      "type": "node",
      "id": 2668955745,
      "lat": -22.8983878,
      "lon": -43.1028531
    },
    {
      "type": "node",
      "id": 5041858420,
      "lat": -22.8985833,
      "lon": -43.1026851
    },
    {
      "type": "node",
      "id": 6264703248,
      "lat": -22.8977536,
      "lon": -43.1026501
    },
    {
      "type": "node",
      "id": 6264703249,
      "lat": -22.8976526,
      "lon": -43.102447
    },
    {
      "type": "node",
      "id": 6264703250,
      "lat": -22.8969488,
      "lon": -43.1028591
    },
    {
      "type": "node",
      "id": 6264703251,
      "lat": -22.8969989,
      "lon": -43.1029599
    },
    {
      "type": "node",
      "id": 6264703252,
      "lat": -22.8974607,
      "lon": -43.1026895
    },
    {
      "type": "node",
      "id": 6264703253,
      "lat": -22.8975115,
      "lon": -43.1027918
    },
    {
      "type": "node",
      "id": 6831830053,
      "lat": -22.8991256,
      "lon": -43.1026134
    },
    {
      "type": "node",
      "id": 6831830054,
      "lat": -22.8992473,
      "lon": -43.1024686
    },
    {
      "type": "node",
      "id": 6831830055,
      "lat": -22.8991892,
      "lon": -43.1023505
    },
    {
      "type": "node",
      "id": 6831830056,
      "lat": -22.8990255,
      "lon": -43.1024545
    },
    {
      "type": "node",
      "id": 303337497,
      "lat": -22.8923911,
      "lon": -43.1251509
    },
    {
      "type": "node",
      "id": 303337500,
      "lat": -22.8917249,
      "lon": -43.1242398
    },
    {
      "type": "node",
      "id": 321742860,
      "lat": -22.8886334,
      "lon": -43.1259917
    },
    {
      "type": "node",
      "id": 321742861,
      "lat": -22.8888321,
      "lon": -43.1269079
    },
    {
      "type": "node",
      "id": 1674657683,
      "lat": -22.8924277,
      "lon": -43.1242627
    },
    {
      "type": "node",
      "id": 1885167316,
      "lat": -22.8892251,
      "lon": -43.1240746
    },
    {
      "type": "node",
      "id": 1924398513,
      "lat": -22.8917018,
      "lon": -43.1250308
    },
    {
      "type": "node",
      "id": 1924398514,
      "lat": -22.8917204,
      "lon": -43.1243928
    },
    {
      "type": "node",
      "id": 1924493457,
      "lat": -22.8916972,
      "lon": -43.1251179
    },
    {
      "type": "node",
      "id": 1932433572,
      "lat": -22.8886877,
      "lon": -43.1270651
    },
    {
      "type": "node",
      "id": 1932433574,
      "lat": -22.888797,
      "lon": -43.1270275
    },
    {
      "type": "node",
      "id": 1932433597,
      "lat": -22.8887846,
      "lon": -43.1267068
    },
    {
      "type": "node",
      "id": 1932445937,
      "lat": -22.8884973,
      "lon": -43.1254714
    },
    {
      "type": "node",
      "id": 1958637226,
      "lat": -22.8888758,
      "lon": -43.122811
    },
    {
      "type": "node",
      "id": 1958637242,
      "lat": -22.8890141,
      "lon": -43.1241311
    },
    {
      "type": "node",
      "id": 4149508696,
      "lat": -22.8884376,
      "lon": -43.1254672
    },
    {
      "type": "node",
      "id": 4149508697,
      "lat": -22.8885408,
      "lon": -43.1255161
    },
    {
      "type": "node",
      "id": 5363827082,
      "lat": -22.8917013,
      "lon": -43.1250749
    },
    {
      "type": "node",
      "id": 6907535735,
      "lat": -22.8890741,
      "lon": -43.1227858
    },
    {
      "type": "node",
      "id": 6907535740,
      "lat": -22.89239,
      "lon": -43.1242615
    },
    {
      "type": "node",
      "id": 7888493537,
      "lat": -22.8917016,
      "lon": -43.1250449
    },
    {
      "type": "node",
      "id": 335839503,
      "lat": -22.8854454,
      "lon": -43.1252165
    },
    {
      "type": "node",
      "id": 335839504,
      "lat": -22.8850731,
      "lon": -43.1246271
    },
    {
      "type": "node",
      "id": 335839505,
      "lat": -22.8851873,
      "lon": -43.1245382
    },
    {
      "type": "node",
      "id": 335839506,
      "lat": -22.8855561,
      "lon": -43.1251388
    },
    {
      "type": "node",
      "id": 1930089859,
      "lat": -22.8852902,
      "lon": -43.1247066
    },
    {
      "type": "node",
      "id": 1932433476,
      "lat": -22.8860786,
      "lon": -43.1264662
    },
    {
      "type": "node",
      "id": 1932433480,
      "lat": -22.8860877,
      "lon": -43.1265927
    },
    {
      "type": "node",
      "id": 1932433484,
      "lat": -22.8860914,
      "lon": -43.1260295
    },
    {
      "type": "node",
      "id": 1932433488,
      "lat": -22.8861405,
      "lon": -43.125984
    },
    {
      "type": "node",
      "id": 1932433493,
      "lat": -22.8861806,
      "lon": -43.1271619
    },
    {
      "type": "node",
      "id": 1932433497,
      "lat": -22.8862109,
      "lon": -43.1272235
    },
    {
      "type": "node",
      "id": 1932433500,
      "lat": -22.8862443,
      "lon": -43.1273279
    },
    {
      "type": "node",
      "id": 1932433504,
      "lat": -22.8863408,
      "lon": -43.1274386
    },
    {
      "type": "node",
      "id": 1932433507,
      "lat": -22.8864701,
      "lon": -43.1275117
    },
    {
      "type": "node",
      "id": 1932433525,
      "lat": -22.8865575,
      "lon": -43.1275224
    },
    {
      "type": "node",
      "id": 1932433528,
      "lat": -22.8866267,
      "lon": -43.1275275
    },
    {
      "type": "node",
      "id": 1932433535,
      "lat": -22.8872821,
      "lon": -43.1257101
    },
    {
      "type": "node",
      "id": 1932433547,
      "lat": -22.8873368,
      "lon": -43.1256924
    },
    {
      "type": "node",
      "id": 1932433553,
      "lat": -22.8873568,
      "lon": -43.1257259
    },
    {
      "type": "node",
      "id": 1932433559,
      "lat": -22.8873987,
      "lon": -43.1257279
    },
    {
      "type": "node",
      "id": 1932433563,
      "lat": -22.8877464,
      "lon": -43.1272745
    },
    {
      "type": "node",
      "id": 1932433566,
      "lat": -22.8877883,
      "lon": -43.1256311
    },
    {
      "type": "node",
      "id": 1932433568,
      "lat": -22.887956,
      "lon": -43.1255548
    },
    {
      "type": "node",
      "id": 1932445854,
      "lat": -22.8875928,
      "lon": -43.1270434
    },
    {
      "type": "node",
      "id": 1932445855,
      "lat": -22.8875994,
      "lon": -43.1270236
    },
    {
      "type": "node",
      "id": 1932445856,
      "lat": -22.8876054,
      "lon": -43.1271012
    },
    {
      "type": "node",
      "id": 1932445858,
      "lat": -22.8876147,
      "lon": -43.1270127
    },
    {
      "type": "node",
      "id": 1932445859,
      "lat": -22.8876165,
      "lon": -43.1271127
    },
    {
      "type": "node",
      "id": 1932445861,
      "lat": -22.8876311,
      "lon": -43.1271186
    },
    {
      "type": "node",
      "id": 1932445868,
      "lat": -22.8878309,
      "lon": -43.126957
    },
    {
      "type": "node",
      "id": 1932445870,
      "lat": -22.8878523,
      "lon": -43.1270569
    },
    {
      "type": "node",
      "id": 1932445871,
      "lat": -22.887858,
      "lon": -43.1269584
    },
    {
      "type": "node",
      "id": 1932445874,
      "lat": -22.8878777,
      "lon": -43.1269745
    },
    {
      "type": "node",
      "id": 1932445875,
      "lat": -22.8878787,
      "lon": -43.1270435
    },
    {
      "type": "node",
      "id": 1932445876,
      "lat": -22.8878852,
      "lon": -43.1270087
    },
    {
      "type": "node",
      "id": 4149508698,
      "lat": -22.8861615,
      "lon": -43.1270449
    },
    {
      "type": "node",
      "id": 320591749,
      "lat": -22.8944439,
      "lon": -43.1190746
    },
    {
      "type": "node",
      "id": 320591753,
      "lat": -22.8949428,
      "lon": -43.1178221
    },
    {
      "type": "node",
      "id": 320591757,
      "lat": -22.8944097,
      "lon": -43.1187486
    },
    {
      "type": "node",
      "id": 1342747834,
      "lat": -22.8946974,
      "lon": -43.1184353
    },
    {
      "type": "node",
      "id": 2887016267,
      "lat": -22.8946338,
      "lon": -43.1187027
    },
    {
      "type": "node",
      "id": 2887016268,
      "lat": -22.8946373,
      "lon": -43.1185931
    },
    {
      "type": "node",
      "id": 2887016269,
      "lat": -22.8946466,
      "lon": -43.1185239
    },
    {
      "type": "node",
      "id": 2887016270,
      "lat": -22.894686,
      "lon": -43.1184924
    },
    {
      "type": "node",
      "id": 2887016271,
      "lat": -22.8947113,
      "lon": -43.1189162
    },
    {
      "type": "node",
      "id": 2887016272,
      "lat": -22.8947153,
      "lon": -43.1188574
    },
    {
      "type": "node",
      "id": 2887016273,
      "lat": -22.8947272,
      "lon": -43.1189726
    },
    {
      "type": "node",
      "id": 2887016274,
      "lat": -22.8947385,
      "lon": -43.1188041
    },
    {
      "type": "node",
      "id": 2887016275,
      "lat": -22.8947608,
      "lon": -43.1190189
    },
    {
      "type": "node",
      "id": 2887016276,
      "lat": -22.8947779,
      "lon": -43.1187636
    },
    {
      "type": "node",
      "id": 2887016277,
      "lat": -22.8948075,
      "lon": -43.119049
    },
    {
      "type": "node",
      "id": 2887016278,
      "lat": -22.8948282,
      "lon": -43.1187412
    },
    {
      "type": "node",
      "id": 2887016279,
      "lat": -22.8948611,
      "lon": -43.1190586
    },
    {
      "type": "node",
      "id": 2887016280,
      "lat": -22.8948825,
      "lon": -43.11874
    },
    {
      "type": "node",
      "id": 2887016281,
      "lat": -22.8949143,
      "lon": -43.1190467
    },
    {
      "type": "node",
      "id": 2887016282,
      "lat": -22.8949335,
      "lon": -43.1187602
    },
    {
      "type": "node",
      "id": 2887016283,
      "lat": -22.8949423,
      "lon": -43.1184005
    },
    {
      "type": "node",
      "id": 2887016284,
      "lat": -22.8949599,
      "lon": -43.1190147
    },
    {
      "type": "node",
      "id": 2887016285,
      "lat": -22.8949743,
      "lon": -43.1187991
    },
    {
      "type": "node",
      "id": 1792084801,
      "lat": -22.8893485,
      "lon": -43.1150864
    },
    {
      "type": "node",
      "id": 1792084811,
      "lat": -22.8894573,
      "lon": -43.1157259
    },
    {
      "type": "node",
      "id": 1792084819,
      "lat": -22.8905278,
      "lon": -43.114724
    },
    {
      "type": "node",
      "id": 1792084821,
      "lat": -22.8906845,
      "lon": -43.1153932
    },
    {
      "type": "node",
      "id": 1958630262,
      "lat": -22.8893341,
      "lon": -43.115163
    },
    {
      "type": "node",
      "id": 1958630265,
      "lat": -22.8893846,
      "lon": -43.1150394
    },
    {
      "type": "node",
      "id": 1958721987,
      "lat": -22.889925,
      "lon": -43.1155991
    },
    {
      "type": "node",
      "id": 2645710837,
      "lat": -22.8893771,
      "lon": -43.1153597
    },
    {
      "type": "node",
      "id": 2645710838,
      "lat": -22.8893701,
      "lon": -43.1153274
    },
    {
      "type": "node",
      "id": 2645710850,
      "lat": -22.8905681,
      "lon": -43.114896
    },
    {
      "type": "node",
      "id": 2645710854,
      "lat": -22.8906166,
      "lon": -43.1151034
    },
    {
      "type": "node",
      "id": 384830058,
      "lat": -22.8839803,
      "lon": -43.1186702
    },
    {
      "type": "node",
      "id": 384830059,
      "lat": -22.884858,
      "lon": -43.1180523
    },
    {
      "type": "node",
      "id": 384830060,
      "lat": -22.8840198,
      "lon": -43.1171081
    },
    {
      "type": "node",
      "id": 384830061,
      "lat": -22.8835174,
      "lon": -43.1174972
    },
    {
      "type": "node",
      "id": 1955027875,
      "lat": -22.8871847,
      "lon": -43.1201572
    },
    {
      "type": "node",
      "id": 1955027882,
      "lat": -22.8872555,
      "lon": -43.1201439
    },
    {
      "type": "node",
      "id": 1955027883,
      "lat": -22.8872567,
      "lon": -43.1206075
    },
    {
      "type": "node",
      "id": 1955027885,
      "lat": -22.8873276,
      "lon": -43.1205941
    },
    {
      "type": "node",
      "id": 321743341,
      "lat": -22.8836443,
      "lon": -43.1138263
    },
    {
      "type": "node",
      "id": 321743342,
      "lat": -22.8842957,
      "lon": -43.1141612
    },
    {
      "type": "node",
      "id": 321743343,
      "lat": -22.8845575,
      "lon": -43.1135424
    },
    {
      "type": "node",
      "id": 321743344,
      "lat": -22.8840247,
      "lon": -43.1131856
    },
    {
      "type": "node",
      "id": 1463270319,
      "lat": -22.8876318,
      "lon": -43.1132837
    },
    {
      "type": "node",
      "id": 1463270323,
      "lat": -22.886758,
      "lon": -43.1140491
    },
    {
      "type": "node",
      "id": 1924752962,
      "lat": -22.8868194,
      "lon": -43.1125749
    },
    {
      "type": "node",
      "id": 1968883772,
      "lat": -22.8861549,
      "lon": -43.1125415
    },
    {
      "type": "node",
      "id": 1968883775,
      "lat": -22.886267,
      "lon": -43.1126419
    },
    {
      "type": "node",
      "id": 1968883777,
      "lat": -22.8863218,
      "lon": -43.1133702
    },
    {
      "type": "node",
      "id": 1968883779,
      "lat": -22.8863796,
      "lon": -43.1127333
    },
    {
      "type": "node",
      "id": 1968883782,
      "lat": -22.8864587,
      "lon": -43.1128023
    },
    {
      "type": "node",
      "id": 1968883805,
      "lat": -22.8875262,
      "lon": -43.1134099
    },
    {
      "type": "node",
      "id": 2886969603,
      "lat": -22.8836096,
      "lon": -43.1136798
    },
    {
      "type": "node",
      "id": 2886969604,
      "lat": -22.8836096,
      "lon": -43.1137688
    },
    {
      "type": "node",
      "id": 2886969605,
      "lat": -22.883895,
      "lon": -43.1132098
    },
    {
      "type": "node",
      "id": 2886969606,
      "lat": -22.8839524,
      "lon": -43.1131653
    },
    {
      "type": "node",
      "id": 2886969618,
      "lat": -22.8841709,
      "lon": -43.114194
    },
    {
      "type": "node",
      "id": 2886969626,
      "lat": -22.8842345,
      "lon": -43.1142139
    },
    {
      "type": "node",
      "id": 2886969661,
      "lat": -22.8845882,
      "lon": -43.1136681
    },
    {
      "type": "node",
      "id": 2886969663,
      "lat": -22.8845931,
      "lon": -43.1135973
    },
    {
      "type": "node",
      "id": 4357526045,
      "lat": -22.8869233,
      "lon": -43.1146849
    },
    {
      "type": "node",
      "id": 4357526046,
      "lat": -22.8869616,
      "lon": -43.11487
    },
    {
      "type": "node",
      "id": 4357526047,
      "lat": -22.8872495,
      "lon": -43.1142785
    },
    {
      "type": "node",
      "id": 4357526048,
      "lat": -22.8873372,
      "lon": -43.1142611
    },
    {
      "type": "node",
      "id": 4357526049,
      "lat": -22.8874422,
      "lon": -43.1147546
    },
    {
      "type": "node",
      "id": 5070369659,
      "lat": -22.8868571,
      "lon": -43.1126132
    },
    {
      "type": "node",
      "id": 5070369660,
      "lat": -22.8859066,
      "lon": -43.1128098
    },
    {
      "type": "node",
      "id": 5070369661,
      "lat": -22.8865756,
      "lon": -43.1129131
    },
    {
      "type": "node",
      "id": 5070369666,
      "lat": -22.8866284,
      "lon": -43.1144344
    },
    {
      "type": "node",
      "id": 5070369667,
      "lat": -22.8865288,
      "lon": -43.1143128
    },
    {
      "type": "node",
      "id": 8017430959,
      "lat": -22.8875688,
      "lon": -43.1132296
    },
    {
      "type": "node",
      "id": 1958629974,
      "lat": -22.8828937,
      "lon": -43.1092848
    },
    {
      "type": "node",
      "id": 1958629975,
      "lat": -22.8828946,
      "lon": -43.1091029
    },
    {
      "type": "node",
      "id": 1958629976,
      "lat": -22.882953,
      "lon": -43.1092869
    },
    {
      "type": "node",
      "id": 1958629977,
      "lat": -22.882959,
      "lon": -43.1090854
    },
    {
      "type": "node",
      "id": 1194231334,
      "lat": -22.8753442,
      "lon": -43.1096583
    },
    {
      "type": "node",
      "id": 1194231276,
      "lat": -22.875183,
      "lon": -43.1097705
    },
    {
      "type": "node",
      "id": 1194231285,
      "lat": -22.8746534,
      "lon": -43.10989
    },
    {
      "type": "node",
      "id": 1194231288,
      "lat": -22.8751691,
      "lon": -43.1096978
    },
    {
      "type": "node",
      "id": 1194231320,
      "lat": -22.8746409,
      "lon": -43.1098246
    },
    {
      "type": "node",
      "id": 1194231325,
      "lat": -22.874472,
      "lon": -43.1098627
    },
    {
      "type": "node",
      "id": 1194231403,
      "lat": -22.8745625,
      "lon": -43.1098458
    },
    {
      "type": "node",
      "id": 5286846085,
      "lat": -22.8794992,
      "lon": -43.0965618
    },
    {
      "type": "node",
      "id": 5286846088,
      "lat": -22.8793022,
      "lon": -43.0966133
    },
    {
      "type": "node",
      "id": 5286846089,
      "lat": -22.8794025,
      "lon": -43.0966271
    },
    {
      "type": "node",
      "id": 1194231190,
      "lat": -22.8751571,
      "lon": -43.1086811
    },
    {
      "type": "node",
      "id": 1194231224,
      "lat": -22.8743086,
      "lon": -43.1090092
    },
    {
      "type": "node",
      "id": 1194231272,
      "lat": -22.8743879,
      "lon": -43.1089951
    },
    {
      "type": "node",
      "id": 1194231339,
      "lat": -22.8748355,
      "lon": -43.1087537
    },
    {
      "type": "node",
      "id": 1194231364,
      "lat": -22.8748606,
      "lon": -43.1088847
    },
    {
      "type": "node",
      "id": 5033560916,
      "lat": -22.8691979,
      "lon": -43.1040029
    },
    {
      "type": "node",
      "id": 5033560917,
      "lat": -22.8691326,
      "lon": -43.1042432
    },
    {
      "type": "node",
      "id": 5033560918,
      "lat": -22.8689878,
      "lon": -43.1042201
    },
    {
      "type": "node",
      "id": 5033560919,
      "lat": -22.8690574,
      "lon": -43.1039674
    },
    {
      "type": "node",
      "id": 6917334524,
      "lat": -22.8641812,
      "lon": -43.1059424
    },
    {
      "type": "node",
      "id": 6917334525,
      "lat": -22.8644352,
      "lon": -43.104517
    },
    {
      "type": "node",
      "id": 6917334526,
      "lat": -22.8655075,
      "lon": -43.1045263
    },
    {
      "type": "node",
      "id": 6917334527,
      "lat": -22.8654558,
      "lon": -43.105891
    },
    {
      "type": "node",
      "id": 6917334528,
      "lat": -22.8654644,
      "lon": -43.1059798
    },
    {
      "type": "node",
      "id": 5087656292,
      "lat": -22.8664387,
      "lon": -43.1008273
    },
    {
      "type": "node",
      "id": 5087656293,
      "lat": -22.8665872,
      "lon": -43.1006148
    },
    {
      "type": "node",
      "id": 5087656294,
      "lat": -22.866733,
      "lon": -43.1007341
    },
    {
      "type": "node",
      "id": 5087656295,
      "lat": -22.8665834,
      "lon": -43.100946
    },
    {
      "type": "node",
      "id": 345229098,
      "lat": -22.8578464,
      "lon": -43.1034039
    },
    {
      "type": "node",
      "id": 6926059534,
      "lat": -22.8578155,
      "lon": -43.1033829
    },
    {
      "type": "node",
      "id": 345229095,
      "lat": -22.857493,
      "lon": -43.1019126
    },
    {
      "type": "node",
      "id": 345229097,
      "lat": -22.8583679,
      "lon": -43.1024839
    },
    {
      "type": "node",
      "id": 345229099,
      "lat": -22.857137,
      "lon": -43.1029211
    },
    {
      "type": "node",
      "id": 345229102,
      "lat": -22.8573199,
      "lon": -43.1025269
    },
    {
      "type": "node",
      "id": 345229104,
      "lat": -22.8572705,
      "lon": -43.1021969
    },
    {
      "type": "node",
      "id": 2427542838,
      "lat": -22.8574485,
      "lon": -43.1023042
    },
    {
      "type": "node",
      "id": 2427542839,
      "lat": -22.8573545,
      "lon": -43.1025403
    },
    {
      "type": "node",
      "id": 2656903184,
      "lat": -22.8601377,
      "lon": -43.1022391
    },
    {
      "type": "node",
      "id": 2656903186,
      "lat": -22.8600858,
      "lon": -43.1021908
    },
    {
      "type": "node",
      "id": 2656903187,
      "lat": -22.8601155,
      "lon": -43.1021399
    },
    {
      "type": "node",
      "id": 2656903189,
      "lat": -22.8601921,
      "lon": -43.1021747
    },
    {
      "type": "node",
      "id": 5033560885,
      "lat": -22.8607952,
      "lon": -43.0964819
    },
    {
      "type": "node",
      "id": 324282003,
      "lat": -22.9416026,
      "lon": -43.0561282
    },
    {
      "type": "node",
      "id": 324282004,
      "lat": -22.9413339,
      "lon": -43.0564114
    },
    {
      "type": "node",
      "id": 324282005,
      "lat": -22.9411679,
      "lon": -43.0562483
    },
    {
      "type": "node",
      "id": 324282017,
      "lat": -22.9410888,
      "lon": -43.0559565
    },
    {
      "type": "node",
      "id": 324282019,
      "lat": -22.9412785,
      "lon": -43.0557677
    },
    {
      "type": "node",
      "id": 324282020,
      "lat": -22.9413734,
      "lon": -43.0557763
    },
    {
      "type": "node",
      "id": 324282006,
      "lat": -22.9406699,
      "lon": -43.0562226
    },
    {
      "type": "node",
      "id": 324282007,
      "lat": -22.940172,
      "lon": -43.056729
    },
    {
      "type": "node",
      "id": 324282008,
      "lat": -22.939508,
      "lon": -43.055905
    },
    {
      "type": "node",
      "id": 324282009,
      "lat": -22.9397846,
      "lon": -43.0556475
    },
    {
      "type": "node",
      "id": 324282010,
      "lat": -22.9399902,
      "lon": -43.0558449
    },
    {
      "type": "node",
      "id": 324282011,
      "lat": -22.9401245,
      "lon": -43.0557076
    },
    {
      "type": "node",
      "id": 324282012,
      "lat": -22.9401957,
      "lon": -43.0557076
    },
    {
      "type": "node",
      "id": 324282013,
      "lat": -22.9403854,
      "lon": -43.0558707
    },
    {
      "type": "node",
      "id": 324282014,
      "lat": -22.9404328,
      "lon": -43.0558192
    },
    {
      "type": "node",
      "id": 324282015,
      "lat": -22.940828,
      "lon": -43.0558278
    },
    {
      "type": "node",
      "id": 324282016,
      "lat": -22.9408596,
      "lon": -43.0559479,
      "tags": {
        "shop": "supermarket"
      }
    },
    {
      "type": "node",
      "id": 2587787256,
      "lat": -22.914658,
      "lon": -43.0871917
    },
    {
      "type": "node",
      "id": 2587787257,
      "lat": -22.9146775,
      "lon": -43.0874481
    },
    {
      "type": "node",
      "id": 2587787254,
      "lat": -22.9143456,
      "lon": -43.0874779
    },
    {
      "type": "node",
      "id": 2587787255,
      "lat": -22.9143261,
      "lon": -43.0872215
    },
    {
      "type": "node",
      "id": 2460664089,
      "lat": -22.9036008,
      "lon": -43.0951094
    },
    {
      "type": "node",
      "id": 2460664090,
      "lat": -22.9035584,
      "lon": -43.0950959
    },
    {
      "type": "node",
      "id": 2460664091,
      "lat": -22.9035801,
      "lon": -43.0950156
    },
    {
      "type": "node",
      "id": 2460664092,
      "lat": -22.9036225,
      "lon": -43.0950291
    },
    {
      "type": "node",
      "id": 2460664098,
      "lat": -22.9036051,
      "lon": -43.0950936
    },
    {
      "type": "node",
      "id": 2460677436,
      "lat": -22.9036069,
      "lon": -43.0948614
    },
    {
      "type": "node",
      "id": 2460677439,
      "lat": -22.9036178,
      "lon": -43.0948067
    },
    {
      "type": "node",
      "id": 2460677440,
      "lat": -22.9038309,
      "lon": -43.0948568
    },
    {
      "type": "node",
      "id": 2460677441,
      "lat": -22.9038156,
      "lon": -43.0949143
    },
    {
      "type": "node",
      "id": 2460677442,
      "lat": -22.903659,
      "lon": -43.0948164
    },
    {
      "type": "node",
      "id": 2460677443,
      "lat": -22.903675,
      "lon": -43.0947103
    },
    {
      "type": "node",
      "id": 2460677444,
      "lat": -22.9038189,
      "lon": -43.0947466
    },
    {
      "type": "node",
      "id": 2460677445,
      "lat": -22.9038004,
      "lon": -43.0948496
    },
    {
      "type": "node",
      "id": 2460677450,
      "lat": -22.9038093,
      "lon": -43.094591
    },
    {
      "type": "node",
      "id": 2460677451,
      "lat": -22.9038374,
      "lon": -43.0945957
    },
    {
      "type": "node",
      "id": 2460677452,
      "lat": -22.9038403,
      "lon": -43.0945751
    },
    {
      "type": "node",
      "id": 2460677453,
      "lat": -22.9038122,
      "lon": -43.0945704
    },
    {
      "type": "node",
      "id": 2460677454,
      "lat": -22.9036134,
      "lon": -43.0943423
    },
    {
      "type": "node",
      "id": 2460677455,
      "lat": -22.9036416,
      "lon": -43.0943311
    },
    {
      "type": "node",
      "id": 2460677456,
      "lat": -22.9036648,
      "lon": -43.0942502
    },
    {
      "type": "node",
      "id": 2460677457,
      "lat": -22.9035646,
      "lon": -43.0942168
    },
    {
      "type": "node",
      "id": 2460677458,
      "lat": -22.9035338,
      "lon": -43.0943172
    },
    {
      "type": "node",
      "id": 4284626347,
      "lat": -22.9031531,
      "lon": -43.0950971
    },
    {
      "type": "node",
      "id": 4284626348,
      "lat": -22.903368,
      "lon": -43.0951829
    },
    {
      "type": "node",
      "id": 4284626349,
      "lat": -22.9033928,
      "lon": -43.0951185
    },
    {
      "type": "node",
      "id": 4284626350,
      "lat": -22.9031753,
      "lon": -43.0950273
    },
    {
      "type": "node",
      "id": 4286644497,
      "lat": -22.9037497,
      "lon": -43.0948976
    },
    {
      "type": "node",
      "id": 4286644498,
      "lat": -22.9036462,
      "lon": -43.0948714
    },
    {
      "type": "node",
      "id": 5041845671,
      "lat": -22.9023399,
      "lon": -43.0961915
    },
    {
      "type": "node",
      "id": 5041845675,
      "lat": -22.9023541,
      "lon": -43.096438
    },
    {
      "type": "node",
      "id": 5041845676,
      "lat": -22.9022689,
      "lon": -43.0963733
    },
    {
      "type": "node",
      "id": 1955158771,
      "lat": -22.9082332,
      "lon": -43.0643444
    },
    {
      "type": "node",
      "id": 1955158775,
      "lat": -22.9082201,
      "lon": -43.0637635
    },
    {
      "type": "node",
      "id": 1955158783,
      "lat": -22.9083673,
      "lon": -43.0641553
    },
    {
      "type": "node",
      "id": 1955158802,
      "lat": -22.9085164,
      "lon": -43.0645809
    },
    {
      "type": "node",
      "id": 1955158805,
      "lat": -22.9086102,
      "lon": -43.0643408
    },
    {
      "type": "node",
      "id": 1955158758,
      "lat": -22.908196,
      "lon": -43.0635623
    },
    {
      "type": "node",
      "id": 3009575752,
      "lat": -22.9081232,
      "lon": -43.0635726
    },
    {
      "type": "node",
      "id": 3623216594,
      "lat": -22.9117069,
      "lon": -43.0599093
    },
    {
      "type": "node",
      "id": 3623216595,
      "lat": -22.9124506,
      "lon": -43.0596492
    },
    {
      "type": "node",
      "id": 3623216596,
      "lat": -22.9118552,
      "lon": -43.0580318
    },
    {
      "type": "node",
      "id": 3623216597,
      "lat": -22.9118033,
      "lon": -43.0591127
    },
    {
      "type": "node",
      "id": 3623216598,
      "lat": -22.911702,
      "lon": -43.0581042
    },
    {
      "type": "node",
      "id": 1955158808,
      "lat": -22.9107025,
      "lon": -43.0565395
    },
    {
      "type": "node",
      "id": 1955158812,
      "lat": -22.9108052,
      "lon": -43.0570368
    },
    {
      "type": "node",
      "id": 1955158824,
      "lat": -22.9111195,
      "lon": -43.0564658
    },
    {
      "type": "node",
      "id": 1955158828,
      "lat": -22.9111448,
      "lon": -43.0564332
    },
    {
      "type": "node",
      "id": 1955158831,
      "lat": -22.9111448,
      "lon": -43.0564606
    },
    {
      "type": "node",
      "id": 1955158834,
      "lat": -22.9111732,
      "lon": -43.0567282
    },
    {
      "type": "node",
      "id": 1955158836,
      "lat": -22.911189,
      "lon": -43.0568002
    },
    {
      "type": "node",
      "id": 1955158839,
      "lat": -22.9111922,
      "lon": -43.056711
    },
    {
      "type": "node",
      "id": 1955158842,
      "lat": -22.9112064,
      "lon": -43.0569048
    },
    {
      "type": "node",
      "id": 1955158866,
      "lat": -22.9112175,
      "lon": -43.0567882
    },
    {
      "type": "node",
      "id": 1955158867,
      "lat": -22.911238,
      "lon": -43.0568962
    },
    {
      "type": "node",
      "id": 1955158869,
      "lat": -22.9112506,
      "lon": -43.0569734
    },
    {
      "type": "node",
      "id": 1955158599,
      "lat": -22.906033,
      "lon": -43.0666753
    },
    {
      "type": "node",
      "id": 1955158601,
      "lat": -22.9060352,
      "lon": -43.0671361
    },
    {
      "type": "node",
      "id": 1955158634,
      "lat": -22.9063033,
      "lon": -43.0666737
    },
    {
      "type": "node",
      "id": 1955158636,
      "lat": -22.9063055,
      "lon": -43.0671345
    },
    {
      "type": "node",
      "id": 1955158652,
      "lat": -22.9064507,
      "lon": -43.0673762
    },
    {
      "type": "node",
      "id": 1955158690,
      "lat": -22.9067523,
      "lon": -43.0675917
    },
    {
      "type": "node",
      "id": 1955158703,
      "lat": -22.9069385,
      "lon": -43.0672855
    },
    {
      "type": "node",
      "id": 1955158707,
      "lat": -22.9072848,
      "lon": -43.0673789
    },
    {
      "type": "node",
      "id": 1955158748,
      "lat": -22.9079453,
      "lon": -43.0638023
    },
    {
      "type": "node",
      "id": 2434614402,
      "lat": -22.907216,
      "lon": -43.0675961
    },
    {
      "type": "node",
      "id": 2434614403,
      "lat": -22.9070934,
      "lon": -43.0677525
    },
    {
      "type": "node",
      "id": 2434614404,
      "lat": -22.9069191,
      "lon": -43.0678436
    },
    {
      "type": "node",
      "id": 2434614405,
      "lat": -22.9068267,
      "lon": -43.0677922
    },
    {
      "type": "node",
      "id": 2434614406,
      "lat": -22.9068761,
      "lon": -43.0676988
    },
    {
      "type": "node",
      "id": 2434614407,
      "lat": -22.9068396,
      "lon": -43.0677058
    },
    {
      "type": "node",
      "id": 2434614408,
      "lat": -22.9066227,
      "lon": -43.0670924
    },
    {
      "type": "node",
      "id": 1955158746,
      "lat": -22.9079212,
      "lon": -43.0636011
    },
    {
      "type": "node",
      "id": 4744405929,
      "lat": -22.9035307,
      "lon": -43.0629657
    },
    {
      "type": "node",
      "id": 4744405930,
      "lat": -22.903507,
      "lon": -43.0629844
    },
    {
      "type": "node",
      "id": 4744405931,
      "lat": -22.9035479,
      "lon": -43.0630428
    },
    {
      "type": "node",
      "id": 4744405932,
      "lat": -22.903578,
      "lon": -43.0630241
    },
    {
      "type": "node",
      "id": 4744406726,
      "lat": -22.9038038,
      "lon": -43.0631735
    },
    {
      "type": "node",
      "id": 4744406727,
      "lat": -22.9038167,
      "lon": -43.0631198
    },
    {
      "type": "node",
      "id": 4744406728,
      "lat": -22.9039006,
      "lon": -43.0631362
    },
    {
      "type": "node",
      "id": 4744406729,
      "lat": -22.9038899,
      "lon": -43.0631922
    },
    {
      "type": "node",
      "id": 2831540420,
      "lat": -22.9065948,
      "lon": -43.0552513
    },
    {
      "type": "node",
      "id": 2831540421,
      "lat": -22.9068303,
      "lon": -43.0551728
    },
    {
      "type": "node",
      "id": 2831540422,
      "lat": -22.9066827,
      "lon": -43.0545196
    },
    {
      "type": "node",
      "id": 2831540423,
      "lat": -22.9064322,
      "lon": -43.0546408
    },
    {
      "type": "node",
      "id": 3534524393,
      "lat": -22.9067271,
      "lon": -43.0564424
    },
    {
      "type": "node",
      "id": 3534524394,
      "lat": -22.9070221,
      "lon": -43.0563823
    },
    {
      "type": "node",
      "id": 3534524395,
      "lat": -22.9068936,
      "lon": -43.0554516
    },
    {
      "type": "node",
      "id": 3534524396,
      "lat": -22.9065947,
      "lon": -43.0555508
    },
    {
      "type": "node",
      "id": 4744417093,
      "lat": -22.9055082,
      "lon": -43.0539393
    },
    {
      "type": "node",
      "id": 4744417094,
      "lat": -22.9054332,
      "lon": -43.053727
    },
    {
      "type": "node",
      "id": 4744417095,
      "lat": -22.9056973,
      "lon": -43.0536279
    },
    {
      "type": "node",
      "id": 4744417096,
      "lat": -22.9058407,
      "lon": -43.0538686
    },
    {
      "type": "node",
      "id": 5286846086,
      "lat": -22.8794299,
      "lon": -43.0963659
    },
    {
      "type": "node",
      "id": 5286846087,
      "lat": -22.8792311,
      "lon": -43.0964708
    },
    {
      "type": "node",
      "id": 2665856792,
      "lat": -22.8920058,
      "lon": -43.051248
    },
    {
      "type": "node",
      "id": 2665856793,
      "lat": -22.8919764,
      "lon": -43.051179
    },
    {
      "type": "node",
      "id": 2665856794,
      "lat": -22.8917662,
      "lon": -43.051271
    },
    {
      "type": "node",
      "id": 2665856795,
      "lat": -22.8917547,
      "lon": -43.0511701
    },
    {
      "type": "node",
      "id": 2665856796,
      "lat": -22.8919536,
      "lon": -43.0509914
    },
    {
      "type": "node",
      "id": 2665856797,
      "lat": -22.8919031,
      "lon": -43.050887
    },
    {
      "type": "node",
      "id": 2665856798,
      "lat": -22.8917596,
      "lon": -43.0509065
    },
    {
      "type": "node",
      "id": 2665856799,
      "lat": -22.8916618,
      "lon": -43.0508834
    },
    {
      "type": "node",
      "id": 2665856800,
      "lat": -22.8915575,
      "lon": -43.0508958
    },
    {
      "type": "node",
      "id": 2665856802,
      "lat": -22.8914906,
      "lon": -43.0509613
    },
    {
      "type": "node",
      "id": 2665856803,
      "lat": -22.8914809,
      "lon": -43.0510834
    },
    {
      "type": "node",
      "id": 2665856804,
      "lat": -22.8914972,
      "lon": -43.0512498
    },
    {
      "type": "node",
      "id": 2665856806,
      "lat": -22.8916292,
      "lon": -43.0513949
    },
    {
      "type": "node",
      "id": 2665856807,
      "lat": -22.8917156,
      "lon": -43.0515577
    },
    {
      "type": "node",
      "id": 2665856808,
      "lat": -22.8919716,
      "lon": -43.0515417
    },
    {
      "type": "node",
      "id": 2665856810,
      "lat": -22.8919781,
      "lon": -43.0512975
    },
    {
      "type": "node",
      "id": 1971150477,
      "lat": -22.8864254,
      "lon": -43.0552598
    },
    {
      "type": "node",
      "id": 1971150481,
      "lat": -22.88646,
      "lon": -43.0557423
    },
    {
      "type": "node",
      "id": 1971150489,
      "lat": -22.8865044,
      "lon": -43.0556163
    },
    {
      "type": "node",
      "id": 1971150497,
      "lat": -22.886576,
      "lon": -43.0551955
    },
    {
      "type": "node",
      "id": 1971150518,
      "lat": -22.8866452,
      "lon": -43.0560693
    },
    {
      "type": "node",
      "id": 1971150523,
      "lat": -22.8866847,
      "lon": -43.055485
    },
    {
      "type": "node",
      "id": 1971150524,
      "lat": -22.8867217,
      "lon": -43.0561015
    },
    {
      "type": "node",
      "id": 1971150542,
      "lat": -22.8868625,
      "lon": -43.0553536
    },
    {
      "type": "node",
      "id": 1971150550,
      "lat": -22.8868946,
      "lon": -43.0563213
    },
    {
      "type": "node",
      "id": 1971150587,
      "lat": -22.8870848,
      "lon": -43.0556378
    },
    {
      "type": "node",
      "id": 1971150592,
      "lat": -22.8871243,
      "lon": -43.0556914
    },
    {
      "type": "node",
      "id": 1971150622,
      "lat": -22.8873144,
      "lon": -43.0559192
    },
    {
      "type": "node",
      "id": 5061242582,
      "lat": -22.8625587,
      "lon": -43.0868807
    },
    {
      "type": "node",
      "id": 5061242583,
      "lat": -22.862563,
      "lon": -43.0868667
    },
    {
      "type": "node",
      "id": 5061242584,
      "lat": -22.8626131,
      "lon": -43.0868841
    },
    {
      "type": "node",
      "id": 5061242585,
      "lat": -22.8626081,
      "lon": -43.0868995
    },
    {
      "type": "node",
      "id": 5061242586,
      "lat": -22.8627515,
      "lon": -43.0869451
    },
    {
      "type": "node",
      "id": 5061242587,
      "lat": -22.8627983,
      "lon": -43.0867752
    },
    {
      "type": "node",
      "id": 5061242589,
      "lat": -22.8625117,
      "lon": -43.0866819
    },
    {
      "type": "node",
      "id": 5061242593,
      "lat": -22.8626413,
      "lon": -43.0862535
    },
    {
      "type": "node",
      "id": 5061242600,
      "lat": -22.8627431,
      "lon": -43.0862701
    },
    {
      "type": "node",
      "id": 5061242601,
      "lat": -22.8627194,
      "lon": -43.0863492
    },
    {
      "type": "node",
      "id": 5061242602,
      "lat": -22.8626249,
      "lon": -43.0863168
    },
    {
      "type": "node",
      "id": 5061242605,
      "lat": -22.8626894,
      "lon": -43.0861349
    },
    {
      "type": "node",
      "id": 5061242606,
      "lat": -22.8627009,
      "lon": -43.0861588
    },
    {
      "type": "node",
      "id": 5061242608,
      "lat": -22.862719,
      "lon": -43.0861651
    },
    {
      "type": "node",
      "id": 5061242609,
      "lat": -22.8627286,
      "lon": -43.0861349
    },
    {
      "type": "node",
      "id": 5061242610,
      "lat": -22.8626944,
      "lon": -43.0861211
    },
    {
      "type": "node",
      "id": 5129700770,
      "lat": -22.8626865,
      "lon": -43.0869244
    },
    {
      "type": "node",
      "id": 6917322966,
      "lat": -22.8625931,
      "lon": -43.0879023
    },
    {
      "type": "node",
      "id": 6917322967,
      "lat": -22.8626401,
      "lon": -43.0878142
    },
    {
      "type": "node",
      "id": 6917330804,
      "lat": -22.8623152,
      "lon": -43.0885973
    },
    {
      "type": "node",
      "id": 6917330805,
      "lat": -22.8623095,
      "lon": -43.0886807
    },
    {
      "type": "node",
      "id": 6917330807,
      "lat": -22.8624552,
      "lon": -43.0868483
    },
    {
      "type": "node",
      "id": 6917330809,
      "lat": -22.8626678,
      "lon": -43.0862428
    },
    {
      "type": "node",
      "id": 6917330816,
      "lat": -22.8632012,
      "lon": -43.0850498
    },
    {
      "type": "node",
      "id": 6917330817,
      "lat": -22.8631856,
      "lon": -43.0850236
    },
    {
      "type": "node",
      "id": 6917330820,
      "lat": -22.8633092,
      "lon": -43.0849714
    },
    {
      "type": "node",
      "id": 6917330821,
      "lat": -22.8632163,
      "lon": -43.0849387
    },
    {
      "type": "node",
      "id": 6917330822,
      "lat": -22.8632754,
      "lon": -43.0850737
    },
    {
      "type": "node",
      "id": 6917342488,
      "lat": -22.8624334,
      "lon": -43.0870035
    },
    {
      "type": "node",
      "id": 6917342489,
      "lat": -22.8625143,
      "lon": -43.087033
    },
    {
      "type": "node",
      "id": 6917342490,
      "lat": -22.8625267,
      "lon": -43.0869941
    },
    {
      "type": "node",
      "id": 6917342491,
      "lat": -22.8624773,
      "lon": -43.0869774
    },
    {
      "type": "node",
      "id": 6917342492,
      "lat": -22.8624359,
      "lon": -43.0869868
    },
    {
      "type": "node",
      "id": 5033560858,
      "lat": -22.8608852,
      "lon": -43.0955536
    },
    {
      "type": "node",
      "id": 5033560859,
      "lat": -22.8606798,
      "lon": -43.0956771
    },
    {
      "type": "node",
      "id": 5033560860,
      "lat": -22.8606237,
      "lon": -43.0954195
    },
    {
      "type": "node",
      "id": 5033560861,
      "lat": -22.860669,
      "lon": -43.0954226
    },
    {
      "type": "node",
      "id": 5033560862,
      "lat": -22.8609827,
      "lon": -43.0954699
    },
    {
      "type": "node",
      "id": 5033560863,
      "lat": -22.8610019,
      "lon": -43.0954031
    },
    {
      "type": "node",
      "id": 5033560864,
      "lat": -22.8613069,
      "lon": -43.0954884
    },
    {
      "type": "node",
      "id": 5033560866,
      "lat": -22.8608383,
      "lon": -43.0957259
    },
    {
      "type": "node",
      "id": 5033560867,
      "lat": -22.8612279,
      "lon": -43.0956492
    },
    {
      "type": "node",
      "id": 5033560883,
      "lat": -22.8607135,
      "lon": -43.0963558
    },
    {
      "type": "node",
      "id": 5033560884,
      "lat": -22.8608253,
      "lon": -43.0964131
    },
    {
      "type": "node",
      "id": 5033560886,
      "lat": -22.860679,
      "lon": -43.0964247
    },
    {
      "type": "node",
      "id": 6917279431,
      "lat": -22.8618931,
      "lon": -43.0905794
    },
    {
      "type": "node",
      "id": 6917279432,
      "lat": -22.8619388,
      "lon": -43.0904962
    },
    {
      "type": "node",
      "id": 6917279433,
      "lat": -22.8621118,
      "lon": -43.0904681
    },
    {
      "type": "node",
      "id": 6917279434,
      "lat": -22.8621242,
      "lon": -43.0905485
    },
    {
      "type": "node",
      "id": 6917279437,
      "lat": -22.8620709,
      "lon": -43.0901784
    },
    {
      "type": "node",
      "id": 6917279438,
      "lat": -22.8618695,
      "lon": -43.0902759
    },
    {
      "type": "node",
      "id": 6917279440,
      "lat": -22.862083,
      "lon": -43.0902353
    },
    {
      "type": "node",
      "id": 6917279441,
      "lat": -22.8619317,
      "lon": -43.0904002
    },
    {
      "type": "node",
      "id": 6917279442,
      "lat": -22.8620326,
      "lon": -43.0902598
    },
    {
      "type": "node",
      "id": 6917354817,
      "lat": -22.86068,
      "lon": -43.0953758
    },
    {
      "type": "node",
      "id": 5120876528,
      "lat": -22.8622085,
      "lon": -43.0875967
    },
    {
      "type": "node",
      "id": 6917322965,
      "lat": -22.8621414,
      "lon": -43.0877138
    },
    {
      "type": "node",
      "id": 6917326075,
      "lat": -22.8619786,
      "lon": -43.0895415
    },
    {
      "type": "node",
      "id": 6917326076,
      "lat": -22.8621833,
      "lon": -43.0893957
    },
    {
      "type": "node",
      "id": 6917326077,
      "lat": -22.8621719,
      "lon": -43.0893687
    },
    {
      "type": "node",
      "id": 6917326078,
      "lat": -22.8619587,
      "lon": -43.0894937
    },
    {
      "type": "node",
      "id": 6917330803,
      "lat": -22.861865,
      "lon": -43.0885647
    },
    {
      "type": "node",
      "id": 6917330806,
      "lat": -22.86185,
      "lon": -43.0886909
    },
    {
      "type": "node",
      "id": 6917340440,
      "lat": -22.8620731,
      "lon": -43.0878744
    },
    {
      "type": "node",
      "id": 6917340441,
      "lat": -22.862171,
      "lon": -43.0879037
    },
    {
      "type": "node",
      "id": 6917340442,
      "lat": -22.8622023,
      "lon": -43.0878189
    },
    {
      "type": "node",
      "id": 6917340443,
      "lat": -22.8621128,
      "lon": -43.0877866
    },
    {
      "type": "node",
      "id": 6917340450,
      "lat": -22.8619469,
      "lon": -43.0885706
    },
    {
      "type": "node",
      "id": 6917279417,
      "lat": -22.8654541,
      "lon": -43.0780051
    },
    {
      "type": "node",
      "id": 6917279418,
      "lat": -22.8655137,
      "lon": -43.077985
    },
    {
      "type": "node",
      "id": 6917279419,
      "lat": -22.8654924,
      "lon": -43.0778787
    },
    {
      "type": "node",
      "id": 6917279420,
      "lat": -22.86542,
      "lon": -43.0779095
    },
    {
      "type": "node",
      "id": 6917279421,
      "lat": -22.86542,
      "lon": -43.0779789
    },
    {
      "type": "node",
      "id": 4609553992,
      "lat": -22.8760356,
      "lon": -43.0321916
    },
    {
      "type": "node",
      "id": 4609553993,
      "lat": -22.8763198,
      "lon": -43.0320682
    },
    {
      "type": "node",
      "id": 4609553994,
      "lat": -22.8761913,
      "lon": -43.031969
    },
    {
      "type": "node",
      "id": 4609553995,
      "lat": -22.8760999,
      "lon": -43.0317759
    },
    {
      "type": "node",
      "id": 4609553996,
      "lat": -22.8759046,
      "lon": -43.0311455
    },
    {
      "type": "node",
      "id": 4609553997,
      "lat": -22.875833,
      "lon": -43.0311294
    },
    {
      "type": "node",
      "id": 4609553998,
      "lat": -22.8757267,
      "lon": -43.0311697
    },
    {
      "type": "way",
      "id": 413674945,
      "nodes": [
        1932445937,
        4149508696,
        1932433568,
        1932433566,
        1932433559,
        1932433553,
        1932433547,
        1932433535,
        1932433488,
        1932433484,
        1932433476,
        1932433480,
        4149508698,
        1932433493,
        1932433497,
        1932433500,
        1932433504,
        1932433507,
        1932433525,
        1932433528,
        1932433563,
        1932433572,
        1932433574,
        321742861,
        1932433597,
        321742860,
        4149508697,
        1932445937
      ]
    },
    {
      "type": "way",
      "id": 186422333,
      "nodes": [
        1971150477,
        1971150497,
        1971150523,
        1971150489,
        1971150477
      ]
    },
    {
      "type": "way",
      "id": 186422334,
      "nodes": [
        1971150481,
        1971150542,
        1971150587,
        1971150518,
        1971150481
      ]
    },
    {
      "type": "way",
      "id": 186422336,
      "nodes": [
        1971150550,
        1971150524,
        1971150592,
        1971150622,
        1971150550
      ]
    }
  ]
}